raw_text,station_id,observation_time,latitude,longitude,temp_c,dewpoint_c,wind_dir_degrees,wind_speed_kt,wind_gust_kt,visibility_statute_mi,altim_in_hg,sea_level_pressure_mb,corrected,auto,auto_station,maintenance_indicator_on,no_signal,lightning_sensor_off,freezing_rain_sensor_off,present_weather_sensor_off,wx_string,sky_cover,cloud_base_ft_agl,sky_cover,cloud_base_ft_agl,sky_cover,cloud_base_ft_agl,sky_cover,cloud_base_ft_agl,flight_category,three_hr_pressure_tendency_mb,maxT_c,minT_c,maxT24hr_c,minT24hr_c,precip_in,pcp3hr_in,pcp6hr_in,pcp24hr_in,snow_in,vert_vis_ft,metar_type,elevation_m
UASS 050107Z 30003MPS 9999 BKN///CB OVC/// 13/10 Q1003 NOSIG RMK QFE734/0979,UASS,2024-05-05T01:07:00Z,50.352,80.228,13,10,300,6,,6+,29.62,,,,,,TRUE,,,,,,,,,,,,,VFR,,,,,,,,,,,,SPECI,215
EBFS 050107Z AUTO 24005KT 2100 BR SCT001/// BKN003/// BKN130/// 08/08 Q1009 RED,EBFS,2024-05-05T01:07:00Z,50.243,4.646,8,8,240,5,,1.3,29.79,,,TRUE,,,,,,,BR,SCT,100,BKN,300,BKN,13000,,,LIFR,,,,,,,,,,,,SPECI,276
CYER 050107Z AUTO 24009KT 6SM -RA BR FEW008 OVC013 02/02 A2972 RMK SLP068,CYER,2024-05-05T01:07:00Z,56.019,-87.675,2,2,240,9,,6,29.72,1006.8,,TRUE,,,,,,,-RA BR,FEW,800,OVC,1300,,,,,MVFR,,,,,,,,,,,,SPECI,11
PADM 050106Z AUTO 30006KT 10SM BKN032 BKN041 OVC048 06/M01 A2935 RMK AO2,PADM,2024-05-05T01:06:00Z,61.865,-162.033,6,-1,300,6,,10+,29.35,,,TRUE,TRUE,,,,,,,BKN,3200,BKN,4100,OVC,4800,,,VFR,,,,,,,,,,,,SPECI,17
KRAC 050106Z AUTO 13004KT 5SM BR FEW002 BKN060 OVC070 16/14 A2986 RMK AO2 LTG DSNT N RAE02 P0000 T01560144,KRAC,2024-05-05T01:06:00Z,42.7586,-87.8178,15.6,14.4,130,4,,5,29.86,,,TRUE,TRUE,,,,,,BR,FEW,200,BKN,6000,OVC,7000,,,MVFR,,,,,,0.005,,,,,,SPECI,203
KGRK 050106Z AUTO 09010KT 10SM BKN028 OVC041 22/22 A2981 RMK AO2 LTG DSNT W-N RAE06 BKN V OVC SLP086,KGRK,2024-05-05T01:06:00Z,31.0779,-97.8323,22,22,90,10,,10+,29.81,1008.6,,TRUE,TRUE,,,,,,,BKN,2800,OVC,4100,,,,,MVFR,,,,,,,,,,,,SPECI,311
CYBQ 050106Z AUTO 36008KT 310V020 9SM -SNRA -UP SCT009 BKN013 OVC023 01/M01 A2992 RMK SLP152,CYBQ,2024-05-05T01:06:00Z,58.707,-98.511,1,-1,360,8,,9,29.92,1015.2,,TRUE,,,,,,,-SN -RA UP,SCT,900,BKN,1300,OVC,2300,,,MVFR,,,,,,,,,,,,SPECI,272
RKJK 050105Z AUTO 13010KT 4SM -RA BR OVC019 20/18 A2982 RMK AO2 CIG 019V023 SLP102 $,RKJK,2024-05-05T01:05:00Z,35.9,126.618,20,18,130,10,,4,29.82,1010.2,,TRUE,TRUE,TRUE,,,,,-RA BR,OVC,1900,,,,,,,MVFR,,,,,,,,,,,,SPECI,8
RCKH 050105Z 18010KT 150V220 9999 FEW010TCU FEW016 SCT024 BKN140 30/25 Q1011 NOSIG RMK TCU W A2987,RCKH,2024-05-05T01:05:00Z,22.577,120.35,30,25,180,10,,6+,29.85,,,,,,TRUE,,,,,FEW,1000,FEW,1600,SCT,2400,BKN,14000,VFR,,,,,,,,,,,,SPECI,6
PPIZ 050105Z AUTO 04022KT 1 1/2SM -SN BR SCT018 OVC031 M12/M14 A3007 RMK AO2 PK WND 04026/0100 VIS 3/4V3 P0000 FZRANO,PPIZ,2024-05-05T01:05:00Z,69.735,-163.003,-12,-14,40,22,,1.5,30.07,,,TRUE,TRUE,,,,TRUE,,-SN BR,SCT,1800,OVC,3100,,,,,IFR,,,,,,0.005,,,,,,SPECI,5
KTVL 050105Z AUTO 17006KT 1/4SM +SN FZFG VV006 M03/M04 A2967 RMK AO2 P0001 T10331039,KTVL,2024-05-05T01:05:00Z,38.8984,-119.996,-3.3,-3.9,170,6,,0.25,29.67,,,TRUE,TRUE,,,,,,+SN FZFG,OVX,0,,,,,,,LIFR,,,,,,0.01,,,,,600,SPECI,1907
KTDZ 050105Z AUTO 05004KT 4SM -RA BR BKN033 BKN041 OVC050 18/16 A2990 RMK AO2 LTG DSNT SW TSE0059 P0002 T01830161,KTDZ,2024-05-05T01:05:00Z,41.5633,-83.4767,18.3,16.1,50,4,,4,29.90,,,TRUE,TRUE,,,,,,-RA BR,BKN,3300,BKN,4100,OVC,5000,,,MVFR,,,,,,0.02,,,,,,SPECI,189
KNLC 050105Z AUTO 34017G23KT 4SM -RA BR FEW006 BKN022 OVC027 11/10 A2987 RMK AO2 P0001 T01110100 $,KNLC,2024-05-05T01:05:00Z,36.3024,-119.94,11.1,10,340,17,23,4,29.87,,,TRUE,TRUE,TRUE,,,,,-RA BR,FEW,600,BKN,2200,OVC,2700,,,MVFR,,,,,,0.01,,,,,,SPECI,69
KNFE 050105Z AUTO 11003KT 10SM BKN028 BKN080 OVC110 19/15 A3016 RMK AO2 T01890150,KNFE,2024-05-05T01:05:00Z,36.701,-76.129,18.9,15,110,3,,10+,30.16,,,TRUE,TRUE,,,,,,,BKN,2800,BKN,8000,OVC,11000,,,MVFR,,,,,,,,,,,,SPECI,4
KMRB 050105Z AUTO 10004KT 10SM SCT007 OVC013 10/10 A3019 RMK AO2 T01000100,KMRB,2024-05-05T01:05:00Z,39.4037,-77.975,10,10,100,4,,10+,30.19,,,TRUE,TRUE,,,,,,,SCT,700,OVC,1300,,,,,MVFR,,,,,,,,,,,,SPECI,165
KMMT 050105Z AUTO 09003KT 5SM -RA BR OVC004 21/20 A3004 RMK AO2 CIG 004V006 SLP174 $,KMMT,2024-05-05T01:05:00Z,33.922,-80.802,21,20,90,3,,5,30.04,1017.4,,TRUE,TRUE,TRUE,,,,,-RA BR,OVC,400,,,,,,,LIFR,,,,,,,,,,,,SPECI,76
KLPC 050105Z AUTO 23005KT 9SM -RA BKN016 OVC025 13/13 A2989 RMK AO2 P0000,KLPC,2024-05-05T01:05:00Z,34.6646,-120.464,13,13,230,5,,9,29.89,,,TRUE,TRUE,,,,,,-RA,BKN,1600,OVC,2500,,,,,MVFR,,,,,,0.005,,,,,,SPECI,26
KHLR 050105Z AUTO 11008KT 7SM -RA FEW023 BKN030 OVC039 23/22 A2982 RMK AO2 LTG DSNT W-N SLP090,KHLR,2024-05-05T01:05:00Z,31.1361,-97.7149,23,22,110,8,,7,29.82,1009,,TRUE,TRUE,,,,,,-RA,FEW,2300,BKN,3000,OVC,3900,,,MVFR,,,,,,,,,,,,SPECI,271
KGYY 050105Z 25004G24KT 4SM VCTS BR OVC044 20/20 A2986 RMK LTG DSNT ALQDS TS E0103 MOV E,KGYY,2024-05-05T01:05:00Z,41.6121,-87.4091,20,20,250,4,24,4,29.86,,,,,,,,,,VCTS BR,OVC,4400,,,,,,,MVFR,,,,,,,,,,,,SPECI,179
KAST 050105Z AUTO 28007KT 9SM -RA FEW018 BKN029 OVC046 10/08 A2965 RMK AO2 CIG 024 RWY 08 P0000 T01000083,KAST,2024-05-05T01:05:00Z,46.157,-123.883,10,8.3,280,7,,9,29.65,,,TRUE,TRUE,,,,,,-RA,FEW,1800,BKN,2900,OVC,4600,,,MVFR,,,,,,0.005,,,,,,SPECI,3
CYPH 050105Z AUTO 17014G20KT 9SM BKN008 BKN012 BKN047 OVC066 03/02 A2982 RMK SLP101,CYPH,2024-05-05T01:05:00Z,58.47,-78.08,3,2,170,14,20,9,29.82,1010.1,,TRUE,,,,,,,,BKN,800,BKN,1200,BKN,4700,OVC,6600,IFR,,,,,,,,,,,,SPECI,24
PAJC 050104Z AUTO 03005KT 10SM BKN029 OVC037 05/02 A2926 RMK AO2 RAE03 P0000 $,PAJC,2024-05-05T01:04:00Z,56.312,-158.374,5,2,30,5,,10+,29.26,,,TRUE,TRUE,TRUE,,,,,,BKN,2900,OVC,3700,,,,,MVFR,,,,,,0.005,,,,,,SPECI,10
KZZV 050104Z AUTO 16007KT 10SM BKN015 BKN075 21/19 A2995 RMK AO2 T02060189,KZZV,2024-05-05T01:04:00Z,39.9461,-81.8932,20.6,18.9,160,7,,10+,29.95,,,TRUE,TRUE,,,,,,,BKN,1500,BKN,7500,,,,,MVFR,,,,,,,,,,,,SPECI,268
KVUO 050104Z AUTO 20004KT 6SM -RA BR SCT011 BKN029 OVC042 10/08 A2967 RMK AO2 P0000 T01000078,KVUO,2024-05-05T01:04:00Z,45.621,-122.654,10,7.8,200,4,,6,29.67,,,TRUE,TRUE,,,,,,-RA BR,SCT,1100,BKN,2900,OVC,4200,,,MVFR,,,,,,0.005,,,,,,SPECI,7
KRDM 050104Z 31017G25KT 10SM -RA BKN035 OVC045 06/01 A2954 RMK AO2 P0000 T00560011,KRDM,2024-05-05T01:04:00Z,44.2558,-121.141,5.6,1.1,310,17,25,10+,29.54,,,,TRUE,,,,,,-RA,BKN,3500,OVC,4500,,,,,VFR,,,,,,0.005,,,,,,SPECI,930
KMFD 050104Z 13008KT 10SM BKN021 BKN060 19/17 A2994 RMK AO2 T01940167,KMFD,2024-05-05T01:04:00Z,40.8204,-82.5177,19.4,16.7,130,8,,10+,29.94,,,,TRUE,,,,,,,BKN,2100,BKN,6000,,,,,MVFR,,,,,,,,,,,,SPECI,394
KIWD 050104Z AUTO 31003KT 10SM FEW009 SCT014 BKN019 07/06 A2997 RMK AO2,KIWD,2024-05-05T01:04:00Z,46.5321,-90.126,7,6,310,3,,10+,29.97,,,TRUE,TRUE,,,,,,,FEW,900,SCT,1400,BKN,1900,,,MVFR,,,,,,,,,,,,SPECI,373
KCMA 050104Z 25010KT 10SM BKN016 BKN041 17/11 A2989 RMK AO2 T01720111,KCMA,2024-05-05T01:04:00Z,34.2114,-119.088,17.2,11.1,250,10,,10+,29.89,,,,TRUE,,,,,,,BKN,1600,BKN,4100,,,,,MVFR,,,,,,,,,,,,SPECI,20
KCAE 050104Z 12004KT 9SM -RA BKN008 BKN038 OVC075 21/20 A3005 RMK AO2 P0000 T02110200,KCAE,2024-05-05T01:04:00Z,33.9422,-81.118,21.1,20,120,4,,9,30.05,,,,TRUE,,,,,,-RA,BKN,800,BKN,3800,OVC,7500,,,IFR,,,,,,0.005,,,,,,SPECI,69
KBAN 050104Z AUTO 1/4SM +SN FZFG VV004 M02/M04 A2966 RMK AO2 PRESRR P0002 T10221039 $,KBAN,2024-05-05T01:04:00Z,38.355,-119.522,-2.2,-3.9,,,,0.25,29.66,,,TRUE,TRUE,TRUE,,,,,+SN FZFG,OVX,0,,,,,,,LIFR,,,,,,0.02,,,,,400,SPECI,2067
KAKH 050104Z AUTO VRB03KT 10SM -RA BKN015 BKN042 OVC055 19/19 A3007 RMK AO2 P0000 T01940189,KAKH,2024-05-05T01:04:00Z,35.1968,-81.1555,19.4,18.9,VRB,3,,10+,30.07,,,TRUE,TRUE,,,,,,-RA,BKN,1500,BKN,4200,OVC,5500,,,MVFR,,,,,,0.005,,,,,,SPECI,242
EHVK 050104Z AUTO VRB02KT 4400 BR FEW002 SCT019 BKN022 10/10 Q1008 GRN,EHVK,2024-05-05T01:04:00Z,51.658,5.707,10,10,VRB,2,,2.73,29.76,,,TRUE,,,,,,,BR,FEW,200,SCT,1900,BKN,2200,,,IFR,,,,,,,,,,,,SPECI,20
EBFN 050104Z AUTO VRB01KT 0400 FG /// 06/06 Q1009 RED,EBFN,2024-05-05T01:04:00Z,51.09,2.653,6,6,VRB,1,,0.25,29.79,,,TRUE,,,,,,,FG,,,,,,,,,LIFR,,,,,,,,,,,,SPECI,9
SPQT 050103Z 08010KT 8000 -SHRA SCT007 BKN025 OVC100 25/22 Q1010,SPQT,2024-05-05T01:03:00Z,-3.786,-73.306,25,22,80,10,,4.97,29.82,,,,,,,,,,-SHRA,SCT,700,BKN,2500,OVC,10000,,,MVFR,,,,,,,,,,,,SPECI,92
PHBK 050103Z AUTO 33004KT 10SM SCT038 SCT048 BKN060 27/18 A3002 RMK AO2 T02720178,PHBK,2024-05-05T01:03:00Z,22.034,-159.783,27.2,17.8,330,4,,10+,30.02,,,TRUE,TRUE,,,,,,,SCT,3800,SCT,4800,BKN,6000,,,VFR,,,,,,,,,,,,SPECI,5
PAPE 050103Z AUTO 25008KT 5SM -RA FEW008 OVC028 06/01 A2927 RMK AO2 P0000,PAPE,2024-05-05T01:03:00Z,55.9096,-159.16,6,1,250,8,,5,29.27,,,TRUE,TRUE,,,,,,-RA,FEW,800,OVC,2800,,,,,MVFR,,,,,,0.005,,,,,,SPECI,15
PAKP 050103Z AUTO 04020G24KT 3/4SM -SN BKN015 BKN022 OVC027 M13/M16 A2964 RMK AO2 P0000 FZRANO,PAKP,2024-05-05T01:03:00Z,68.136,-151.74,-13,-16,40,20,24,0.75,29.64,,,TRUE,TRUE,,,,TRUE,,-SN,BKN,1500,BKN,2200,OVC,2700,,,LIFR,,,,,,0.005,,,,,,SPECI,649
MMCV 050103Z 21002KT 6SM SCT020 BKN100 OVC250 26/26 A2976 RMK 8/463 RAE01 DSNT CB E/SE,MMCV,2024-05-05T01:03:00Z,23.706,-98.959,26,26,210,2,,6,29.76,,,,,,,,,,,SCT,2000,BKN,10000,OVC,25000,,,VFR,,,,,,,,,,,,SPECI,230
KVAD 050103Z AUTO 21003KT 10SM CLR 21/20 A3001 RMK AO2 RAB0057E03 SLP163 $,KVAD,2024-05-05T01:03:00Z,30.979,-83.192,21,20,210,3,,10+,30.01,1016.3,,TRUE,TRUE,TRUE,,,,,,CLR,,,,,,,,VFR,,,,,,,,,,,,SPECI,70
KSUE 050103Z AUTO 30010KT 3/4SM RA BR BKN016 OVC027 14/13 A2985 RMK AO2 LTG DSNT NE P0000 RVRNO,KSUE,2024-05-05T01:03:00Z,44.847,-87.425,14,13,300,10,,0.75,29.85,,,TRUE,TRUE,,,,,,RA BR,BKN,1600,OVC,2700,,,,,LIFR,,,,,,0.005,,,,,,SPECI,215
KSBY 050103Z 09010KT 10SM BKN010 OVC020 12/11 A3023 RMK AO2 T01170106,KSBY,2024-05-05T01:03:00Z,38.3409,-75.5132,11.7,10.6,90,10,,10+,30.23,,,,TRUE,,,,,,,BKN,1000,OVC,2000,,,,,MVFR,,,,,,,,,,,,SPECI,14
KPWA 050103Z 03011G22KT 10SM FEW022 17/13 A2995 RMK AO2 T01720133,KPWA,2024-05-05T01:03:00Z,35.5411,-97.6472,17.2,13.3,30,11,22,10+,29.95,,,,TRUE,,,,,,,FEW,2200,,,,,,,VFR,,,,,,,,,,,,SPECI,390
KMYP 050103Z AUTO 11007KT M1/4SM -SN OVC003 M01/M01 A3032 RMK AO2,KMYP,2024-05-05T01:03:00Z,38.4972,-106.32,-1,-1,110,7,,0.25,30.32,,,TRUE,TRUE,,,,,,-SN,OVC,300,,,,,,,LIFR,,,,,,,,,,,,METAR,3629
KMTO 050103Z AUTO 29021G37KT 8SM VCTS RA FEW033 BKN045 OVC075 18/17 A2994 RMK AO2 PK WND 27037/0100 LTG DSNT SW-N RAB00 P0001 T01830167,KMTO,2024-05-05T01:03:00Z,39.4744,-88.2724,18.3,16.7,290,21,37,8,29.94,,,TRUE,TRUE,,,,,,VCTS RA,FEW,3300,BKN,4500,OVC,7500,,,VFR,,,,,,0.01,,,,,,SPECI,216
KHIO 050103Z 22005KT 5SM -RA BR BKN008 BKN028 OVC037 10/08 A2965 RMK AO2 P0001 T01000078,KHIO,2024-05-05T01:03:00Z,45.5476,-122.956,10,7.8,220,5,,5,29.65,,,,TRUE,,,,,,-RA BR,BKN,800,BKN,2800,OVC,3700,,,IFR,,,,,,0.01,,,,,,SPECI,62
KGPT 050103Z AUTO 16004KT 10SM FEW003 26/21 A2997 RMK AO2 T02610211,KGPT,2024-05-05T01:03:00Z,30.4121,-89.0809,26.1,21.1,160,4,,10+,29.97,,,TRUE,TRUE,,,,,,,FEW,300,,,,,,,VFR,,,,,,,,,,,,SPECI,5
KCMX 050103Z AUTO 30014KT 9SM -RA FEW002 BKN043 OVC050 08/06 A2989 RMK AO2 P0000 T00780061,KCMX,2024-05-05T01:03:00Z,47.1705,-88.4854,7.8,6.1,300,14,,9,29.89,,,TRUE,TRUE,,,,,,-RA,FEW,200,BKN,4300,OVC,5000,,,VFR,,,,,,0.005,,,,,,SPECI,326
PAHX 050102Z AUTO 00000KT 10SM -RA SCT028 BKN037 OVC070 07/04 A2929 RMK AO2 RAB0040 SLP920 P0006 T00670039,PAHX,2024-05-05T01:02:00Z,62.688,-159.566,6.7,3.9,0,0,,10+,29.29,992,,TRUE,TRUE,,,,,,-RA,SCT,2800,BKN,3700,OVC,7000,,,VFR,,,,,,0.06,,,,,,METAR,20
LTBQ 050102Z VRB01KT 6000 -SHRA SCT012 BKN022 BKN080 12/12 Q1011 NOSIG RMK RWY09 02003KT 340V060,LTBQ,2024-05-05T01:02:00Z,40.735,30.083,12,12,VRB,1,,3.73,29.85,,,,,,TRUE,,,,-SHRA,SCT,1200,BKN,2200,BKN,8000,,,MVFR,,,,,,,,,,,,SPECI,51
KIPT 050102Z 10012G18KT 10SM SCT014 OVC026 12/09 A3021 RMK AO2 T01170094,KIPT,2024-05-05T01:02:00Z,41.243,-76.9217,11.7,9.4,100,12,18,10+,30.21,,,,TRUE,,,,,,,SCT,1400,OVC,2600,,,,,MVFR,,,,,,,,,,,,SPECI,160
KFHU 050102Z AUTO 25011G17KT 10SM CLR 25/M11 A2993 RMK AO2 WSHFT 00 SLPNO,KFHU,2024-05-05T01:02:00Z,31.586,-110.348,25,-11,250,11,17,10+,29.93,,,TRUE,TRUE,,,,,,,CLR,,,,,,,,VFR,,,,,,,,,,,,SPECI,1424
KDEC 050102Z 31006KT 7SM RA OVC100 18/18 A2993 RMK AO2 LTG DSNT NE-S TSE0056 P0002 T01830183,KDEC,2024-05-05T01:02:00Z,39.8308,-88.8719,18.3,18.3,310,6,,7,29.93,,,,TRUE,,,,,,RA,OVC,10000,,,,,,,VFR,,,,,,0.02,,,,,,SPECI,205
KACY 050102Z 10008KT 10SM -RA BKN007 OVC055 10/08 A3029 RMK AO2 P0000 T01000083,KACY,2024-05-05T01:02:00Z,39.452,-74.567,10,8.3,100,8,,10+,30.29,,,,TRUE,,,,,,-RA,BKN,700,OVC,5500,,,,,IFR,,,,,,0.005,,,,,,SPECI,18
KABE 050102Z 11007KT 4SM -RA BR FEW007 BKN012 OVC026 09/08 A3029 RMK AO2 P0001 T00940078,KABE,2024-05-05T01:02:00Z,40.658,-75.4347,9.4,7.8,110,7,,4,30.29,,,,TRUE,,,,,,-RA BR,FEW,700,BKN,1200,OVC,2600,,,MVFR,,,,,,0.01,,,,,,SPECI,117
PAFS 050101Z AUTO 00000KT 10SM OVC070 12/M02 A2924 RMK AO2 SLP907 T01221022,PAFS,2024-05-05T01:01:00Z,63.015,-154.367,12.2,-2.2,0,0,,10+,29.24,990.7,,TRUE,TRUE,,,,,,,OVC,7000,,,,,,,VFR,,,,,,,,,,,,METAR,131
KSSC 050101Z AUTO 09003KT 10SM FEW007 BKN022 BKN037 OVC130 21/20 A3004 RMK AO2 SLP172 $,KSSC,2024-05-05T01:01:00Z,33.978,-80.466,21,20,90,3,,10+,30.04,1017.2,,TRUE,TRUE,TRUE,,,,,,FEW,700,BKN,2200,BKN,3700,OVC,13000,MVFR,,,,,,,,,,,,SPECI,71
KSIY 050101Z AUTO VRB06KT 9SM -RA BKN018 BKN024 OVC050 06/02 A2969 RMK AO2 P0001 T00560022,KSIY,2024-05-05T01:01:00Z,41.7737,-122.468,5.6,2.2,VRB,6,,9,29.69,,,TRUE,TRUE,,,,,,-RA,BKN,1800,BKN,2400,OVC,5000,,,MVFR,,,,,,0.01,,,,,,SPECI,807
KSAF 050101Z 28016G28KT 10SM BKN090 OVC100 17/02 A3000 RMK AO2 PK WND 28028/0058 WSHFT 0047 LTG DSNT SW RAE00 P0000 T01670017,KSAF,2024-05-05T01:01:00Z,35.611,-106.096,16.7,1.7,280,16,28,10+,30.00,,,,TRUE,,,,,,,BKN,9000,OVC,10000,,,,,VFR,,,,,,0.005,,,,,,SPECI,1918
KMMK 050101Z AUTO 14006KT 10SM SCT018 10/06 A3035 RMK AO2 T01000056,KMMK,2024-05-05T01:01:00Z,41.5097,-72.8278,10,5.6,140,6,,10+,30.35,,,TRUE,TRUE,,,,,,,SCT,1800,,,,,,,VFR,,,,,,,,,,,,SPECI,30
KMHS 050101Z AUTO VRB04KT 3SM -SN BR BKN016 OVC030 02/00 A2964 RMK AO2 P0000 T00220000,KMHS,2024-05-05T01:01:00Z,41.3149,-122.317,2.2,0,VRB,4,,3,29.64,,,TRUE,TRUE,,,,,,-SN BR,BKN,1600,OVC,3000,,,,,MVFR,,,,,,0.005,,,,,,SPECI,1080
KFAT 050101Z 33009KT 2SM RA BR SCT008 BKN012 OVC025 11/09 A2988 RMK AO2 P0002 T01060089 $,KFAT,2024-05-05T01:01:00Z,36.78,-119.72,10.6,8.9,330,9,,2,29.88,,,,TRUE,TRUE,,,,,RA BR,SCT,800,BKN,1200,OVC,2500,,,IFR,,,,,,0.02,,,,,,SPECI,102
KCMI 050101Z 27011G21KT 9SM -TSRA FEW030 BKN065 OVC080 18/16 A2993 RMK AO2 LTG DSNT ALQDS RAB0057 P0000 T01830156,KCMI,2024-05-05T01:01:00Z,40.0324,-88.2755,18.3,15.6,270,11,21,9,29.93,,,,TRUE,,,,,,-TSRA,FEW,3000,BKN,6500,OVC,8000,,,VFR,,,,,,0.005,,,,,,SPECI,227
KABI 050101Z 15009KT 10SM OVC011 21/ A2989 RMK AO2 PRESRR T0211 $,KABI,2024-05-05T01:01:00Z,32.4106,-99.6821,21.1,,150,9,,10+,29.89,,,,TRUE,TRUE,,,,,,OVC,1100,,,,,,,MVFR,,,,,,,,,,,,SPECI,543
EHLW 050101Z AUTO 05003KT 020V150 6000 -RA FEW015CB BKN046 OVC050 10/10 Q1008 WHT,EHLW,2024-05-05T01:01:00Z,53.223,5.752,10,10,50,3,,3.73,29.76,,,TRUE,,,,,,,-RA,FEW,1500,BKN,4600,OVC,5000,,,MVFR,,,,,,,,,,,,SPECI,1
CYIO 050101Z AUTO 19006KT 6SM -SN SCT033 BKN048 M11/M12 A3040 RMK SLP303,CYIO,2024-05-05T01:01:00Z,72.694,-77.957,-11,-12,190,6,,6,30.40,1030.3,,TRUE,,,,,,,-SN,SCT,3300,BKN,4800,,,,,VFR,,,,,,,,,,,,SPECI,61
BIKF 050101Z 16008KT 9999 -RA BKN017 OVC056 03/02 Q1004,BIKF,2024-05-05T01:01:00Z,63.987,-22.614,3,2,160,8,,6+,29.65,,,,,,,,,,-RA,BKN,1700,OVC,5600,,,,,MVFR,,,,,,,,,,,,METAR,49
ZYTX 050100Z 14004MPS 9999 -RA BKN040 14/09 Q1012 NOSIG,ZYTX,2024-05-05T01:00:00Z,41.639,123.485,14,9,140,8,,6+,29.88,,,,,,TRUE,,,,-RA,BKN,4000,,,,,,,VFR,,,,,,,,,,,,METAR,56
ZYTL 050100Z 07004MPS 040V100 6000 -RA SCT006 SCT008 BKN033 13/12 Q1009 BECMG TL0130 BKN008 OVC033,ZYTL,2024-05-05T01:00:00Z,38.961,121.556,13,12,70,8,,3.73,29.79,,,,,,,,,,-RA,SCT,600,SCT,800,BKN,3300,,,MVFR,,,,,,,,,,,,METAR,33
ZYHB 050100Z VRB03MPS CAVOK 20/04 Q1010 BECMG TL0230 36005MPS,ZYHB,2024-05-05T01:00:00Z,45.628,126.259,20,4,VRB,6,,6+,29.82,,,,,,,,,,,CAVOK,,,,,,,,VFR,,,,,,,,,,,,METAR,134
ZYCC 050100Z 21008MPS CAVOK 20/M01 Q1011 NOSIG,ZYCC,2024-05-05T01:00:00Z,43.993,125.682,20,-1,210,16,,6+,29.85,,,,,,TRUE,,,,,CAVOK,,,,,,,,VFR,,,,,,,,,,,,METAR,211
ZWWW 050100Z VRB01MPS CAVOK 22/M02 Q1006 NOSIG,ZWWW,2024-05-05T01:00:00Z,43.907,87.474,22,-2,VRB,2,,6+,29.70,,,,,,TRUE,,,,,CAVOK,,,,,,,,VFR,,,,,,,,,,,,METAR,654
ZWSH 050100Z 32004MPS CAVOK 18/M02 Q1010 NOSIG,ZWSH,2024-05-05T01:00:00Z,39.542,76.019,18,-2,320,8,,6+,29.82,,,,,,TRUE,,,,,CAVOK,,,,,,,,VFR,,,,,,,,,,,,METAR,1374
ZUUU 050100Z 17002MPS 080V220 CAVOK 21/16 Q1013 NOSIG,ZUUU,2024-05-05T01:00:00Z,30.576,103.95,21,16,170,4,,6+,29.91,,,,,,TRUE,,,,,CAVOK,,,,,,,,VFR,,,,,,,,,,,,METAR,494
ZUTF 050100Z VRB01MPS CAVOK 20/15 Q1013 NOSIG,ZUTF,2024-05-05T01:00:00Z,30.304,104.436,20,15,VRB,2,,6+,29.91,,,,,,TRUE,,,,,CAVOK,,,,,,,,VFR,,,,,,,,,,,,METAR,443
ZUGY 050100Z VRB01MPS 2800 PRFG BR FEW002 SCT040 12/12 Q1017 BECMG TL0130 3000,ZUGY,2024-05-05T01:00:00Z,26.538,106.801,12,12,VRB,2,,1.74,30.03,,,,,,,,,,PRFG BR,FEW,200,SCT,4000,,,,,IFR,,,,,,,,,,,,METAR,1130
ZUCK 050100Z 07002MPS 030V110 5000 BR FEW011 19/16 Q1014 NOSIG,ZUCK,2024-05-05T01:00:00Z,29.718,106.639,19,16,70,4,,3.11,29.94,,,,,,TRUE,,,,BR,FEW,1100,,,,,,,MVFR,,,,,,,,,,,,METAR,416
ZSSS 050100Z 24003MPS 190V270 6000 -SHRA SCT007 20/19 Q1009 BECMG TL0140 BKN007,ZSSS,2024-05-05T01:00:00Z,31.209,121.337,20,19,240,6,,3.73,29.79,,,,,,,,,,-SHRA,SCT,700,,,,,,,MVFR,,,,,,,,,,,,METAR,2
ZSQD 050100Z 34005MPS 2900 -RA BR SCT006 OVC040 12/12 Q1009 RERA BECMG TL0200 3500 BKN006,ZSQD,2024-05-05T01:00:00Z,36.362,120.087,12,12,340,10,,1.8,29.79,,,,,,,,,,-RA BR,SCT,600,OVC,4000,,,,,IFR,,,,,,,,,,,,METAR,2
ZSPD 050100Z 21005MPS 7000 -SHRA FEW006 20/19 Q1008 NOSIG,ZSPD,2024-05-05T01:00:00Z,31.146,121.8,20,19,210,10,,4.35,29.76,,,,,,TRUE,,,,-SHRA,FEW,600,,,,,,,MVFR,,,,,,,,,,,,METAR,4
ZSOF 050100Z 31004MPS 3200 BR BKN011 OVC040 16/14 Q1010 BECMG AT0230 BKN016,ZSOF,2024-05-05T01:00:00Z,31.99,116.965,16,14,310,8,,1.99,29.82,,,,,,,,,,BR,BKN,1100,OVC,4000,,,,,IFR,,,,,,,,,,,,METAR,64
ZSNJ 050100Z 29003MPS 260V330 9999 BKN010 OVC030 18/18 Q1009 BECMG TL0230 BKN015 OVC033,ZSNJ,2024-05-05T01:00:00Z,31.739,118.863,18,18,290,6,,6+,29.79,,,,,,,,,,,BKN,1000,OVC,3000,,,,,MVFR,,,,,,,,,,,,METAR,27
ZSNB 050100Z 24002MPS 190V250 7000 -RA BKN050 21/19 Q1008 NOSIG,ZSNB,2024-05-05T01:00:00Z,29.827,121.462,21,19,240,4,,4.35,29.76,,,,,,TRUE,,,,-RA,BKN,5000,,,,,,,MVFR,,,,,,,,,,,,METAR,5
ZSHC 050100Z VRB01MPS 3000 -RA BR SCT004 BKN020 20/20 Q1009 NOSIG,ZSHC,2024-05-05T01:00:00Z,30.229,120.434,20,20,VRB,2,,1.86,29.79,,,,,,TRUE,,,,-RA BR,SCT,400,BKN,2000,,,,,IFR,,,,,,,,,,,,METAR,8
ZSFZ 050100Z 19003MPS 5000 BR SCT005 BKN030 21/20 Q1012 BECMG TL0200 BKN009,ZSFZ,2024-05-05T01:00:00Z,25.936,119.666,21,20,190,6,,3.11,29.88,,,,,,,,,,BR,SCT,500,BKN,3000,,,,,MVFR,,,,,,,,,,,,METAR,14
ZSAM 050100Z VRB01MPS 8000 FEW011 FEW020TCU OVC026 23/21 Q1012 BECMG TL0210 SHRA,ZSAM,2024-05-05T01:00:00Z,24.546,118.131,23,21,VRB,2,,4.97,29.88,,,,,,,,,,,FEW,1100,FEW,2000,OVC,2600,,,MVFR,,,,,,,,,,,,METAR,13
ZPPP 050100Z 02004MPS CAVOK 15/06 Q1021 BECMG TL0230 23005MPS,ZPPP,2024-05-05T01:00:00Z,25.107,102.934,15,6,20,8,,6+,30.15,,,,,,,,,,,CAVOK,,,,,,,,VFR,,,,,,,,,,,,METAR,2104
ZMUB 050100Z 13011MPS 9999 FEW030CB BKN033 10/02 Q1014 NOSIG RMK QFE653.3 55 MOP,ZMUB,2024-05-05T01:00:00Z,47.843,106.766,10,2,130,21,,6+,29.94,,,,,,TRUE,,,,,FEW,3000,BKN,3300,,,,,VFR,,,,,,,,,,,,METAR,1300
ZMCK 050100Z 10007MPS 9999 FEW030CB SCT033 SCT100 08/03 Q1015 NOSIG RMK QFE645.8 72 MOP,ZMCK,2024-05-05T01:00:00Z,47.651,106.822,8,3,100,14,,6+,29.97,,,,,,TRUE,,,,,FEW,3000,SCT,3300,SCT,10000,,,VFR,,,,,,,,,,,,METAR,1366
ZLXY 050100Z 26005MPS 9999 FEW070 16/12 Q1013 NOSIG,ZLXY,2024-05-05T01:00:00Z,34.449,108.752,16,12,260,10,,6+,29.91,,,,,,TRUE,,,,,FEW,7000,,,,,,,VFR,,,,,,,,,,,,METAR,478
ZLLL 050100Z VRB01MPS CAVOK 14/02 Q1017 NOSIG,ZLLL,2024-05-05T01:00:00Z,36.513,103.623,14,2,VRB,2,,6+,30.03,,,,,,TRUE,,,,,CAVOK,,,,,,,,VFR,,,,,,,,,,,,METAR,1939
ZJSY 050100Z 09004MPS 9999 SCT020 31/25 Q1009 NOSIG,ZJSY,2024-05-05T01:00:00Z,18.303,109.412,31,25,90,8,,6+,29.79,,,,,,TRUE,,,,,SCT,2000,,,,,,,VFR,,,,,,,,,,,,METAR,27
ZJHK 050100Z 25002MPS 220V290 CAVOK 29/25 Q1008 NOSIG,ZJHK,2024-05-05T01:00:00Z,19.934,110.445,29,25,250,4,,6+,29.76,,,,,,TRUE,,,,,CAVOK,,,,,,,,VFR,,,,,,,,,,,,METAR,21
ZHHH 050100Z VRB01MPS 4500 BR SCT010 BKN033 16/14 Q1011 NOSIG,ZHHH,2024-05-05T01:00:00Z,30.783,114.205,16,14,VRB,2,,2.8,29.85,,,,,,TRUE,,,,BR,SCT,1000,BKN,3300,,,,,IFR,,,,,,,,,,,,METAR,33
ZHCC 050100Z 25003MPS 210V290 6000 NSC 18/11 Q1010 NOSIG,ZHCC,2024-05-05T01:00:00Z,34.52,113.834,18,11,250,6,,3.73,29.82,,,,,,TRUE,,,,,CLR,,,,,,,,MVFR,,,,,,,,,,,,METAR,149
ZGSZ 050100Z VRB01MPS 9999 FEW050 24/21 Q1011 NOSIG,ZGSZ,2024-05-05T01:00:00Z,22.639,113.803,24,21,VRB,2,,6+,29.85,,,,,,TRUE,,,,,FEW,5000,,,,,,,VFR,,,,,,,,,,,,METAR,18
ZGOW 050100Z VRB01MPS 5000 BR FEW009 SCT030 BKN050 22/21 Q1012 RESHRA BECMG AT0130 SHRA,ZGOW,2024-05-05T01:00:00Z,23.55,116.505,22,21,VRB,2,,3.11,29.88,,,,,,,,,,BR,FEW,900,SCT,3000,BKN,5000,,,MVFR,,,,,,,,,,,,METAR,4
ZGNN 050100Z 35003MPS 310V040 CAVOK 23/20 Q1011 NOSIG,ZGNN,2024-05-05T01:00:00Z,22.609,108.173,23,20,350,6,,6+,29.85,,,,,,TRUE,,,,,CAVOK,,,,,,,,VFR,,,,,,,,,,,,METAR,128
ZGKL 050100Z 04002MPS 350V100 9999 SCT013 SCT026 22/18 Q1012 NOSIG,ZGKL,2024-05-05T01:00:00Z,25.22,110.04,22,18,40,4,,6+,29.88,,,,,,TRUE,,,,,SCT,1300,SCT,2600,,,,,VFR,,,,,,,,,,,,METAR,151
ZGHA 050100Z VRB01MPS 4500 BR BKN009 OVC050 17/17 Q1013 RESHRA BECMG TL0200 BKN011,ZGHA,2024-05-05T01:00:00Z,28.18,113.219,17,17,VRB,2,,2.8,29.91,,,,,,,,,,BR,BKN,900,OVC,5000,,,,,IFR,,,,,,,,,,,,METAR,61
ZGGG 050100Z 11002MPS 080V160 9999 FEW010 BKN020 26/23 Q1011 NOSIG,ZGGG,2024-05-05T01:00:00Z,23.392,113.307,26,23,110,4,,6+,29.85,,,,,,TRUE,,,,,FEW,1000,BKN,2000,,,,,MVFR,,,,,,,,,,,,METAR,11
ZBYN 050100Z VRB01MPS CAVOK 16/04 Q1011 NOSIG,ZBYN,2024-05-05T01:00:00Z,37.747,112.628,16,4,VRB,2,,6+,29.85,,,,,,TRUE,,,,,CAVOK,,,,,,,,VFR,,,,,,,,,,,,METAR,778
ZBTJ 050100Z VRB01MPS 6000 NSC 18/12 Q1009 NOSIG,ZBTJ,2024-05-05T01:00:00Z,39.124,117.346,18,12,VRB,2,,3.73,29.79,,,,,,TRUE,,,,,CLR,,,,,,,,MVFR,,,,,,,,,,,,METAR,4
ZBSJ 050100Z 17002MPS 150V210 4000 BR SCT046 16/15 Q1009 NOSIG,ZBSJ,2024-05-05T01:00:00Z,38.281,114.697,16,15,170,4,,2.49,29.79,,,,,,TRUE,,,,BR,SCT,4600,,,,,,,IFR,,,,,,,,,,,,METAR,70
ZBHH 050100Z VRB01MPS 6000 FEW040 15/07 Q1012 NOSIG,ZBHH,2024-05-05T01:00:00Z,40.854,111.827,15,7,VRB,2,,3.73,29.88,,,,,,TRUE,,,,,FEW,4000,,,,,,,MVFR,,,,,,,,,,,,METAR,1081
ZBAD 050100Z 20002MPS 160V240 CAVOK 18/12 Q1009 NOSIG,ZBAD,2024-05-05T01:00:00Z,39.501,116.412,18,12,200,4,,6+,29.79,,,,,,TRUE,,,,,CAVOK,,,,,,,,VFR,,,,,,,,,,,,METAR,25
ZBAA 050100Z VRB01MPS 6000 NSC 19/13 Q1009 NOSIG,ZBAA,2024-05-05T01:00:00Z,40.082,116.603,19,13,VRB,2,,3.73,29.79,,,,,,TRUE,,,,,CLR,,,,,,,,MVFR,,,,,,,,,,,,METAR,31
YWLM 050100Z AUTO 18011KT 9999 -RA SCT012 SCT027 BKN041 16/15 Q1020,YWLM,2024-05-05T01:00:00Z,-32.794,151.836,16,15,180,11,,6+,30.12,,,TRUE,,,,,,,-RA,SCT,1200,SCT,2700,BKN,4100,,,VFR,,,,,,,,,,,,METAR,7
YSTW 050100Z AUTO 02004KT 350V070 9999 // SCT020 BKN032 BKN038 19/13 Q1020,YSTW,2024-05-05T01:00:00Z,-31.084,150.847,19,13,20,4,,6+,30.12,,,TRUE,,,,,,,,SCT,2000,BKN,3200,BKN,3800,,,VFR,,,,,,,,,,,,METAR,404
YSSY 050100Z 22008KT 9999 -DZ FEW009 SCT035 BKN050 16/15 Q1021,YSSY,2024-05-05T01:00:00Z,-33.946,151.173,16,15,220,8,,6+,30.15,,,,,,,,,,-DZ,FEW,900,SCT,3500,BKN,5000,,,VFR,,,,,,,,,,,,METAR,3
YSRI 050100Z AUTO 22005KT 7000 // SCT011 BKN017 OVC043 16/16 Q1022,YSRI,2024-05-05T01:00:00Z,-33.601,150.777,16,16,220,5,,4.35,30.18,,,TRUE,,,,,,,,SCT,1100,BKN,1700,OVC,4300,,,MVFR,,,,,,,,,,,,METAR,19
YSNF 050100Z AUTO 09010KT 9999 // SCT024 OVC075 21/16 Q1019,YSNF,2024-05-05T01:00:00Z,-29.039,167.941,21,16,90,10,,6+,30.09,,,TRUE,,,,,,,,SCT,2400,OVC,7500,,,,,VFR,,,,,,,,,,,,METAR,113
YSDU 050100Z AUTO 09006KT 9999 // BKN019 OVC024 16/12 Q1021,YSDU,2024-05-05T01:00:00Z,-32.221,148.575,16,12,90,6,,6+,30.15,,,TRUE,,,,,,,,BKN,1900,OVC,2400,,,,,MVFR,,,,,,,,,,,,METAR,285
YSCB 050100Z AUTO 18006KT 9999 -RA OVC068 11/10 Q1025 RF00.2/000.8,YSCB,2024-05-05T01:00:00Z,-35.309,149.2,11,10,180,6,,6+,30.27,,,TRUE,,,,,,,-RA,OVC,6800,,,,,,,VFR,,,,,,,,,,,,METAR,577
YPXM 050100Z AUTO 11012KT 9999 // BKN019 OVC025 27/23 Q1013,YPXM,2024-05-05T01:00:00Z,-10.453,105.688,27,23,110,12,,6+,29.91,,,TRUE,,,,,,,,BKN,1900,OVC,2500,,,,,MVFR,,,,,,,,,,,,METAR,262
YPWR 050100Z AUTO 11011KT 9999 // NCD 20/08 Q1025 RF00.0/000.0,YPWR,2024-05-05T01:00:00Z,-31.156,136.805,20,8,110,11,,6+,30.27,,,TRUE,,,,,,,,CLR,,,,,,,,VFR,,,,,,,,,,,,METAR,169
YPTN 050100Z AUTO 11014KT 9999 // SCT028 29/20 Q1013 RF00.0/000.0,YPTN,2024-05-05T01:00:00Z,-14.523,132.383,29,20,110,14,,6+,29.91,,,TRUE,,,,,,,,SCT,2800,,,,,,,VFR,,,,,,,,,,,,METAR,135
YPPH 050100Z 00000KT CAVOK 14/10 Q1023,YPPH,2024-05-05T01:00:00Z,-31.927,115.976,14,10,0,0,,6+,30.21,,,,,,,,,,,CAVOK,,,,,,,,VFR,,,,,,,,,,,,METAR,16
YPPD 050100Z AUTO 13007KT //// // NCD 29/M01 Q1014 RF00.0////./,YPPD,2024-05-05T01:00:00Z,-20.372,118.632,29,-1,130,7,,,29.94,,,TRUE,,,,,,,,CLR,,,,,,,,,,,,,,,,,,,,METAR,6
YPLM 050100Z AUTO 14006KT 9999 // NCD 26/13 Q1015 RF00.0/000.0,YPLM,2024-05-05T01:00:00Z,-22.241,114.097,26,13,140,6,,6+,29.97,,,TRUE,,,,,,,,CLR,,,,,,,,VFR,,,,,,,,,,,,METAR,5
YPKU 050100Z AUTO 10016KT 9999 // NCD 29/14 Q1013 RF00.0/000.0,YPKU,2024-05-05T01:00:00Z,-15.781,128.71,29,14,100,16,,6+,29.91,,,TRUE,,,,,,,,CLR,,,,,,,,VFR,,,,,,,,,,,,METAR,42
YPKG 050100Z AUTO 21008KT 9999 // NCD 15/10 Q1020 RF00.0/000.0,YPKG,2024-05-05T01:00:00Z,-30.785,121.453,15,10,210,8,,6+,30.12,,,TRUE,,,,,,,,CLR,,,,,,,,VFR,,,,,,,,,,,,METAR,372
YPJT 050100Z AUTO 00000KT 9999 // NCD 13/11 Q1023 RF00.0/000.0,YPJT,2024-05-05T01:00:00Z,-32.101,115.879,13,11,0,0,,6+,30.21,,,TRUE,,,,,,,,CLR,,,,,,,,VFR,,,,,,,,,,,,METAR,29
YPGV 050100Z AUTO 13017KT 9999 // BKN026 OVC033 29/23 Q1010,YPGV,2024-05-05T01:00:00Z,-12.274,136.82,29,23,130,17,,6+,29.82,,,TRUE,,,,,,,,BKN,2600,OVC,3300,,,,,MVFR,,,,,,,,,,,,METAR,53
YPEA 050100Z AUTO 23002KT 9999 // NCD 12/11 Q1022 RF00.0/000.0,YPEA,2024-05-05T01:00:00Z,-31.667,116.019,12,11,230,2,,6+,30.18,,,TRUE,,,,,,,,CLR,,,,,,,,VFR,,,,,,,,,,,,METAR,38
YPDN 050100Z 11013KT CAVOK 30/17 Q1011,YPDN,2024-05-05T01:00:00Z,-12.424,130.893,30,17,110,13,,6+,29.85,,,,,,,,,,,CAVOK,,,,,,,,VFR,,,,,,,,,,,,METAR,32
YPCC 050100Z AUTO 12016KT 3700 +RA SCT021 SCT034 BKN048 25/24 Q1011,YPCC,2024-05-05T01:00:00Z,-12.189,96.834,25,24,120,16,,2.3,29.85,,,TRUE,,,,,,,+RA,SCT,2100,SCT,3400,BKN,4800,,,IFR,,,,,,,,,,,,SPECI,3
YPAD 050100Z 25007KT CAVOK 19/09 Q1027,YPAD,2024-05-05T01:00:00Z,-34.952,138.52,19,9,250,7,,6+,30.32,,,,,,,,,,,CAVOK,,,,,,,,VFR,,,,,,,,,,,,METAR,2
YMML 050100Z 21006KT 9999 FEW011 BKN016 14/10 Q1027 RF00/0/000/0 HAZE,YMML,2024-05-05T01:00:00Z,-37.666,144.832,14,10,210,6,,6+,30.32,,,,,,,,,,,FEW,1100,BKN,1600,,,,,MVFR,,,,,,,,,,,,SPECI,115
YMLT 050100Z AUTO 21007KT 9999 // NCD 10/07 Q1029 RF00.0/000.0,YMLT,2024-05-05T01:00:00Z,-41.544,147.213,10,7,210,7,,6+,30.38,,,TRUE,,,,,,,,CLR,,,,,,,,VFR,,,,,,,,,,,,METAR,167
YMHB 050100Z 02005KT 9999 FEW025 12/08 Q1030,YMHB,2024-05-05T01:00:00Z,-42.834,147.503,12,8,20,5,,6+,30.41,,,,,,,,,,,FEW,2500,,,,,,,VFR,,,,,,,,,,,,METAR,2
YMAV 050100Z AUTO 12005KT 9999 // BKN013 OVC017 15/12 Q1027,YMAV,2024-05-05T01:00:00Z,-38.029,144.478,15,12,120,5,,6+,30.32,,,TRUE,,,,,,,,BKN,1300,OVC,1700,,,,,MVFR,,,,,,,,,,,,METAR,11
YLHI 050100Z AUTO 09008KT 9999 // NCD 22/14 Q1020 RF00.0/000.0,YLHI,2024-05-05T01:00:00Z,-31.538,159.077,22,14,90,8,,6+,30.12,,,TRUE,,,,,,,,CLR,,,,,,,,VFR,,,,,,,,,,,,METAR,2
YHID 050100Z AUTO 13018KT 9999 // SCT026 30/24 Q1009 RF00.0/000.2,YHID,2024-05-05T01:00:00Z,-10.584,142.29,30,24,130,18,,6+,29.79,,,TRUE,,,,,,,,SCT,2600,,,,,,,VFR,,,,,,,,,,,,METAR,5
YGLA 050100Z AUTO 14010KT 9999 // SCT012 SCT022 BKN037 22/18 Q1017,YGLA,2024-05-05T01:00:00Z,-23.87,151.221,22,18,140,10,,6+,30.03,,,TRUE,,,,,,,,SCT,1200,SCT,2200,BKN,3700,,,VFR,,,,,,,,,,,,METAR,17
YGEL 050100Z AUTO 13006KT 9999 // NCD 17/11 Q1021 RF00.0/000.0,YGEL,2024-05-05T01:00:00Z,-28.805,114.699,17,11,130,6,,6+,30.15,,,TRUE,,,,,,,,CLR,,,,,,,,VFR,,,,,,,,,,,,METAR,32
YFRT 050100Z AUTO 04015KT 9999 // NCD 22/00 Q1021 RF00.0/000.0,YFRT,2024-05-05T01:00:00Z,-30.848,128.114,22,0,40,15,,6+,30.15,,,TRUE,,,,,,,,CLR,,,,,,,,VFR,,,,,,,,,,,,METAR,159
YCIN 050100Z AUTO 07014KT 9999 // SCT084 31/14 Q1012 RF00.0/000.0,YCIN,2024-05-05T01:00:00Z,-17.574,123.831,31,14,70,14,,6+,29.88,,,TRUE,,,,,,,,SCT,8400,,,,,,,VFR,,,,,,,,,,,,METAR,83
YCFS 050100Z AUTO 23009KT 9999 // SCT082 BKN115 21/16 Q1019,YCFS,2024-05-05T01:00:00Z,-30.317,153.119,21,16,230,9,,6+,30.09,,,TRUE,,,,,,,,SCT,8200,BKN,11500,,,,,VFR,,,,,,,,,,,,METAR,2
YBWW 050100Z AUTO 28005KT 9999 // SCT023 SCT037 OVC046 20/14 Q1019,YBWW,2024-05-05T01:00:00Z,-27.558,151.793,20,14,280,5,,6+,30.09,,,TRUE,,,,,,,,SCT,2300,SCT,3700,OVC,4600,,,VFR,,,,,,,,,,,,METAR,460
YBTL 050100Z AUTO 15007KT 9999 // SCT030 OVC075 27/20 Q1014,YBTL,2024-05-05T01:00:00Z,-19.248,146.766,27,20,150,7,,6+,29.94,,,TRUE,,,,,,,,SCT,3000,OVC,7500,,,,,VFR,,,,,,,,,,,,METAR,4
YBSU 050100Z AUTO 23006KT 190V270 9999 // OVC093 22/18 Q1018,YBSU,2024-05-05T01:00:00Z,-26.603,153.091,22,18,230,6,,6+,30.06,,,TRUE,,,,,,,,OVC,9300,,,,,,,VFR,,,,,,,,,,,,METAR,4
YBRM 050100Z AUTO 10008KT 9999 // NCD 28/13 Q1012 RF00.0////./,YBRM,2024-05-05T01:00:00Z,-17.948,122.235,28,13,100,8,,6+,29.88,,,TRUE,,,,,,,,CLR,,,,,,,,VFR,,,,,,,,,,,,METAR,11
YBRK 050100Z AUTO 13009KT 9999 // OVC018 23/18 Q1016 RF00.0/000.0,YBRK,2024-05-05T01:00:00Z,-23.375,150.477,23,18,130,9,,6+,30.00,,,TRUE,,,,,,,,OVC,1800,,,,,,,MVFR,,,,,,,,,,,,METAR,10
YBMA 050100Z AUTO 15013KT 9999 // NCD 26/10 Q1018 RF00.0/000.0,YBMA,2024-05-05T01:00:00Z,-20.678,139.488,26,10,150,13,,6+,30.06,,,TRUE,,,,,,,,CLR,,,,,,,,VFR,,,,,,,,,,,,METAR,346
YBLN 050100Z AUTO 20003KT 9999 // NCD 15/13 Q1023 RF00.0/000.6,YBLN,2024-05-05T01:00:00Z,-33.688,115.402,15,13,200,3,,6+,30.21,,,TRUE,,,,,,,,CLR,,,,,,,,VFR,,,,,,,,,,,,METAR,17
YBHM 050100Z AUTO 15019KT 9999 // BKN013 23/21 Q1015 RF00.0/000.0,YBHM,2024-05-05T01:00:00Z,-20.357,148.949,23,21,150,19,,6+,29.97,,,TRUE,,,,,,,,BKN,1300,,,,,,,MVFR,,,,,,,,,,,,METAR,4
YBCS 050100Z AUTO 14015KT 9999 // BKN057 28/22 Q1013 RF00.0/000.0,YBCS,2024-05-05T01:00:00Z,-16.874,145.745,28,22,140,15,,6+,29.91,,,TRUE,,,,,,,,BKN,5700,,,,,,,VFR,,,,,,,,,,,,METAR,2
YBCG 050100Z AUTO 11007KT 9999 // BKN125 23/18 Q1018 RF00.0/000.0,YBCG,2024-05-05T01:00:00Z,-28.168,153.505,23,18,110,7,,6+,30.06,,,TRUE,,,,,,,,BKN,12500,,,,,,,VFR,,,,,,,,,,,,METAR,5
YBBN 050100Z 19006KT 9999 FEW018 SCT105 23/18 Q1018 RF00.0/000.0,YBBN,2024-05-05T01:00:00Z,-27.391,153.13,23,18,190,6,,6+,30.06,,,,,,,,,,,FEW,1800,SCT,10500,,,,,VFR,,,,,,,,,,,,METAR,3
YBAS 050100Z AUTO 09009KT 9999 // NCD 18/03 Q1023 RF00.0/000.0,YBAS,2024-05-05T01:00:00Z,-23.795,133.889,18,3,90,9,,6+,30.21,,,TRUE,,,,,,,,CLR,,,,,,,,VFR,,,,,,,,,,,,METAR,549
YAMB 050100Z AUTO 33003KT 9999 // OVC048 23/18 Q1018 RF00.0/000.2,YAMB,2024-05-05T01:00:00Z,-27.63,152.711,23,18,330,3,,6+,30.06,,,TRUE,,,,,,,,OVC,4800,,,,,,,VFR,,,,,,,,,,,,METAR,26
WSSS 050100Z 19003KT 140V230 9999 FEW018 SCT160 BKN300 30/26 Q1009 NOSIG,WSSS,2024-05-05T01:00:00Z,1.368,103.982,30,26,190,3,,6+,29.79,,,,,,TRUE,,,,,FEW,1800,SCT,16000,BKN,30000,,,VFR,,,,,,,,,,,,METAR,17
WSSL 050100Z 26003KT 230V310 9999 FEW018 BKN160 28/25 Q1009,WSSL,2024-05-05T01:00:00Z,1.417,103.866,28,25,260,3,,6+,29.79,,,,,,,,,,,FEW,1800,BKN,16000,,,,,VFR,,,,,,,,,,,,METAR,11
WSAP 050100Z 14003KT 9999 FEW020 BKN150 31/25 Q1010,WSAP,2024-05-05T01:00:00Z,1.36,103.909,31,25,140,3,,6+,29.82,,,,,,,,,,,FEW,2000,BKN,15000,,,,,VFR,,,,,,,,,,,,METAR,20
WMSA 050100Z 07003KT 350V140 9999 FEW017CB 29/26 Q1009,WMSA,2024-05-05T01:00:00Z,3.13,101.552,29,26,70,3,,6+,29.79,,,,,,,,,,,FEW,1700,,,,,,,VFR,,,,,,,,,,,,METAR,19
WMKP 050100Z VRB01KT 9000 FEW020 31/26 Q1008 NOSIG,WMKP,2024-05-05T01:00:00Z,5.297,100.277,31,26,VRB,1,,5.59,29.76,,,,,,TRUE,,,,,FEW,2000,,,,,,,VFR,,,,,,,,,,,,METAR,4
WMKM 050100Z VRB02KT 9000 TS FEW017CB SCT027 28/26 Q1010,WMKM,2024-05-05T01:00:00Z,2.263,102.252,28,26,VRB,2,,5.59,29.82,,,,,,,,,,TS,FEW,1700,SCT,2700,,,,,VFR,,,,,,,,,,,,METAR,9
WMKL 050100Z VRB03KT 9999 FEW020 31/27 Q1008,WMKL,2024-05-05T01:00:00Z,6.33,99.729,31,27,VRB,3,,6+,29.76,,,,,,,,,,,FEW,2000,,,,,,,VFR,,,,,,,,,,,,METAR,4
WMKK 050100Z VRB03KT 9999 FEW017CB 29/26 Q1009 NOSIG,WMKK,2024-05-05T01:00:00Z,2.747,101.714,29,26,VRB,3,,6+,29.79,,,,,,TRUE,,,,,FEW,1700,,,,,,,VFR,,,,,,,,,,,,METAR,21
WMKJ 050100Z 00000KT 9999 FEW018 27/25 Q1009,WMKJ,2024-05-05T01:00:00Z,1.641,103.67,27,25,0,0,,6+,29.79,,,,,,,,,,,FEW,1800,,,,,,,VFR,,,,,,,,,,,,METAR,38
WMKD 050100Z 21004KT 110V260 6000 FEW003 28/26 Q1009 NOSIG,WMKD,2024-05-05T01:00:00Z,3.775,103.209,28,26,210,4,,3.73,29.79,,,,,,TRUE,,,,,FEW,300,,,,,,,MVFR,,,,,,,,,,,,METAR,18
WIII 050100Z VRB05KT 5000 HZ FEW020 29/24 Q1010 NOSIG,WIII,2024-05-05T01:00:00Z,-6.125,106.659,29,24,VRB,5,,3.11,29.82,,,,,,TRUE,,,,HZ,FEW,2000,,,,,,,MVFR,,,,,,,,,,,,METAR,9
WBSB 050100Z 17002KT 9999 FEW015 SCT140 BKN280 29/27 Q1010 NOSIG,WBSB,2024-05-05T01:00:00Z,4.944,114.928,29,27,170,2,,6+,29.82,,,,,,TRUE,,,,,FEW,1500,SCT,14000,BKN,28000,,,VFR,,,,,,,,,,,,METAR,15
WBKW 050100Z 00000KT 1000 +RA FEW015 SCT025 25/25 Q1011 RETSRA,WBKW,2024-05-05T01:00:00Z,4.316,118.119,25,25,0,0,,0.62,29.85,,,,,,,,,,+RA,FEW,1500,SCT,2500,,,,,LIFR,,,,,,,,,,,,METAR,17
WBKT 050100Z VRB04KT 9999 FEW014 31/26 Q1010,WBKT,2024-05-05T01:00:00Z,6.922,116.837,31,26,VRB,4,,6+,29.82,,,,,,,,,,,FEW,1400,,,,,,,VFR,,,,,,,,,,,,METAR,11
WBKS 050100Z 03005KT 340V100 9999 SCT016 31/26 Q1009,WBKS,2024-05-05T01:00:00Z,5.901,118.059,31,26,30,5,,6+,29.79,,,,,,,,,,,SCT,1600,,,,,,,VFR,,,,,,,,,,,,METAR,13
WBKL 050100Z 00000KT 9999 FEW015 29/26 Q1010,WBKL,2024-05-05T01:00:00Z,5.301,115.25,29,26,0,0,,6+,29.82,,,,,,,,,,,FEW,1500,,,,,,,VFR,,,,,,,,,,,,METAR,29
WBKK 050100Z 22007KT 190V280 9999 FEW014 29/26 Q1009 NOSIG,WBKK,2024-05-05T01:00:00Z,5.937,116.051,29,26,220,7,,6+,29.79,,,,,,TRUE,,,,,FEW,1400,,,,,,,VFR,,,,,,,,,,,,METAR,9
WBGY 050100Z VRB02KT 9999 SCT014 27/24 Q1013,WBGY,2024-05-05T01:00:00Z,1.222,111.466,27,24,VRB,2,,6+,29.91,,,,,,,,,,,SCT,1400,,,,,,,VFR,,,,,,,,,,,,METAR,13
WBGS 050100Z 29003KT 230V350 1500 RA SCT003 SCT016 24/24 Q1013,WBGS,2024-05-05T01:00:00Z,2.264,111.983,24,24,290,3,,0.93,29.91,,,,,,,,,,RA,SCT,300,SCT,1600,,,,,LIFR,,,,,,,,,,,,METAR,26
WBGR 050100Z 17006KT 140V220 9999 FEW015CB SCT016 29/26 Q1009,WBGR,2024-05-05T01:00:00Z,4.322,113.987,29,26,170,6,,6+,29.79,,,,,,,,,,,FEW,1500,SCT,1600,,,,,VFR,,,,,,,,,,,,METAR,18
WBGG 050100Z VRB02KT 9999 FEW010 26/25 Q1012 NOSIG,WBGG,2024-05-05T01:00:00Z,1.484,110.34,26,25,VRB,2,,6+,29.88,,,,,,TRUE,,,,,FEW,1000,,,,,,,VFR,,,,,,,,,,,,METAR,26
WBGB 050100Z 22009KT 180V260 9999 FEW014 28/25 Q1011,WBGB,2024-05-05T01:00:00Z,3.12,113.025,28,25,220,9,,6+,29.85,,,,,,,,,,,FEW,1400,,,,,,,VFR,,,,,,,,,,,,METAR,34
WAMM 050100Z VRB02KT 9999 FEW020 30/22 Q1010 NOSIG,WAMM,2024-05-05T01:00:00Z,1.541,124.926,30,22,VRB,2,,6+,29.82,,,,,,TRUE,,,,,FEW,2000,,,,,,,VFR,,,,,,,,,,,,METAR,86
WAJJ 050100Z VRB01KT 9999 SCT012 29/26 Q1008 NOSIG,WAJJ,2024-05-05T01:00:00Z,-2.573,140.514,29,26,VRB,1,,6+,29.76,,,,,,TRUE,,,,,SCT,1200,,,,,,,VFR,,,,,,,,,,,,METAR,93
WADL 050100Z 13002KT 9999 SCT016 26/24 Q1012 NOSIG,WADL,2024-05-05T01:00:00Z,-8.757,116.277,26,24,130,2,,6+,29.88,,,,,,TRUE,,,,,SCT,1600,,,,,,,VFR,,,,,,,,,,,,METAR,97
VYYY 050100Z 29007KT 6000 FEW020 29/27 Q1007 NOSIG,VYYY,2024-05-05T01:00:00Z,16.906,96.137,29,27,290,7,,3.73,29.73,,,,,,TRUE,,,,,FEW,2000,,,,,,,MVFR,,,,,,,,,,,,METAR,31
VYNT 050100Z 16004KT 6000 FEW022 FEW130 27/24 Q1007 NOSIG,VYNT,2024-05-05T01:00:00Z,19.623,96.201,27,24,160,4,,3.73,29.73,,,,,,TRUE,,,,,FEW,2200,FEW,13000,,,,,MVFR,,,,,,,,,,,,METAR,610
VVVD 050100Z 05005KT 9999 BKN045 24/23 Q1010 NOSIG,VVVD,2024-05-05T01:00:00Z,21.118,107.414,24,23,50,5,,6+,29.82,,,,,,TRUE,,,,,BKN,4500,,,,,,,VFR,,,,,,,,,,,,METAR,8
VVTS 050100Z 16004KT 120V200 8000 FEW023 31/27 Q1009 NOSIG,VVTS,2024-05-05T01:00:00Z,10.817,106.667,31,27,160,4,,4.97,29.79,,,,,,TRUE,,,,,FEW,2300,,,,,,,MVFR,,,,,,,,,,,,METAR,10
VVPQ 050100Z 20004KT 9999 FEW015 29/25 Q1008 NOSIG,VVPQ,2024-05-05T01:00:00Z,10.169,103.995,29,25,200,4,,6+,29.76,,,,,,TRUE,,,,,FEW,1500,,,,,,,VFR,,,,,,,,,,,,METAR,8
VVPB 050100Z VRB01KT 9999 FEW015 29/24 Q1007 NOSIG,VVPB,2024-05-05T01:00:00Z,16.399,107.699,29,24,VRB,1,,6+,29.73,,,,,,TRUE,,,,,FEW,1500,,,,,,,VFR,,,,,,,,,,,,METAR,15
VVNB 050100Z 04009KT 9999 BKN031 BKN036 26/20 Q1010 NOSIG,VVNB,2024-05-05T01:00:00Z,21.218,105.805,26,20,40,9,,6+,29.82,,,,,,TRUE,,,,,BKN,3100,BKN,3600,,,,,VFR,,,,,,,,,,,,METAR,6
VVDN 050100Z 19004KT CAVOK 29/24 Q1008 NOSIG,VVDN,2024-05-05T01:00:00Z,16.044,108.199,29,24,190,4,,6+,29.76,,,,,,TRUE,,,,,CAVOK,,,,,,,,VFR,,,,,,,,,,,,METAR,7
VVCT 050100Z VRB03KT 9999 FEW015TCU 31/28 Q1009 NOSIG,VVCT,2024-05-05T01:00:00Z,10.085,105.712,31,28,VRB,3,,6+,29.79,,,,,,TRUE,,,,,FEW,1500,,,,,,,VFR,,,,,,,,,,,,METAR,6
VVCR 050100Z 00000KT 9999 SCT017 31/24 Q1010 NOSIG,VVCR,2024-05-05T01:00:00Z,11.998,109.219,31,24,0,0,,6+,29.82,,,,,,TRUE,,,,,SCT,1700,,,,,,,VFR,,,,,,,,,,,,METAR,12
VVCI 050100Z 10006KT 070V130 9999 FEW047 28/22 Q1008 NOSIG,VVCI,2024-05-05T01:00:00Z,20.823,106.727,28,22,100,6,,6+,29.76,,,,,,TRUE,,,,,FEW,4700,,,,,,,VFR,,,,,,,,,,,,METAR,6
VTUW 050100Z 15008KT 130V190 9000 NSC 31/25 Q1008 NOSIG,VTUW,2024-05-05T01:00:00Z,17.384,104.643,31,25,150,8,,5.59,29.76,,,,,,TRUE,,,,,CLR,,,,,,,,VFR,,,,,,,,,,,,METAR,167
VTUV 050100Z 25005KT 220V280 8000 NSC 32/23 Q1008 NOSIG,VTUV,2024-05-05T01:00:00Z,16.117,103.772,32,23,250,5,,4.97,29.76,,,,,,TRUE,,,,,CLR,,,,,,,,MVFR,,,,,,,,,,,,METAR,136
VTUU 050100Z 17004KT 120V220 CAVOK 32/25 Q1009 NOSIG,VTUU,2024-05-05T01:00:00Z,15.251,104.87,32,25,170,4,,6+,29.79,,,,,,TRUE,,,,,CAVOK,,,,,,,,VFR,,,,,,,,,,,,METAR,119
VTUQ 050100Z 18004KT 150V230 9000 NSC 31/24 Q1008 NOSIG,VTUQ,2024-05-05T01:00:00Z,14.95,102.313,31,24,180,4,,5.59,29.76,,,,,,TRUE,,,,,CLR,,,,,,,,VFR,,,,,,,,,,,,METAR,225
VTUO 050100Z 20004KT 9000 NSC 30/23 Q1008 NOSIG,VTUO,2024-05-05T01:00:00Z,15.227,103.244,30,23,200,4,,5.59,29.76,,,,,,TRUE,,,,,CLR,,,,,,,,VFR,,,,,,,,,,,,METAR,182
VTUL 050100Z 02003KT 330V060 6000 SCT030 28/24 Q1009 NOSIG,VTUL,2024-05-05T01:00:00Z,17.445,101.725,28,24,20,3,,3.73,29.79,,,,,,TRUE,,,,,SCT,3000,,,,,,,MVFR,,,,,,,,,,,,METAR,257
VTUK 050100Z 17003KT 110V210 9000 NSC 29/22 Q1009 NOSIG,VTUK,2024-05-05T01:00:00Z,16.462,102.786,29,22,170,3,,5.59,29.79,,,,,,TRUE,,,,,CLR,,,,,,,,VFR,,,,,,,,,,,,METAR,190
VTUI 050100Z 09003KT 060V130 6000 NSC 31/25 Q1007 NOSIG,VTUI,2024-05-05T01:00:00Z,17.195,104.119,31,25,90,3,,3.73,29.73,,,,,,TRUE,,,,,CLR,,,,,,,,MVFR,,,,,,,,,,,,METAR,162
VTUD 050100Z VRB02KT 6000 NSC 30/24 Q1008 NOSIG,VTUD,2024-05-05T01:00:00Z,17.382,102.799,30,24,VRB,2,,3.73,29.76,,,,,,TRUE,,,,,CLR,,,,,,,,MVFR,,,,,,,,,,,,METAR,177
VTSY 050100Z 00000KT 9999 SCT010 27/25 Q1010 NOSIG,VTSY,2024-05-05T01:00:00Z,5.788,101.147,27,25,0,0,,6+,29.82,,,,,,TRUE,,,,,SCT,1000,,,,,,,VFR,,,,,,,,,,,,METAR,225
VTST 050100Z 13003KT 090V180 6000 FEW023 30/22 Q1008 NOSIG,VTST,2024-05-05T01:00:00Z,7.512,99.621,30,22,130,3,,3.73,29.76,,,,,,TRUE,,,,,FEW,2300,,,,,,,MVFR,,,,,,,,,,,,METAR,17
VTSS 050100Z 23004KT 150V260 9999 FEW020 29/26 Q1008 NOSIG,VTSS,2024-05-05T01:00:00Z,6.933,100.393,29,26,230,4,,6+,29.76,,,,,,TRUE,,,,,FEW,2000,,,,,,,VFR,,,,,,,,,,,,METAR,28
VTSR 050100Z VRB01KT 9000 FEW025 30/26 Q1009 NOSIG,VTSR,2024-05-05T01:00:00Z,9.773,98.587,30,26,VRB,1,,5.59,29.79,,,,,,TRUE,,,,,FEW,2500,,,,,,,VFR,,,,,,,,,,,,METAR,23
VTSP 050100Z 26003KT 210V300 9999 FEW020 30/26 Q1008 NOSIG,VTSP,2024-05-05T01:00:00Z,8.105,98.308,30,26,260,3,,6+,29.76,,,,,,TRUE,,,,,FEW,2000,,,,,,,VFR,,,,,,,,,,,,METAR,12
VTSM 050100Z 30007KT 9999 FEW020 32/26 Q1009 NOSIG,VTSM,2024-05-05T01:00:00Z,9.548,100.062,32,26,300,7,,6+,29.79,,,,,,TRUE,,,,,FEW,2000,,,,,,,VFR,,,,,,,,,,,,METAR,12
VTSG 050100Z 03003KT 350V060 3000 BR FEW030 28/26 Q1009 BECMG TL0140 8000 NSW,VTSG,2024-05-05T01:00:00Z,8.099,98.986,28,26,30,3,,1.86,29.79,,,,,,,,,,BR,FEW,3000,,,,,,,IFR,,,,,,,,,,,,METAR,32
VTSF 050100Z VRB02KT 9999 FEW018 29/26 Q1008 NOSIG,VTSF,2024-05-05T01:00:00Z,8.546,99.94,29,26,VRB,2,,6+,29.76,,,,,,TRUE,,,,,FEW,1800,,,,,,,VFR,,,,,,,,,,,,METAR,6
VTSE 050100Z VRB03KT 9000 NSC 30/26 Q1008 NOSIG,VTSE,2024-05-05T01:00:00Z,10.711,99.362,30,26,VRB,3,,5.59,29.76,,,,,,TRUE,,,,,CLR,,,,,,,,VFR,,,,,,,,,,,,METAR,8
VTSC 050100Z 16005KT 140V200 9999 FEW020 30/25 Q1008 NOSIG,VTSC,2024-05-05T01:00:00Z,6.52,101.743,30,25,160,5,,6+,29.76,,,,,,TRUE,,,,,FEW,2000,,,,,,,VFR,,,,,,,,,,,,METAR,5
VTSB 050100Z VRB02KT 6000 FEW020 30/24 Q1008 NOSIG,VTSB,2024-05-05T01:00:00Z,9.133,99.152,30,24,VRB,2,,3.73,29.76,,,,,,TRUE,,,,,FEW,2000,,,,,,,MVFR,,,,,,,,,,,,METAR,10
VTPT 050100Z /////KT 8000 FEW026 32/23 Q1007 NOSIG,VTPT,2024-05-05T01:00:00Z,16.897,99.254,32,23,,,,4.97,29.73,,,,,,TRUE,,,,,FEW,2600,,,,,,,MVFR,,,,,,,,,,,,METAR,148
VTPP 050100Z 14006KT 6000 NSC 32/25 Q1007 NOSIG,VTPP,2024-05-05T01:00:00Z,16.792,100.274,32,25,140,6,,3.73,29.73,,,,,,TRUE,,,,,CLR,,,,,,,,MVFR,,,,,,,,,,,,METAR,45
VTPO 050100Z 16004KT 110V240 9000 NSC 31/24 Q1007 NOSIG,VTPO,2024-05-05T01:00:00Z,17.238,99.818,31,24,160,4,,5.59,29.73,,,,,,TRUE,,,,,CLR,,,,,,,,VFR,,,,,,,,,,,,METAR,58
VTPM 050100Z 15006KT 7000 FEW025 29/18 Q1009 NOSIG,VTPM,2024-05-05T01:00:00Z,16.703,98.542,29,18,150,6,,4.35,29.79,,,,,,TRUE,,,,,FEW,2500,,,,,,,MVFR,,,,,,,,,,,,METAR,211
VTPH 050100Z VRB02KT 8000 FEW030 32/24 Q1007 NOSIG,VTPH,2024-05-05T01:00:00Z,12.633,99.951,32,24,VRB,2,,4.97,29.73,,,,,,TRUE,,,,,FEW,3000,,,,,,,MVFR,,,,,,,,,,,,METAR,12
VTPB 050100Z VRB02KT 5000 HZ NSC 29/24 Q1008 NOSIG,VTPB,2024-05-05T01:00:00Z,16.676,101.195,29,24,VRB,2,,3.11,29.76,,,,,,TRUE,,,,HZ,CLR,,,,,,,,MVFR,,,,,,,,,,,,METAR,134
VTCT 050100Z 00000KT 5000 FU NSC 28/22 Q1008 NOSIG,VTCT,2024-05-05T01:00:00Z,19.961,99.881,28,22,0,0,,3.11,29.76,,,,,,TRUE,,,,FU,CLR,,,,,,,,MVFR,,,,,,,,,,,,METAR,389
VTCP 050100Z 17004KT 130V210 4000 HZ NSC 30/23 Q1007 NOSIG,VTCP,2024-05-05T01:00:00Z,18.129,100.162,30,23,170,4,,2.49,29.73,,,,,,TRUE,,,,HZ,CLR,,,,,,,,IFR,,,,,,,,,,,,METAR,166
VTCN 050100Z 00000KT 8000 NSC 29/24 Q1007 NOSIG,VTCN,2024-05-05T01:00:00Z,18.807,100.787,29,24,0,0,,4.97,29.73,,,,,,TRUE,,,,,CLR,,,,,,,,MVFR,,,,,,,,,,,,METAR,211
VTCL 050100Z 00000KT 9000 NSC 30/22 Q1007 NOSIG,VTCL,2024-05-05T01:00:00Z,18.277,99.502,30,22,0,0,,5.59,29.73,,,,,,TRUE,,,,,CLR,,,,,,,,VFR,,,,,,,,,,,,METAR,240
VTCH 050100Z 00000KT 3000 HZ SCT025 28/23 Q1008 NOSIG,VTCH,2024-05-05T01:00:00Z,19.302,97.972,28,23,0,0,,1.86,29.76,,,,,,TRUE,,,,HZ,SCT,2500,,,,,,,IFR,,,,,,,,,,,,METAR,266
VTCC 050100Z 13003KT 080V180 7000 NSC 31/21 Q1008 NOSIG,VTCC,2024-05-05T01:00:00Z,18.771,98.963,31,21,130,3,,4.35,29.76,,,,,,TRUE,,,,,CLR,,,,,,,,MVFR,,,,,,,,,,,,METAR,308
VTBU 050100Z 20008KT 5000 BR FEW020 32/28 Q1008 NOSIG,VTBU,2024-05-05T01:00:00Z,12.68,101.001,32,28,200,8,,3.11,29.76,,,,,,TRUE,,,,BR,FEW,2000,,,,,,,MVFR,,,,,,,,,,,,METAR,12
VTBS 050100Z 20011KT 9999 FEW020 33/26 Q1007 NOSIG,VTBS,2024-05-05T01:00:00Z,13.686,100.767,33,26,200,11,,6+,29.73,,,,,,TRUE,,,,,FEW,2000,,,,,,,VFR,,,,,,,,,,,,METAR,1
VTBO 050100Z 12004KT 7000 FEW020 31/26 Q1008,VTBO,2024-05-05T01:00:00Z,12.275,102.319,31,26,120,4,,4.35,29.76,,,,,,,,,,,FEW,2000,,,,,,,MVFR,,,,,,,,,,,,METAR,25
VTBD 050100Z 19008KT 9000 FEW020 33/27 Q1007 NOSIG,VTBD,2024-05-05T01:00:00Z,13.913,100.607,33,27,190,8,,5.59,29.73,,,,,,TRUE,,,,,FEW,2000,,,,,,,VFR,,,,,,,,,,,,METAR,6
VRMM 050100Z 27012KT 9999 FEW018 FEW019CB BKN290 30/27 Q1008 CB ESE NOSIG,VRMM,2024-05-05T01:00:00Z,4.192,73.529,30,27,270,12,,6+,29.76,,,,,,TRUE,,,,,FEW,1800,FEW,1900,BKN,29000,,,VFR,,,,,,,,,,,,METAR,2
VRMH 050100Z 32007KT 9999 FEW018 BKN270 30/27 Q1007,VRMH,2024-05-05T01:00:00Z,6.744,73.171,30,27,320,7,,6+,29.73,,,,,,,,,,,FEW,1800,BKN,27000,,,,,VFR,,,,,,,,,,,,METAR,1
"VRMG 050100Z 25009KT 9999 FEW017 FEW018CB BKN260 28/25 Q1008 CB E,SW TEMPO 5000 SHRA",VRMG,2024-05-05T01:00:00Z,-0.693,73.156,28,25,250,9,,6+,29.76,,,,,,,,,,,FEW,1700,FEW,1800,BKN,26000,,,VFR,,,,,,,,,,,,METAR,2
VOTV 050100Z 01006KT 3000 BR FEW015 SCT020 FEW025TCU 30/25 Q1007 NOSIG,VOTV,2024-05-05T01:00:00Z,8.484,76.919,30,25,10,6,,1.86,29.73,,,,,,TRUE,,,,BR,FEW,1500,SCT,2000,FEW,2500,,,IFR,,,,,,,,,,,,METAR,9
VOTR 050100Z VRB02KT 4000 BR FEW016 SCT100 31/27 Q1006 NOSIG,VOTR,2024-05-05T01:00:00Z,10.765,78.71,31,27,VRB,2,,2.49,29.70,,,,,,TRUE,,,,BR,FEW,1600,SCT,10000,,,,,IFR,,,,,,,,,,,,METAR,90
VOTP 050100Z 22006KT 6000 FEW020 31/23 Q1005 NOSIG,VOTP,2024-05-05T01:00:00Z,13.633,79.543,31,23,220,6,,3.73,29.68,,,,,,TRUE,,,,,FEW,2000,,,,,,,MVFR,,,,,,,,,,,,METAR,103
VOTK 050100Z 30003KT 5000 HZ FEW020 29/25 Q1006 NOSIG,VOTK,2024-05-05T01:00:00Z,8.722,78.028,29,25,300,3,,3.11,29.70,,,,,,TRUE,,,,HZ,FEW,2000,,,,,,,MVFR,,,,,,,,,,,,METAR,25
VORY 050100Z 00000KT 6000 SCT016 32/28 Q1005 NOSIG,VORY,2024-05-05T01:00:00Z,17.11,81.818,32,28,0,0,,3.73,29.68,,,,,,TRUE,,,,,SCT,1600,,,,,,,MVFR,,,,,,,,,,,,METAR,47
VOPB 050100Z VRB02KT 6000 FEW020 30/26 Q1008 NOSIG,VOPB,2024-05-05T01:00:00Z,11.641,92.73,30,26,VRB,2,,3.73,29.76,,,,,,TRUE,,,,,FEW,2000,,,,,,,MVFR,,,,,,,,,,,,METAR,1
VOMM 050100Z 20008KT 5000 BR SCT020 31/27 Q1005 NOSIG,VOMM,2024-05-05T01:00:00Z,12.994,80.18,31,27,200,8,,3.11,29.68,,,,,,TRUE,,,,BR,SCT,2000,,,,,,,MVFR,,,,,,,,,,,,METAR,7
VOML 050100Z 10003KT 6000 SCT015 25/23 Q1008 NOSIG,VOML,2024-05-05T01:00:00Z,12.961,74.89,25,23,100,3,,3.73,29.76,,,,,,TRUE,,,,,SCT,1500,,,,,,,MVFR,,,,,,,,,,,,METAR,100
VOMD 050100Z 02003KT 4000 BR SCT020 30/26 Q1007 NOSIG,VOMD,2024-05-05T01:00:00Z,9.835,78.093,30,26,20,3,,2.49,29.73,,,,,,TRUE,,,,BR,SCT,2000,,,,,,,IFR,,,,,,,,,,,,METAR,135
VOKN 050100Z VRB02KT 4000 BR FEW012 SCT080 27/25 Q1008 NOSIG,VOKN,2024-05-05T01:00:00Z,11.917,75.547,27,25,VRB,2,,2.49,29.76,,,,,,TRUE,,,,BR,FEW,1200,SCT,8000,,,,,IFR,,,,,,,,,,,,METAR,105
VOHS 050100Z 09006KT 6000 SCT020 28/23 Q1009 NOSIG,VOHS,2024-05-05T01:00:00Z,17.233,78.429,28,23,90,6,,3.73,29.79,,,,,,TRUE,,,,,SCT,2000,,,,,,,MVFR,,,,,,,,,,,,METAR,607
VOHB 050100Z 25007KT 5000 BR SCT010 23/21 Q1011,VOHB,2024-05-05T01:00:00Z,15.362,75.085,23,21,250,7,,3.11,29.85,,,,,,,,,,BR,SCT,1000,,,,,,,MVFR,,,,,,,,,,,,METAR,661
VOGA 050100Z 12003KT 4000 BR BKN020 25/21 Q1008 NOSIG,VOGA,2024-05-05T01:00:00Z,15.7426,73.8631,25,21,120,3,,2.49,29.76,,,,,,TRUE,,,,BR,BKN,2000,,,,,,,IFR,,,,,,,,,,,,METAR,168
VOCL 050100Z 32002KT 6000 FEW012 27/23 Q1008 NOSIG,VOCL,2024-05-05T01:00:00Z,11.137,75.955,27,23,320,2,,3.73,29.76,,,,,,TRUE,,,,,FEW,1200,,,,,,,MVFR,,,,,,,,,,,,METAR,104
VOCI 050100Z 08002KT 3000 BR FEW015 28/26 Q1008 NOSIG,VOCI,2024-05-05T01:00:00Z,10.152,76.402,28,26,80,2,,1.86,29.76,,,,,,TRUE,,,,BR,FEW,1500,,,,,,,IFR,,,,,,,,,,,,METAR,8
VOCB 050100Z 22010KT 5000 BR FEW015 BKN080 27/24 Q1009 NOSIG,VOCB,2024-05-05T01:00:00Z,11.03,77.043,27,24,220,10,,3.11,29.79,,,,,,TRUE,,,,BR,FEW,1500,BKN,8000,,,,,MVFR,,,,,,,,,,,,METAR,394
VOBZ 050100Z 15005KT 6000 NSC 30/27 Q1004 NOSIG,VOBZ,2024-05-05T01:00:00Z,16.53,80.797,30,27,150,5,,3.73,29.65,,,,,,TRUE,,,,,CLR,,,,,,,,MVFR,,,,,,,,,,,,METAR,26
VOBM 050100Z 27003KT 6000 NSC 22/19 Q1013,VOBM,2024-05-05T01:00:00Z,15.861,74.617,22,19,270,3,,3.73,29.91,,,,,,,,,,,CLR,,,,,,,,MVFR,,,,,,,,,,,,METAR,758
VOBL 050100Z 24006KT 6000 NSC 24/21 Q1012 NOSIG,VOBL,2024-05-05T01:00:00Z,13.205,77.704,24,21,240,6,,3.73,29.88,,,,,,TRUE,,,,,CLR,,,,,,,,MVFR,,,,,,,,,,,,METAR,908
VOBG 050100Z 25010KT 6000 NSC 25/22 Q1013 NOSIG,VOBG,2024-05-05T01:00:00Z,12.949,77.663,25,22,250,10,,3.73,29.91,,,,,,TRUE,,,,,CLR,,,,,,,,MVFR,,,,,,,,,,,,METAR,884
VNKT 050100Z VRB02KT 3500 HZ FEW015 17/11 Q1012 NOSIG,VNKT,2024-05-05T01:00:00Z,27.697,85.359,17,11,VRB,2,,2.17,29.88,,,,,,TRUE,,,,HZ,FEW,1500,,,,,,,IFR,,,,,,,,,,,,METAR,1334
VMMC 050100Z 36003KT 9999 FEW009 SCT025 25/23 Q1010 NOSIG,VMMC,2024-05-05T01:00:00Z,22.141,113.596,25,23,360,3,,6+,29.82,,,,,,TRUE,,,,,FEW,900,SCT,2500,,,,,VFR,,,,,,,,,,,,METAR,1
VLVT 050100Z 09004KT 6000 NSC 30/25 Q1008 NOSIG,VLVT,2024-05-05T01:00:00Z,17.987,102.564,30,25,90,4,,3.73,29.76,,,,,,TRUE,,,,,CLR,,,,,,,,MVFR,,,,,,,,,,,,METAR,171
VLSK 050100Z 18004KT 6000 SCT023 BKN100 30/24 Q1008 NOSIG,VLSK,2024-05-05T01:00:00Z,16.557,104.76,30,24,180,4,,3.73,29.76,,,,,,TRUE,,,,,SCT,2300,BKN,10000,,,,,MVFR,,,,,,,,,,,,METAR,148
VLPS 050100Z 14006KT 5000 BR FEW020 FEW050 30/25 Q1009 NOSIG,VLPS,2024-05-05T01:00:00Z,15.132,105.781,30,25,140,6,,3.11,29.79,,,,,,TRUE,,,,BR,FEW,2000,FEW,5000,,,,,MVFR,,,,,,,,,,,,METAR,102
VLLN 050100Z 27002KT 2000 FU SCT020 BKN100 24/20 Q1009 NOSIG,VLLN,2024-05-05T01:00:00Z,20.963,101.403,24,20,270,2,,1.24,29.79,,,,,,TRUE,,,,FU,SCT,2000,BKN,10000,,,,,IFR,,,,,,,,,,,,METAR,548
VLLB 050100Z 36002KT CAVOK 25/23 Q1008 NOSIG,VLLB,2024-05-05T01:00:00Z,19.897,102.161,25,23,360,2,,6+,29.76,,,,,,TRUE,,,,,CAVOK,,,,,,,,VFR,,,,,,,,,,,,METAR,297
VISM 050100Z 00000KT 6000 NSC 20/07 Q1014,VISM,2024-05-05T01:00:00Z,31.082,77.068,20,7,0,0,,3.73,29.94,,,,,,,,,,,CLR,,,,,,,,MVFR,,,,,,,,,,,,METAR,1537
VILK 050100Z VRB02KT 5000 HZ NSC 25/12 Q1001 NOSIG,VILK,2024-05-05T01:00:00Z,26.761,80.889,25,12,VRB,2,,3.11,29.56,,,,,,TRUE,,,,HZ,CLR,,,,,,,,MVFR,,,,,,,,,,,,METAR,121
VIJP 050100Z 31006KT 4000 HZ FEW100 30/13 Q1006 NOSIG,VIJP,2024-05-05T01:00:00Z,26.824,75.812,30,13,310,6,,2.49,29.70,,,,,,TRUE,,,,HZ,FEW,10000,,,,,,,IFR,,,,,,,,,,,,METAR,383
VIGG 050100Z 00000KT 7000 NSC 17/10 Q1007,VIGG,2024-05-05T01:00:00Z,32.165,76.263,17,10,0,0,,4.35,29.73,,,,,,,,,,,CLR,,,,,,,,MVFR,,,,,,,,,,,,METAR,760
VIDP 050100Z 26004KT 1800 R28/2000 R27/1800 R29R/2000 R29L/2000 HZ FEW100 27/08 Q1003 TEMPO 1500 HZ,VIDP,2024-05-05T01:00:00Z,28.567,77.117,27,8,260,4,,1.12,29.62,,,,,,,,,,HZ,FEW,10000,,,,,,,IFR,,,,,,,,,,,,METAR,236
VIDN 050100Z 01003KT 5000 HZ NSC 22/07 Q1004 NOSIG,VIDN,2024-05-05T01:00:00Z,30.19,78.18,22,7,10,3,,3.11,29.65,,,,,,TRUE,,,,HZ,CLR,,,,,,,,MVFR,,,,,,,,,,,,METAR,550
VIBR 050100Z 00000KT 6000 NSC 11/10 Q1013,VIBR,2024-05-05T01:00:00Z,31.876,77.154,11,10,0,0,,3.73,29.91,,,,,,,,,,,CLR,,,,,,,,MVFR,,,,,,,,,,,,METAR,1089
VIAR 050100Z 31005KT 5000 HZ NSC 21/18 Q1004 NOSIG,VIAR,2024-05-05T01:00:00Z,31.707,74.801,21,18,310,5,,3.11,29.65,,,,,,TRUE,,,,HZ,CLR,,,,,,,,MVFR,,,,,,,,,,,,METAR,226
VHHH 050100Z 07012KT 9999 FEW010 27/22 Q1010 NOSIG,VHHH,2024-05-05T01:00:00Z,22.309,113.922,27,22,70,12,,6+,29.82,,,,,,TRUE,,,,,FEW,1000,,,,,,,VFR,,,,,,,,,,,,METAR,9
VGHS 050100Z 14006KT 4000 HZ FEW012 26/23 Q1004 NOSIG,VGHS,2024-05-05T01:00:00Z,23.846,90.4,26,23,140,6,,2.49,29.65,,,,,,TRUE,,,,HZ,FEW,1200,,,,,,,IFR,,,,,,,,,,,,METAR,11
VERP 050100Z 16007KT 2000 HZ NSC 25/10 Q1004 NOSIG,VERP,2024-05-05T01:00:00Z,21.182,81.738,25,10,160,7,,1.24,29.65,,,,,,TRUE,,,,HZ,CLR,,,,,,,,IFR,,,,,,,,,,,,METAR,318
VERC 050100Z 00000KT 5000 HZ FEW100 23/11 Q1008 NOSIG,VERC,2024-05-05T01:00:00Z,23.314,85.322,23,11,0,0,,3.11,29.76,,,,,,TRUE,,,,HZ,FEW,10000,,,,,,,MVFR,,,,,,,,,,,,METAR,646
VEPT 050100Z 08003KT 3000 HZ FEW100 28/20 Q1001 NOSIG,VEPT,2024-05-05T01:00:00Z,25.591,85.088,28,20,80,3,,1.86,29.56,,,,,,TRUE,,,,HZ,FEW,10000,,,,,,,IFR,,,,,,,,,,,,METAR,53
VEMN 050100Z 21012KT 5000 -TSRA SCT020 FEW025CB OVC090 23/20 Q1007 TEMPO 3000 -TSRA,VEMN,2024-05-05T01:00:00Z,27.481,95.014,23,20,210,12,,3.11,29.73,,,,,,,,,,-TSRA,SCT,2000,FEW,2500,OVC,9000,,,MVFR,,,,,,,,,,,,METAR,111
VELR 050100Z 02008KT 2500 -DZ SCT008 SCT018 FEW025CB OVC080 21/20 Q1006,VELR,2024-05-05T01:00:00Z,27.296,94.098,21,20,20,8,,1.55,29.70,,,,,,,,,,-DZ,SCT,800,SCT,1800,FEW,2500,OVC,8000,IFR,,,,,,,,,,,,METAR,101
VEJS 050100Z 33002KT 2500 HZ NSC 26/14 Q1004,VEJS,2024-05-05T01:00:00Z,22.813,86.169,26,14,330,2,,1.55,29.65,,,,,,,,,,HZ,CLR,,,,,,,,IFR,,,,,,,,,,,,METAR,151
VEGY 050100Z 00000KT 3000 HZ SCT100 BKN250 25/12 Q1003,VEGY,2024-05-05T01:00:00Z,24.744,84.951,25,12,0,0,,1.86,29.62,,,,,,,,,,HZ,SCT,10000,BKN,25000,,,,,IFR,,,,,,,,,,,,METAR,115
VEGT 050100Z 25003KT 2500 BR SCT018 FEW025CB BKN100 24/22 Q1005 NOSIG,VEGT,2024-05-05T01:00:00Z,26.107,91.587,24,22,250,3,,1.55,29.68,,,,,,TRUE,,,,BR,SCT,1800,FEW,2500,BKN,10000,,,IFR,,,,,,,,,,,,METAR,50
VECC 050100Z 17008KT 3200 HZ SCT018 SCT100 30/27 Q1003 NOSIG,VECC,2024-05-05T01:00:00Z,22.651,88.445,30,27,170,8,,1.99,29.62,,,,,,TRUE,,,,HZ,SCT,1800,SCT,10000,,,,,IFR,,,,,,,,,,,,METAR,11
VEBN 050100Z VRB01KT 2500 HZ SCT100 26/11 Q1002 NOSIG,VEBN,2024-05-05T01:00:00Z,25.452,82.859,26,11,VRB,1,,1.55,29.59,,,,,,TRUE,,,,HZ,SCT,10000,,,,,,,IFR,,,,,,,,,,,,METAR,81
VEAT 050100Z 00000KT 2500 BR FEW018 SCT100 26/24 Q1005 NOSIG,VEAT,2024-05-05T01:00:00Z,23.887,91.24,26,24,0,0,,1.55,29.68,,,,,,TRUE,,,,BR,FEW,1800,SCT,10000,,,,,IFR,,,,,,,,,,,,METAR,20
VDSV 050100Z VRB02KT 9999 SCT015 32/26 Q1008,VDSV,2024-05-05T01:00:00Z,10.582,103.637,32,26,VRB,2,,6+,29.76,,,,,,,,,,,SCT,1500,,,,,,,VFR,,,,,,,,,,,,METAR,1
VDSA 050100Z 13005KT 090V170 9999 SCT020 30/25 Q1008,VDSA,2024-05-05T01:00:00Z,13.371,104.225,30,25,130,5,,6+,29.76,,,,,,,,,,,SCT,2000,,,,,,,VFR,,,,,,,,,,,,METAR,59
VDPP 050100Z 15004KT 120V180 9999 SCT017 31/27 Q1008,VDPP,2024-05-05T01:00:00Z,11.547,104.844,31,27,150,4,,6+,29.76,,,,,,,,,,,SCT,1700,,,,,,,VFR,,,,,,,,,,,,METAR,10
VANP 050100Z 25004KT 4000 HZ SCT100 25/14 Q1006 NOSIG,VANP,2024-05-05T01:00:00Z,21.089,79.055,25,14,250,4,,2.49,29.70,,,,,,TRUE,,,,HZ,SCT,10000,,,,,,,IFR,,,,,,,,,,,,METAR,309
VAJB 050100Z 17005KT 4000 HZ FEW100 27/13 Q1006 NOSIG,VAJB,2024-05-05T01:00:00Z,23.178,80.05,27,13,170,5,,2.49,29.70,,,,,,TRUE,,,,HZ,FEW,10000,,,,,,,IFR,,,,,,,,,,,,METAR,489
VAID 050100Z 29006KT 6000 FEW100 27/15 Q1009 NOSIG,VAID,2024-05-05T01:00:00Z,22.722,75.801,27,15,290,6,,3.73,29.79,,,,,,TRUE,,,,,FEW,10000,,,,,,,MVFR,,,,,,,,,,,,METAR,564
VAHS 050100Z 28006KT 6000 FEW020 BKN080 28/23 Q1008 NOSIG,VAHS,2024-05-05T01:00:00Z,22.3772,71.0374,28,23,280,6,,3.73,29.76,,,,,,TRUE,,,,,FEW,2000,BKN,8000,,,,,MVFR,,,,,,,,,,,,METAR,198
VABP 050100Z 24007KT 6000 SCT100 28/08 Q1007 NOSIG,VABP,2024-05-05T01:00:00Z,23.288,77.337,28,8,240,7,,3.73,29.73,,,,,,TRUE,,,,,SCT,10000,,,,,,,MVFR,,,,,,,,,,,,METAR,520
VABO 050100Z 27005KT 3000 FU FEW025 SCT080 29/19 Q1006 NOSIG,VABO,2024-05-05T01:00:00Z,22.333,73.225,29,19,270,5,,1.86,29.70,,,,,,TRUE,,,,FU,FEW,2500,SCT,8000,,,,,IFR,,,,,,,,,,,,METAR,36
VABB 050100Z 23004KT 3000 BR SCT020 29/26 Q1007 NOSIG,VABB,2024-05-05T01:00:00Z,19.1,72.859,29,26,230,4,,1.86,29.73,,,,,,TRUE,,,,BR,SCT,2000,,,,,,,IFR,,,,,,,,,,,,METAR,14
VAAU 050100Z 00000KT 4000 HZ NSC 27/17 Q1009 NOSIG,VAAU,2024-05-05T01:00:00Z,19.863,75.398,27,17,0,0,,2.49,29.79,,,,,,TRUE,,,,HZ,CLR,,,,,,,,IFR,,,,,,,,,,,,METAR,578
VAAH 050100Z 27005KT 4000 FU SCT080 29/19 Q1006 NOSIG,VAAH,2024-05-05T01:00:00Z,23.077,72.635,29,19,270,5,,2.49,29.70,,,,,,TRUE,,,,FU,SCT,8000,,,,,,,IFR,,,,,,,,,,,,METAR,52
UWWW 050100Z 27002MPS CAVOK M02/M05 Q1009 R15/CLRD63 NOSIG RMK QFE745/0994,UWWW,2024-05-05T01:00:00Z,53.509,50.163,-2,-5,270,4,,6+,29.79,,,,,,TRUE,,,,,CAVOK,,,,,,,,VFR,,,,,,,,,,,,METAR,124
UWUU 050100Z 28003MPS 260V320 CAVOK M04/M07 Q1009 R32L/0///60 NOSIG,UWUU,2024-05-05T01:00:00Z,54.57,55.87,-4,-7,280,6,,6+,29.79,,,,,,TRUE,,,,,CAVOK,,,,,,,,VFR,,,,,,,,,,,,METAR,137
UWSG 050100Z 28003MPS CAVOK 03/M05 Q1011 R26/CLRD70 NOSIG RMK QFE755/1007,UWSG,2024-05-05T01:00:00Z,51.713,46.171,3,-5,280,6,,6+,29.85,,,,,,TRUE,,,,,CAVOK,,,,,,,,VFR,,,,,,,,,,,,METAR,31
UWPS 050100Z 00000MPS CAVOK M01/M08 Q1008 R20/CLRD60 NOSIG RMK QFE738,UWPS,2024-05-05T01:00:00Z,54.116,45.203,-1,-8,0,0,,6+,29.76,,,,,,TRUE,,,,,CAVOK,,,,,,,,VFR,,,,,,,,,,,,METAR,206
UWOR 050100Z 31003MPS CAVOK M03/M06 Q1010 R25/CLRD60 NOSIG RMK QFE734/0978,UWOR,2024-05-05T01:00:00Z,51.07,58.597,-3,-6,310,6,,6+,29.82,,,,,,TRUE,,,,,CAVOK,,,,,,,,VFR,,,,,,,,,,,,METAR,270
UWOO 050100Z 28002MPS 260V330 CAVOK M03/M06 Q1010 R26/CLRD60 NOSIG RMK QFE747/0997,UWOO,2024-05-05T01:00:00Z,51.795,55.457,-3,-6,280,4,,6+,29.82,,,,,,TRUE,,,,,CAVOK,,,,,,,,VFR,,,,,,,,,,,,METAR,90
UWLW 050100Z 18002MPS CAVOK M02/M04 Q1008 R02/CLRD60 NOSIG RMK QFE749/0999,UWLW,2024-05-05T01:00:00Z,54.402,48.8,-2,-4,180,4,,6+,29.76,,,,,,TRUE,,,,,CAVOK,,,,,,,,VFR,,,,,,,,,,,,METAR,67
UWLL 050100Z 19002MPS CAVOK M03/M06 Q1009 R20/090065 NOSIG RMK QFE746/0995,UWLL,2024-05-05T01:00:00Z,54.274,48.236,-3,-6,190,4,,6+,29.79,,,,,,TRUE,,,,,CAVOK,,,,,,,,VFR,,,,,,,,,,,,METAR,119
UWKS 050100Z 21005MPS CAVOK M00/M07 Q1006 R24/090060 NOSIG RMK QFE740,UWKS,2024-05-05T01:00:00Z,56.09,47.347,0,-7,210,10,,6+,29.70,,,,,,TRUE,,,,,CAVOK,,,,,,,,VFR,,,,,,,,,,,,METAR,165
UWKE 050100Z 22002MPS CAVOK M04/M08 Q1009 R21/090070 NOSIG RMK QFE740/0987,UWKE,2024-05-05T01:00:00Z,55.566,52.1,-4,-8,220,4,,6+,29.79,,,,,,TRUE,,,,,CAVOK,,,,,,,,VFR,,,,,,,,,,,,METAR,193
UWKD 050100Z 14002MPS CAVOK M03/M05 Q1008 R11/CLRD70 NOSIG RMK QFE746/0994,UWKD,2024-05-05T01:00:00Z,55.61,49.275,-3,-5,140,4,,6+,29.76,,,,,,TRUE,,,,,CAVOK,,,,,,,,VFR,,,,,,,,,,,,METAR,114
UWGG 050100Z 19003MPS CAVOK 02/M04 Q1004 R18L/090070 NOSIG,UWGG,2024-05-05T01:00:00Z,56.225,43.786,2,-4,190,6,,6+,29.65,,,,,,TRUE,,,,,CAVOK,,,,,,,,VFR,,,,,,,,,,,,METAR,73
UUYY 050100Z 16001MPS 9999 OVC048 M02/M06 Q1006 R36/CLRD61 NOSIG RMK QFE746/0994,UUYY,2024-05-05T01:00:00Z,61.647,50.845,-2,-6,160,2,,6+,29.70,,,,,,TRUE,,,,,OVC,4800,,,,,,,VFR,,,,,,,,,,,,METAR,107
UUWW 050100Z 23003MPS CAVOK 08/07 Q1003 R24/290050 NOSIG,UUWW,2024-05-05T01:00:00Z,55.592,37.261,8,7,230,6,,6+,29.62,,,,,,TRUE,,,,,CAVOK,,,,,,,,VFR,,,,,,,,,,,,METAR,195
UUOO 050100Z 24004MPS CAVOK 05/M03 Q1011 R30/010070 NOSIG RMK QFE745,UUOO,2024-05-05T01:00:00Z,51.814,39.228,5,-3,240,8,,6+,29.85,,,,,,TRUE,,,,,CAVOK,,,,,,,,VFR,,,,,,,,,,,,METAR,154
UUOL 050100Z AUTO 27003MPS 9999 ///040 05/M03 Q1010,UUOL,2024-05-05T01:00:00Z,52.702,39.534,5,-3,270,6,,6+,29.82,,,TRUE,,,,,,,,,,,,,,,,VFR,,,,,,,,,,,,METAR,176
UUOK 050100Z AUTO 18002MPS 9999 // NCD 04/01 Q1012 RMK QFE740/0987,UUOK,2024-05-05T01:00:00Z,51.751,36.297,4,1,180,4,,6+,29.88,,,TRUE,,,,,,,,CLR,,,,,,,,VFR,,,,,,,,,,,,METAR,203
UUOB 050100Z 22004MPS CAVOK 06/M04 Q1014 R11/010070 NOSIG,UUOB,2024-05-05T01:00:00Z,50.644,36.59,6,-4,220,8,,6+,29.94,,,,,,TRUE,,,,,CAVOK,,,,,,,,VFR,,,,,,,,,,,,METAR,218
UUMO 050100Z 25002MPS 9999 -SHRA BKN///CB 08/07 Q1004 R25/CLRD60 NOSIG RMK QFE738/0984,UUMO,2024-05-05T01:00:00Z,55.512,37.507,8,7,250,4,,6+,29.65,,,,,,TRUE,,,,-SHRA,,,,,,,,,VFR,,,,,,,,,,,,METAR,167
UUEE 050100Z 23004MPS 9999 SCT007 OVC048 08/07 Q1002 R24C/290251 NOSIG,UUEE,2024-05-05T01:00:00Z,55.973,37.415,8,7,230,8,,6+,29.59,,,,,,TRUE,,,,,SCT,700,OVC,4800,,,,,VFR,,,,,,,,,,,,METAR,186
UUDL 050100Z 18002MPS 9999 -RA OVC029 06/05 Q0999 R23/010060 NOSIG RMK QFE741,UUDL,2024-05-05T01:00:00Z,57.561,40.157,6,5,180,4,,6+,29.50,,,,,,TRUE,,,,-RA,OVC,2900,,,,,,,MVFR,,,,,,,,,,,,METAR,88
UUDD 050100Z 23003MPS 9999 -RA SCT047 08/07 Q1004 R32L/290045 TEMPO BKN008,UUDD,2024-05-05T01:00:00Z,55.409,37.906,8,7,230,6,,6+,29.65,,,,,,,,,,-RA,SCT,4700,,,,,,,VFR,,,,,,,,,,,,METAR,165
UUBW 050100Z 22002MPS 170V270 9999 -RA BKN049 08/08 Q1004 R30/290350 NOSIG RMK QFE742,UUBW,2024-05-05T01:00:00Z,55.553,38.15,8,8,220,4,,6+,29.65,,,,,,TRUE,,,,-RA,BKN,4900,,,,,,,VFR,,,,,,,,,,,,METAR,111
UUBC 050100Z 24004MPS CAVOK 09/03 Q1006 R31/CLRD60 NOSIG RMK QFE738/0984,UUBC,2024-05-05T01:00:00Z,54.552,36.37,9,3,240,8,,6+,29.70,,,,,,TRUE,,,,,CAVOK,,,,,,,,VFR,,,,,,,,,,,,METAR,198
UTTT 050100Z 14006KT 7000 -SHRA OVC039CB 17/16 Q1006 R08R/29//50 NOSIG,UTTT,2024-05-05T01:00:00Z,41.258,69.281,17,16,140,6,,4.35,29.70,,,,,,TRUE,,,,-SHRA,OVC,3900,,,,,,,MVFR,,,,,,,,,,,,METAR,429
UTST 050100Z VRB02KT 9999 BKN066CB 18/17 Q1009 R25/290257 NOSIG,UTST,2024-05-05T01:00:00Z,37.287,67.318,18,17,VRB,2,,6+,29.79,,,,,,TRUE,,,,,BKN,6600,,,,,,,VFR,,,,,,,,,,,,METAR,311
UTSS 050100Z 18006KT 140V220 9999 BKN053CB 18/13 Q1007 R09/29//50 NOSIG,UTSS,2024-05-05T01:00:00Z,39.7,66.974,18,13,180,6,,6+,29.73,,,,,,TRUE,,,,,BKN,5300,,,,,,,VFR,,,,,,,,,,,,METAR,665
UTSK 050100Z 20010KT 9999 OVC033CB 18/16 Q1008 R16///////,UTSK,2024-05-05T01:00:00Z,38.804,65.773,18,16,200,10,,6+,29.76,,,,,,,,,,,OVC,3300,,,,,,,VFR,,,,,,,,,,,,METAR,399
UTSB 050100Z 21010KT CAVOK 17/13 Q1006 R01/CLRD70 NOSIG,UTSB,2024-05-05T01:00:00Z,39.775,64.483,17,13,210,10,,6+,29.70,,,,,,TRUE,,,,,CAVOK,,,,,,,,VFR,,,,,,,,,,,,METAR,225
UTSA 050100Z 22012KT 9999 NSC 17/13 Q1005 R25/CLRD70 NOSIG,UTSA,2024-05-05T01:00:00Z,40.116,65.167,17,13,220,12,,6+,29.68,,,,,,TRUE,,,,,CLR,,,,,,,,VFR,,,,,,,,,,,,METAR,346
UTNU 050100Z 35012KT 9999 OVC050CB 14/10 Q1005 R31/CLRD70 NOSIG,UTNU,2024-05-05T01:00:00Z,41.584,60.642,14,10,350,12,,6+,29.68,,,,,,TRUE,,,,,OVC,5000,,,,,,,VFR,,,,,,,,,,,,METAR,97
UTNN 050100Z 30008KT 9999 SCT050CB 12/11 Q1007 R33/290050 NOSIG,UTNN,2024-05-05T01:00:00Z,42.488,59.623,12,11,300,8,,6+,29.73,,,,,,TRUE,,,,,SCT,5000,,,,,,,VFR,,,,,,,,,,,,METAR,76
UTFN 050100Z 23004KT 210V270 9999 FEW050CB 18/12 Q1003 R28/CLRD70 NOSIG,UTFN,2024-05-05T01:00:00Z,40.983,71.573,18,12,230,4,,6+,29.62,,,,,,TRUE,,,,,FEW,5000,,,,,,,VFR,,,,,,,,,,,,METAR,477
UTFF 050100Z 23006KT 9999 NSC 17/11 Q1004 R18/CLRD70,UTFF,2024-05-05T01:00:00Z,40.356,71.745,17,11,230,6,,6+,29.65,,,,,,,,,,,CLR,,,,,,,,VFR,,,,,,,,,,,,METAR,612
UTDT 050100Z 09004MPS 9999 SCT020 BKN040CB OVC063 18/16 Q1009 R35/290350 RMK QFE717/0957,UTDT,2024-05-05T01:00:00Z,37.866,68.865,18,16,90,8,,6+,29.79,,,,,,,,,,,SCT,2000,BKN,4000,OVC,6300,,,VFR,,,,,,,,,,,,METAR,443
UTDL 050100Z 24005MPS 9999 -SHRA SCT051CB BKN086 18/14 Q1006 R26/19//60 NOSIG RMK QFE717/0956,UTDL,2024-05-05T01:00:00Z,40.215,69.695,18,14,240,10,,6+,29.70,,,,,,TRUE,,,,-SHRA,SCT,5100,BKN,8600,,,,,VFR,,,,,,,,,,,,METAR,436
UTDK 050100Z VRB02MPS 9999 -SHRA FEW018 BKN058CB OVC086 16/15 Q1011 R01/29//50 RMK QFE701/0935,UTDK,2024-05-05T01:00:00Z,37.988,69.805,16,15,VRB,4,,6+,29.85,,,,,,,,,,-SHRA,FEW,1800,BKN,5800,OVC,8600,,,VFR,,,,,,,,,,,,METAR,675
UTDD 050100Z 14002MPS 9000 SCT071CB OVC081 14/14 Q1011 R09/29//50 NOSIG RMK QFE691/0921,UTDD,2024-05-05T01:00:00Z,38.543,68.825,14,14,140,4,,5.59,29.85,,,,,,TRUE,,,,,SCT,7100,OVC,8100,,,,,VFR,,,,,,,,,,,,METAR,785
UTAV 050100Z 23006KT CAVOK 15/15 Q1007 R31/19/65 NOSIG,UTAV,2024-05-05T01:00:00Z,39.083,63.613,15,15,230,6,,6+,29.73,,,,,,TRUE,,,,,CAVOK,,,,,,,,VFR,,,,,,,,,,,,METAR,187
UTAT 050100Z 35008KT 9999 OVC029 12/12 Q1006 R08/CLRD70 NOSIG,UTAT,2024-05-05T01:00:00Z,41.761,59.827,12,12,350,8,,6+,29.70,,,,,,TRUE,,,,,OVC,2900,,,,,,,MVFR,,,,,,,,,,,,METAR,84
UTAM 050100Z 00000KT CAVOK 17/11 Q1009 R88/CLRD70 NOSIG,UTAM,2024-05-05T01:00:00Z,37.619,61.897,17,11,0,0,,6+,29.79,,,,,,TRUE,,,,,CAVOK,,,,,,,,VFR,,,,,,,,,,,,METAR,218
UTAK 050100Z 00000KT CAVOK 11/08 Q1007 R34L/CLRD70 NOSIG0,UTAK,2024-05-05T01:00:00Z,40.054,53.007,11,8,0,0,,6+,29.73,,,,,,,,,,,CAVOK,,,,,,,,VFR,,,,,,,,,,,,METAR,83
UTAA 050100Z 29004KT 260V320 9999 FEW027CB OVC027 16/12 Q1009 R88/CLRD70 NOSIG,UTAA,2024-05-05T01:00:00Z,37.975,58.371,16,12,290,4,,6+,29.79,,,,,,TRUE,,,,,FEW,2700,OVC,2700,,,,,MVFR,,,,,,,,,,,,METAR,207
USTR 050100Z 28006G11MPS 9999 FEW050CB M01/M06 Q0999 R30/550540 R21/////99 TEMPO 28009G16MPS,USTR,2024-05-05T01:00:00Z,57.19,65.324,-1,-6,280,12,21,6+,29.50,,,,,,,,,,,FEW,5000,,,,,,,VFR,,,,,,,,,,,,METAR,93
USSS 050100Z 28004MPS CAVOK M05/M06 Q1004 R26L/010060 NOSIG RMK QFE732/0977,USSS,2024-05-05T01:00:00Z,56.745,60.792,-5,-6,280,8,,6+,29.65,,,,,,TRUE,,,,,CAVOK,,,,,,,,VFR,,,,,,,,,,,,METAR,222
USRR 050100Z 09007MPS 1300 R07/1300D SHSN SCT004 BKN015CB 00/00 Q0986 R07/690235 TEMPO 0300 +SHSN VV001 RMK OBST OBSC QFE734,USRR,2024-05-05T01:00:00Z,61.342,73.422,0,0,90,14,,0.81,29.11,,,,,,,,,,SHSN,SCT,400,BKN,1500,,,,,LIFR,,,,,,,,,,,,METAR,52
USPP 050100Z 28003MPS CAVOK M01/M08 Q1006 R21/090060 NOSIG RMK QFE744,USPP,2024-05-05T01:00:00Z,57.914,56.021,-1,-8,280,6,,6+,29.70,,,,,,TRUE,,,,,CAVOK,,,,,,,,VFR,,,,,,,,,,,,METAR,120
USNN 050100Z 12006MPS 1200 R03/1300D SHSN BKN007 BKN016CB 00/00 Q0989 R03/650547 NOSIG RMK QFE738,USNN,2024-05-05T01:00:00Z,60.959,76.497,0,0,120,12,,0.75,29.20,,,,,,TRUE,,,,SHSN,BKN,700,BKN,1600,,,,,LIFR,,,,,,,,,,,,METAR,52
USHH 050100Z 03003MPS 3000 -SHSN BKN004CB 00/M00 Q0986 R24/290050 TEMPO 1000 SHSN BKN002 OVC010CB,USHH,2024-05-05T01:00:00Z,61.029,69.086,0,0,30,6,,1.86,29.11,,,,,,,,,,-SHSN,BKN,400,,,,,,,LIFR,,,,,,,,,,,,METAR,46
USDA 050100Z 13004MPS CAVOK M16/M18 Q1009 R04/450345 NOSIG RMK QFE756/1008,USDA,2024-05-05T01:00:00Z,71.216,72.05,-16,-18,130,8,,6+,29.79,,,,,,TRUE,,,,,CAVOK,,,,,,,,VFR,,,,,,,,,,,,METAR,5
USCM 050100Z 26003MPS 9999 SCT040 M04/M08 Q1007 R18/090060 NOSIG RMK QFE718,USCM,2024-05-05T01:00:00Z,53.393,58.756,-4,-8,260,6,,6+,29.73,,,,,,TRUE,,,,,SCT,4000,,,,,,,VFR,,,,,,,,,,,,METAR,425
USCC 050100Z 27003MPS CAVOK M04/M06 Q1005 R27/220050 NOSIG RMK QFE734,USCC,2024-05-05T01:00:00Z,55.306,61.503,-4,-6,270,6,,6+,29.68,,,,,,TRUE,,,,,CAVOK,,,,,,,,VFR,,,,,,,,,,,,METAR,227
URWW 050100Z 06002MPS CAVOK M02/M08 Q1013 R05/010070 NOSIG,URWW,2024-05-05T01:00:00Z,48.788,44.336,-2,-8,60,4,,6+,29.91,,,,,,TRUE,,,,,CAVOK,,,,,,,,VFR,,,,,,,,,,,,METAR,131
URWI 050100Z AUTO 07006MPS 9999 // NSC 06/M06 Q1012,URWI,2024-05-05T01:00:00Z,46.374,44.331,6,-6,70,12,,6+,29.88,,,TRUE,,,,,,,,CLR,,,,,,,,VFR,,,,,,,,,,,,METAR,145
URWA 050100Z 07006MPS CAVOK 08/M01 Q1011 R09/010070 NOSIG RMK QFE760/1014,URWA,2024-05-05T01:00:00Z,46.286,47.995,8,-1,70,12,,6+,29.85,,,,,,TRUE,,,,,CAVOK,,,,,,,,VFR,,,,,,,,,,,,METAR,-19
URSS 050100Z 11003MPS 9000 -SHRA BKN011 OVC030CB 14/13 Q1003 R02/220257 R06/250257 NOSIG RMK R06/13003G06MPS MT OBSC QFE751,URSS,2024-05-05T01:00:00Z,43.438,39.926,14,13,110,6,,5.59,29.62,,,,,,TRUE,,,,-SHRA,BKN,1100,OVC,3000,,,,,MVFR,,,,,,,,,,,,METAR,4
URRP 050100Z 32003MPS CAVOK M01/M07 Q1014 R05/CLRD70 NOSIG RMK QFE756/1008,URRP,2024-05-05T01:00:00Z,47.494,39.925,-1,-7,320,6,,6+,29.94,,,,,,TRUE,,,,,CAVOK,,,,,,,,VFR,,,,,,,,,,,,METAR,73
URMT 050100Z 12005MPS 9999 -SHRA BKN033CB 04/01 Q1010 R07/010070 NOSIG RMK QFE717,URMT,2024-05-05T01:00:00Z,45.108,42.1,4,1,120,10,,6+,29.82,,,,,,TRUE,,,,-SHRA,BKN,3300,,,,,,,VFR,,,,,,,,,,,,METAR,448
URMO 050100Z 27005MPS 2700 -SHRA SCT003 OVC027CB 07/07 Q1007 RESHRA R27/290150 TEMPO 0300 +SHRA BKN002 BKN020CB RMK QBB110 MT OBSC QFE711/0948,URMO,2024-05-05T01:00:00Z,43.204,44.608,7,7,270,10,,1.68,29.73,,,,,,,,,,-SHRA,SCT,300,OVC,2700,,,,,IFR,,,,,,,,,,,,METAR,505
URMN 050100Z 03001MPS 2000 -SHRA BR BKN004 BKN020CB 06/06 Q1007 R24/////// TEMPO 1000 SHRA BKN002 BKN016CB RMK QBB120 MT OBSC OBST OBSC QFE719,URMN,2024-05-05T01:00:00Z,43.514,43.646,6,6,30,2,,1.24,29.73,,,,,,,,,,-SHRA BR,BKN,400,BKN,2000,,,,,LIFR,,,,,,,,,,,,METAR,424
URMM 050100Z 04004MPS 9000 -SHRA BKN005 OVC025CB 06/04 Q1010 R11/290250 TEMPO 0300 +SHRA BKN002 BKN020CB RMK MT OBSC OBST OBSC QFE729/0972,URMM,2024-05-05T01:00:00Z,44.225,43.082,6,4,40,8,,5.59,29.82,,,,,,,,,,-SHRA,BKN,500,OVC,2500,,,,,IFR,,,,,,,,,,,,METAR,318
URML 050100Z 08004MPS 9999 SCT011 14/13 Q1005 R32/01//70 NOSIG RMK MT OBSC QFE753/1005,URML,2024-05-05T01:00:00Z,42.817,47.652,14,13,80,8,,6+,29.68,,,,,,TRUE,,,,,SCT,1100,,,,,,,VFR,,,,,,,,,,,,METAR,4
URMG 050100Z 07003MPS 4900 -SHRA SCT002 BKN036CB 11/10 Q1005 R26/290250 TEMPO 0300 +SHRA BKN002 BKN020CB RMK QBB070 MT OBSC OBST OBSC QFE739/0986,URMG,2024-05-05T01:00:00Z,43.387,45.702,11,10,70,6,,3.04,29.68,,,,,,,,,,-SHRA,SCT,200,BKN,3600,,,,,MVFR,,,,,,,,,,,,METAR,160
URKK 050100Z 05006MPS CAVOK 08/M01 Q1009 R05R/CLRD70 NOSIG RMK QFE754,URKK,2024-05-05T01:00:00Z,45.033,39.15,8,-1,50,12,,6+,29.79,,,,,,TRUE,,,,,CAVOK,,,,,,,,VFR,,,,,,,,,,,,METAR,29
URKA 050100Z 06007MPS CAVOK 06/M01 Q1009 R04/010070 NOSIG RMK QFE753/1004,URKA,2024-05-05T01:00:00Z,44.995,37.341,6,-1,60,14,,6+,29.79,,,,,,TRUE,,,,,CAVOK,,,,,,,,VFR,,,,,,,,,,,,METAR,41
UOOO 050100Z 13004MPS 9999 BKN031 M08/M13 Q1015 R19/810360 NOSIG RMK QFE745/0994,UOOO,2024-05-05T01:00:00Z,69.308,87.322,-8,-13,130,8,,6+,29.97,,,,,,TRUE,,,,,BKN,3100,,,,,,,VFR,,,,,,,,,,,,METAR,177
UNWW 050100Z 13003MPS 9999 SCT040CB 12/10 Q1003 R01/290250 NOSIG RMK QFE726,UNWW,2024-05-05T01:00:00Z,53.811,86.878,12,10,130,6,,6+,29.62,,,,,,TRUE,,,,,SCT,4000,,,,,,,VFR,,,,,,,,,,,,METAR,307
UNTT 050100Z 19006MPS CAVOK 08/07 Q0998 R21/290150 NOSIG RMK QFE733,UNTT,2024-05-05T01:00:00Z,56.381,85.207,8,7,190,12,,6+,29.47,,,,,,TRUE,,,,,CAVOK,,,,,,,,VFR,,,,,,,,,,,,METAR,179
UNOO 050100Z 26008MPS CAVOK 05/M01 Q1000 R25/CLRD60 NOSIG RMK QFE742,UNOO,2024-05-05T01:00:00Z,54.964,73.32,5,-1,260,16,,6+,29.53,,,,,,TRUE,,,,,CAVOK,,,,,,,,VFR,,,,,,,,,,,,METAR,85
UNNT 050100Z 24004MPS CAVOK 12/08 Q1000 R25/150065 R16/////// NOSIG RMK QFE740/0987,UNNT,2024-05-05T01:00:00Z,55.013,82.651,12,8,240,8,,6+,29.53,,,,,,TRUE,,,,,CAVOK,,,,,,,,VFR,,,,,,,,,,,,METAR,106
UNKL 050100Z 14002MPS 1800 R29/1600N BR BKN001 05/05 Q1006 R29/190060 NOSIG RMK QBB050 QFE729,UNKL,2024-05-05T01:00:00Z,56.173,92.493,5,5,140,4,,1.12,29.70,,,,,,TRUE,,,,BR,BKN,100,,,,,,,LIFR,,,,,,,,,,,,METAR,278
UNEE 050100Z 14003MPS 9999 SCT040CB 11/11 Q1000 R23/190055 NOSIG RMK QFE727,UNEE,2024-05-05T01:00:00Z,55.27,86.107,11,11,140,6,,6+,29.53,,,,,,TRUE,,,,,SCT,4000,,,,,,,VFR,,,,,,,,,,,,METAR,261
UNBB 050100Z 22003MPS CAVOK 14/08 Q1001 R24/CLRD66 NOSIG RMK QFE729,UNBB,2024-05-05T01:00:00Z,53.362,83.54,14,8,220,6,,6+,29.56,,,,,,TRUE,,,,,CAVOK,,,,,,,,VFR,,,,,,,,,,,,METAR,249
UNAA 050100Z 13003MPS CAVOK 13/10 Q1007 R02/290149 NOSIG RMK QFE733,UNAA,2024-05-05T01:00:00Z,53.74,91.385,13,10,130,6,,6+,29.73,,,,,,TRUE,,,,,CAVOK,,,,,,,,VFR,,,,,,,,,,,,METAR,249
UMMS 050100Z VRB01MPS CAVOK 08/07 Q1009 NOSIG,UMMS,2024-05-05T01:00:00Z,53.883,28.031,8,7,VRB,2,,6+,29.79,,,,,,TRUE,,,,,CAVOK,,,,,,,,VFR,,,,,,,,,,,,METAR,196
UMKK 050100Z 26002MPS CAVOK 08/08 Q1012 R24/CLRD95 NOSIG RMK QFE758/1011,UMKK,2024-05-05T01:00:00Z,54.885,20.583,8,8,260,4,,6+,29.88,,,,,,TRUE,,,,,CAVOK,,,,,,,,VFR,,,,,,,,,,,,METAR,6
UMIO 050100Z 24002MPS CAVOK 08/04 Q1009 NOSIG RMK QFE739/0985,UMIO,2024-05-05T01:00:00Z,54.44,30.297,8,4,240,4,,6+,29.79,,,,,,TRUE,,,,,CAVOK,,,,,,,,VFR,,,,,,,,,,,,METAR,189
UMGG 050100Z 21006MPS CAVOK 10/06 Q1012 NOSIG,UMGG,2024-05-05T01:00:00Z,52.525,31.015,10,6,210,12,,6+,29.88,,,,,,TRUE,,,,,CAVOK,,,,,,,,VFR,,,,,,,,,,,,METAR,135
ULPB 050100Z AUTO 36004MPS 340V040 7000 ///007/// 02/01 Q1007 RMK QBB210 QFE751/1002,ULPB,2024-05-05T01:00:00Z,61.885,34.155,2,1,360,8,,4.35,29.73,,,TRUE,,,,,,,,,,,,,,,,MVFR,,,,,,,,,,,,METAR,41
ULOO 050100Z 33003MPS CAVOK 09/06 Q1007 NOSIG RMK QFE751,ULOO,2024-05-05T01:00:00Z,57.79,28.397,9,6,330,6,,6+,29.73,,,,,,TRUE,,,,,CAVOK,,,,,,,,VFR,,,,,,,,,,,,METAR,46
ULMM 050100Z 31001MPS 9999 SCT013 M02/M04 Q1014 R31/290047 NOSIG RMK QFE753,ULMM,2024-05-05T01:00:00Z,68.781,32.749,-2,-4,310,2,,6+,29.94,,,,,,TRUE,,,,,SCT,1300,,,,,,,VFR,,,,,,,,,,,,METAR,79
ULLI 050100Z 27002MPS 9999 SCT033 06/05 Q1008 R10R/090060 NOSIG,ULLI,2024-05-05T01:00:00Z,59.798,30.267,6,5,270,4,,6+,29.76,,,,,,TRUE,,,,,SCT,3300,,,,,,,VFR,,,,,,,,,,,,METAR,25
ULAA 050100Z 02004MPS 9000 -SHSN BKN005 OVC016CB M03/M04 Q1008 R08/290060 NOSIG RMK QBB170 QFE755/1007,ULAA,2024-05-05T01:00:00Z,64.599,40.712,-3,-4,20,8,,5.59,29.76,,,,,,TRUE,,,,-SHSN,BKN,500,OVC,1600,,,,,IFR,,,,,,,,,,,,METAR,10
UIUU 050100Z 26004MPS 210V280 9999 SCT040CB 10/01 Q1013 R08/CLRD60 NOSIG RMK QFE714/0952,UIUU,2024-05-05T01:00:00Z,51.808,107.443,10,1,260,8,,6+,29.91,,,,,,TRUE,,,,,SCT,4000,,,,,,,VFR,,,,,,,,,,,,METAR,508
UIII 050100Z 15005MPS 130V190 CAVOK 12/M01 Q1013 R12/CLRD60 NOSIG RMK QFE717/0956,UIII,2024-05-05T01:00:00Z,52.273,104.38,12,-1,150,10,,6+,29.91,,,,,,TRUE,,,,,CAVOK,,,,,,,,VFR,,,,,,,,,,,,METAR,480
UIBB 050100Z VRB01MPS 9999 NSC 13/02 Q1009 R30/210160 NOSIG RMK QFE714/0952,UIBB,2024-05-05T01:00:00Z,56.365,101.716,13,2,VRB,2,,6+,29.79,,,,,,TRUE,,,,,CLR,,,,,,,,VFR,,,,,,,,,,,,METAR,485
UIAA 050100Z 06005MPS 9999 NSC 11/M03 Q1016 R29/CLRD70 NOSIG RMK QFE703/0938,UIAA,2024-05-05T01:00:00Z,52.026,113.31,11,-3,60,10,,6+,30.00,,,,,,TRUE,,,,,CLR,,,,,,,,VFR,,,,,,,,,,,,METAR,650
UHWW 050100Z 25006MPS 9999 SCT023 12/09 Q1015 R25L/0///70 NOSIG RMK QFE760,UHWW,2024-05-05T01:00:00Z,43.399,132.146,12,9,250,12,,6+,29.97,,,,,,TRUE,,,,,SCT,2300,,,,,,,VFR,,,,,,,,,,,,METAR,11
UHSS 050100Z 15005MPS 9999 SCT017 06/01 Q1022 R19/290060 NOSIG RMK MT OBSC QFE765/1020,UHSS,2024-05-05T01:00:00Z,46.887,142.719,6,1,150,10,,6+,30.18,,,,,,TRUE,,,,,SCT,1700,,,,,,,VFR,,,,,,,,,,,,METAR,14
UHPP 050100Z 01002MPS 350V050 5000 -SHRA BR BKN010 OVC020CB 02/01 Q1019 R16R/290260 NOSIG RMK MT OBSC QFE761/1015,UHPP,2024-05-05T01:00:00Z,53.175,158.444,2,1,10,4,,3.11,30.09,,,,,,TRUE,,,,-SHRA BR,BKN,1000,OVC,2000,,,,,MVFR,,,,,,,,,,,,METAR,33
UHMM 050100Z 08001MPS 9999 FEW040 06/M05 Q1021 R10/CLRD70 NOSIG RMK QFE751 R28/00000MPS,UHMM,2024-05-05T01:00:00Z,59.911,150.725,6,-5,80,2,,6+,30.15,,,,,,TRUE,,,,,FEW,4000,,,,,,,VFR,,,,,,,,,,,,METAR,175
UHMA 050100Z 01007MPS CAVOK M01/M06 Q1018 R02/////// NOSIG RMK MID 02009MPS END R02/01008G11MPS QFE759/1013,UHMA,2024-05-05T01:00:00Z,64.733,177.739,-1,-6,10,14,,6+,30.06,,,,,,TRUE,,,,,CAVOK,,,,,,,,VFR,,,,,,,,,,,,METAR,53
UHHH 050100Z 04009MPS 9999 FEW040CB 10/02 Q1012 R88/090060 NOSIG RMK QFE752/1003,UHHH,2024-05-05T01:00:00Z,48.527,135.184,10,2,40,17,,6+,29.88,,,,,,TRUE,,,,,FEW,4000,,,,,,,VFR,,,,,,,,,,,,METAR,74
UHBB 050100Z 36006G11MPS 340V040 9999 FEW033 11/03 Q1015 R36R/090067 NOSIG RMK QFE744/0992,UHBB,2024-05-05T01:00:00Z,50.425,127.412,11,3,360,12,21,6+,29.97,,,,,,TRUE,,,,,FEW,3300,,,,,,,VFR,,,,,,,,,,,,METAR,185
UGTB 050100Z 35006KT 9999 -SHRA FEW006 BKN025CB OVC042 13/12 Q1005 NOSIG,UGTB,2024-05-05T01:00:00Z,41.669,44.955,13,12,350,6,,6+,29.68,,,,,,TRUE,,,,-SHRA,FEW,600,BKN,2500,OVC,4200,,,MVFR,,,,,,,,,,,,METAR,468
UGSB 050100Z 29006KT 6000 RA SCT009 BKN024 15/14 Q1005 NOSIG,UGSB,2024-05-05T01:00:00Z,41.61,41.6,15,14,290,6,,3.73,29.68,,,,,,TRUE,,,,RA,SCT,900,BKN,2400,,,,,MVFR,,,,,,,,,,,,METAR,32
UGMS 050100Z AUTO VRB02KT //// ////// 07/07 Q1007,UGMS,2024-05-05T01:00:00Z,43.055,42.75,7,7,VRB,2,,,29.73,,,TRUE,,,,,,,,,,,,,,,,,,,,,,,,,,,,METAR,1442
UGKO 050100Z VRB02KT 5000 -SHRA SCT002 BKN025CB OVC055 14/14 Q1004 NOSIG,UGKO,2024-05-05T01:00:00Z,42.177,42.483,14,14,VRB,2,,3.11,29.65,,,,,,TRUE,,,,-SHRA,SCT,200,BKN,2500,OVC,5500,,,MVFR,,,,,,,,,,,,METAR,44
UGAM 050100Z AUTO VRB02KT //// ////// 12/12 Q1005,UGAM,2024-05-05T01:00:00Z,42.527,43.135,12,12,VRB,2,,,29.68,,,TRUE,,,,,,,,,,,,,,,,,,,,,,,,,,,,METAR,544
UERR 050100Z 32003MPS CAVOK 07/M02 Q1011 R25/CLRD60 NOSIG RMK QFE727/0970,UERR,2024-05-05T01:00:00Z,62.538,114.056,7,-2,320,6,,6+,29.85,,,,,,TRUE,,,,,CAVOK,,,,,,,,VFR,,,,,,,,,,,,METAR,352
UEEE 050100Z 15002MPS CAVOK 08/M03 Q1019 R23/09//60 NOSIG RMK QFE755,UEEE,2024-05-05T01:00:00Z,62.093,129.774,8,-3,150,4,,6+,30.09,,,,,,TRUE,,,,,CAVOK,,,,,,,,VFR,,,,,,,,,,,,METAR,106
UDYZ 050100Z 02001KT 9999 FEW043CB 12/10 Q1006 NOSIG,UDYZ,2024-05-05T01:00:00Z,40.147,44.396,12,10,20,1,,6+,29.70,,,,,,TRUE,,,,,FEW,4300,,,,,,,VFR,,,,,,,,,,,,METAR,851
UDSG 050100Z 12002KT 9999 SCT040CB BKN046 08/07 Q1008 NOSIG,UDSG,2024-05-05T01:00:00Z,40.75,43.859,8,7,120,2,,6+,29.76,,,,,,TRUE,,,,,SCT,4000,BKN,4600,,,,,VFR,,,,,,,,,,,,METAR,1515
UCFO 050100Z 21002MPS 6000 NSC 16/13 Q1004 NOSIG,UCFO,2024-05-05T01:00:00Z,40.61,72.791,16,13,210,4,,3.73,29.65,,,,,,TRUE,,,,,CLR,,,,,,,,MVFR,,,,,,,,,,,,METAR,881
UCFM 050100Z 21002MPS 180V260 9000 NSC 14/12 Q1002 NOSIG,UCFM,2024-05-05T01:00:00Z,43.061,74.478,14,12,210,4,,5.59,29.59,,,,,,TRUE,,,,,CLR,,,,,,,,VFR,,,,,,,,,,,,METAR,632
UCFL 050100Z 31003MPS 9999 SCT030CB 11/09 Q1012,UCFL,2024-05-05T01:00:00Z,42.585,76.702,11,9,310,6,,6+,29.88,,,,,,,,,,,SCT,3000,,,,,,,VFR,,,,,,,,,,,,METAR,1654
UBBZ 050100Z AUTO 24006KT 9999 // ///////// 13/11 Q1007,UBBZ,2024-05-05T01:00:00Z,39.094,46.734,13,11,240,6,,6+,29.73,,,TRUE,,,,,,,,,,,,,,,,VFR,,,,,,,,,,,,METAR,489
UBBY 050100Z 00000KT 5000 -RA BR SCT003 OVC040 13/13 Q1008 NOSIG RMK MT OBSC,UBBY,2024-05-05T01:00:00Z,41.561,46.667,13,13,0,0,,3.11,29.76,,,,,,TRUE,,,,-RA BR,SCT,300,OVC,4000,,,,,MVFR,,,,,,,,,,,,METAR,383
UBBN 050100Z 36004KT 9999 BKN033CB OVC080 10/08 Q1006 NOSIG RMK QFE680,UBBN,2024-05-05T01:00:00Z,39.189,45.458,10,8,360,4,,6+,29.70,,,,,,TRUE,,,,,BKN,3300,OVC,8000,,,,,VFR,,,,,,,,,,,,METAR,857
UBBL 050100Z 00000KT 9999 BKN060 14/14 Q1006 NOSIG,UBBL,2024-05-05T01:00:00Z,38.746,48.818,14,14,0,0,,6+,29.70,,,,,,TRUE,,,,,BKN,6000,,,,,,,VFR,,,,,,,,,,,,METAR,-11
UBBG 050100Z 10006KT 5000 BR SCT010 OVC050 14/14 Q1004 NOSIG,UBBG,2024-05-05T01:00:00Z,40.738,46.318,14,14,100,6,,3.11,29.65,,,,,,TRUE,,,,BR,SCT,1000,OVC,5000,,,,,MVFR,,,,,,,,,,,,METAR,333
UBBF 050100Z AUTO 04004KT 020V080 7000 // NSC 12/12 Q1006,UBBF,2024-05-05T01:00:00Z,39.595,47.196,12,12,40,4,,4.35,29.70,,,TRUE,,,,,,,,CLR,,,,,,,,MVFR,,,,,,,,,,,,METAR,370
UBBB 050100Z 15008KT CAVOK 16/13 Q1006 NOSIG,UBBB,2024-05-05T01:00:00Z,40.469,50.061,16,13,150,8,,6+,29.70,,,,,,TRUE,,,,,CAVOK,,,,,,,,VFR,,,,,,,,,,,,METAR,94
UAUU 050100Z 27004MPS CAVOK M01/M03 Q1007 NOSIG RMK QFE740/0986,UAUU,2024-05-05T01:00:00Z,53.215,63.553,-1,-3,270,8,,6+,29.73,,,,,,TRUE,,,,,CAVOK,,,,,,,,VFR,,,,,,,,,,,,METAR,177
UATT 050100Z 00000MPS CAVOK M04/M07 Q1010 NOSIG RMK QFE737/0983,UATT,2024-05-05T01:00:00Z,50.248,57.203,-4,-7,0,0,,6+,29.82,,,,,,TRUE,,,,,CAVOK,,,,,,,,VFR,,,,,,,,,,,,METAR,217
UATG 050100Z 07006MPS CAVOK 05/M04 Q1012 NOSIG RMK QFE760/1014,UATG,2024-05-05T01:00:00Z,47.122,51.829,5,-4,70,12,,6+,29.88,,,,,,TRUE,,,,,CAVOK,,,,,,,,VFR,,,,,,,,,,,,METAR,-23
UATE 050100Z 06005MPS CAVOK 11/03 Q1007 NOSIG RMK QFE753/1004,UATE,2024-05-05T01:00:00Z,43.86,51.092,11,3,60,10,,6+,29.73,,,,,,TRUE,,,,,CAVOK,,,,,,,,VFR,,,,,,,,,,,,METAR,21
UASP 050100Z 27003MPS 9999 SCT046CB 11/07 Q1002 NOSIG RMK QFE741/0988,UASP,2024-05-05T01:00:00Z,52.202,77.078,11,7,270,6,,6+,29.59,,,,,,TRUE,,,,,SCT,4600,,,,,,,VFR,,,,,,,,,,,,METAR,122
UASK 050100Z VRB01MPS 9999 NSC 16/09 Q1003 NOSIG RMK QFE727/0970,UASK,2024-05-05T01:00:00Z,50.027,82.5,16,9,VRB,2,,6+,29.62,,,,,,TRUE,,,,,CLR,,,,,,,,VFR,,,,,,,,,,,,METAR,285
UARR 050100Z 14004MPS CAVOK M04/M06 Q1012 NOSIG RMK QFE755/1007,UARR,2024-05-05T01:00:00Z,51.151,51.541,-4,-6,140,8,,6+,29.88,,,,,,TRUE,,,,,CAVOK,,,,,,,,VFR,,,,,,,,,,,,METAR,33
UAOO 050100Z 02006MPS 5000 -TSRA SCT005 BKN026CB 13/12 Q1001 NOSIG RMK QBB150 QFE739/0986,UAOO,2024-05-05T01:00:00Z,44.707,65.593,13,12,20,12,,3.11,29.56,,,,,,TRUE,,,,-TSRA,SCT,500,BKN,2600,,,,,MVFR,,,,,,,,,,,,METAR,130
UAKK 050100Z 06003MPS 9999 -SHRA BKN048CB 09/07 Q1002 NOSIG RMK QFE705/0940,UAKK,2024-05-05T01:00:00Z,49.672,73.333,9,7,60,6,,6+,29.59,,,,,,TRUE,,,,-SHRA,BKN,4800,,,,,,,VFR,,,,,,,,,,,,METAR,532
UAKD 050100Z 35002MPS 9999 -SHRA BKN046CB 10/08 Q1003 NOSIG RMK QFE719/0959,UAKD,2024-05-05T01:00:00Z,47.711,67.739,10,8,350,4,,6+,29.62,,,,,,TRUE,,,,-SHRA,BKN,4600,,,,,,,VFR,,,,,,,,,,,,METAR,379
UAIT 050100Z 22004MPS 9999 BKN040CB 18/16 Q1001 NOSIG RMK QFE727/0969,UAIT,2024-05-05T01:00:00Z,43.311,68.55,18,16,220,8,,6+,29.56,,,,,,TRUE,,,,,BKN,4000,,,,,,,VFR,,,,,,,,,,,,METAR,301
UAII 050100Z 22007MPS 9999 -SHRA BKN050CB 17/14 Q1004 NOSIG RMK QFE716/0955,UAII,2024-05-05T01:00:00Z,42.366,69.476,17,14,220,14,,6+,29.65,,,,,,TRUE,,,,-SHRA,BKN,5000,,,,,,,VFR,,,,,,,,,,,,METAR,410
UADD 050100Z 26007MPS 9999 BKN050CB OVC100 17/12 Q1003 NOSIG RMK QFE695/0927,UADD,2024-05-05T01:00:00Z,42.854,71.304,17,12,260,14,,6+,29.62,,,,,,TRUE,,,,,BKN,5000,OVC,10000,,,,,VFR,,,,,,,,,,,,METAR,663
UACC 050100Z 04002MPS 010V080 9999 FEW046 07/04 Q1003 NOSIG RMK QFE721/0962,UACC,2024-05-05T01:00:00Z,51.024,71.468,7,4,40,4,,6+,29.62,,,,,,TRUE,,,,,FEW,4600,,,,,,,VFR,,,,,,,,,,,,METAR,354
UAAH 050100Z 18003MPS CAVOK 16/10 Q1000 NOSIG RMK QFE712/0949,UAAH,2024-05-05T01:00:00Z,46.893,75.005,16,10,180,6,,6+,29.53,,,,,,TRUE,,,,,CAVOK,,,,,,,,VFR,,,,,,,,,,,,METAR,427
UAAA 050100Z VRB01MPS 9999 FEW050CB BKN100 16/10 Q1002 NOSIG,UAAA,2024-05-05T01:00:00Z,43.35,77.027,16,10,VRB,2,,6+,29.59,,,,,,TRUE,,,,,FEW,5000,BKN,10000,,,,,VFR,,,,,,,,,,,,METAR,673
TUPJ 050100Z VRB02KT 10SM FEW022 26/24 A2994 RMK Q1013 VIS 16KM,TUPJ,2024-05-05T01:00:00Z,18.445,-64.543,26,24,VRB,2,,10+,29.94,,,,,,,,,,,FEW,2200,,,,,,,VFR,,,,,,,,,,,,METAR,6
TTPP 050100Z 11006KT 9999 FEW018 28/24 Q1011 NOSIG,TTPP,2024-05-05T01:00:00Z,10.593,-61.348,28,24,110,6,,6+,29.85,,,,,,TRUE,,,,,FEW,1800,,,,,,,VFR,,,,,,,,,,,,METAR,11
TTCP 050100Z 10012KT 9999 FEW018 29/25 Q1011 NOSIG,TTCP,2024-05-05T01:00:00Z,11.149,-60.836,29,25,100,12,,6+,29.85,,,,,,TRUE,,,,,FEW,1800,,,,,,,VFR,,,,,,,,,,,,METAR,13
TNCM 050100Z 04004KT 350V080 9999 FEW018 27/25 Q1015 NOSIG ,TNCM,2024-05-05T01:00:00Z,18.041,-63.109,27,25,40,4,,6+,29.97,,,,,,TRUE,,,,,FEW,1800,,,,,,,VFR,,,,,,,,,,,,METAR,9
TNCC 050100Z 10009KT 9999 SCT017 28/26 Q1010 NOSIG,TNCC,2024-05-05T01:00:00Z,12.189,-68.96,28,26,100,9,,6+,29.82,,,,,,TRUE,,,,,SCT,1700,,,,,,,VFR,,,,,,,,,,,,METAR,10
TNCA 050100Z 09013KT 9999 SCT017 29/26 Q1010 NOSIG,TNCA,2024-05-05T01:00:00Z,12.501,-70.015,29,26,90,13,,6+,29.82,,,,,,TRUE,,,,,SCT,1700,,,,,,,VFR,,,,,,,,,,,,METAR,7
TLPL 050100Z 11016KT 9999 FEW026 29/25 Q1012 NOSIG,TLPL,2024-05-05T01:00:00Z,13.743,-60.948,29,25,110,16,,6+,29.88,,,,,,TRUE,,,,,FEW,2600,,,,,,,VFR,,,,,,,,,,,,METAR,13
TLPC 050100Z 10008KT 9999 SCT023 29/25 Q1012 NOSIG,TLPC,2024-05-05T01:00:00Z,14.021,-60.993,29,25,100,8,,6+,29.88,,,,,,TRUE,,,,,SCT,2300,,,,,,,VFR,,,,,,,,,,,,METAR,8
TKPK 050100Z 36005KT 9999 FEW021 26/24 Q1014,TKPK,2024-05-05T01:00:00Z,17.312,-62.72,26,24,360,5,,6+,29.94,,,,,,,,,,,FEW,2100,,,,,,,VFR,,,,,,,,,,,,METAR,62
TGPY 050100Z 11011KT 9999 SCT018 29/26 Q1011 NOSIG,TGPY,2024-05-05T01:00:00Z,12.006,-61.797,29,26,110,11,,6+,29.85,,,,,,TRUE,,,,,SCT,1800,,,,,,,VFR,,,,,,,,,,,,METAR,12
TFFR 050100Z AUTO 11005KT CAVOK 28/24 Q1013 NOSIG,TFFR,2024-05-05T01:00:00Z,16.265,-61.532,28,24,110,5,,6+,29.91,,,TRUE,,,TRUE,,,,,CAVOK,,,,,,,,VFR,,,,,,,,,,,,METAR,6
TFFJ 050100Z AUTO 06006KT 9999 FEW009 28/26 Q1014,TFFJ,2024-05-05T01:00:00Z,17.904,-62.844,28,26,60,6,,6+,29.94,,,TRUE,,,,,,,,FEW,900,,,,,,,VFR,,,,,,,,,,,,METAR,13
TFFF 050100Z AUTO 08004KT CAVOK 28/24 Q1013 NOSIG,TFFF,2024-05-05T01:00:00Z,14.591,-61.003,28,24,80,4,,6+,29.91,,,TRUE,,,TRUE,,,,,CAVOK,,,,,,,,VFR,,,,,,,,,,,,METAR,3
TDPD 050100Z VRB02KT 9999 BKN017 27/26 Q1013,TDPD,2024-05-05T01:00:00Z,15.547,-61.299,27,26,VRB,2,,6+,29.91,,,,,,,,,,,BKN,1700,,,,,,,MVFR,,,,,,,,,,,,METAR,13
TBPB 050100Z 08012KT 9999 SCT018 28/25 Q1012 NOSIG,TBPB,2024-05-05T01:00:00Z,13.075,-59.492,28,25,80,12,,6+,29.88,,,,,,TRUE,,,,,SCT,1800,,,,,,,VFR,,,,,,,,,,,,METAR,55
TAPA 050100Z 13003KT 060V170 9999 VCSH SCT018 SCT038 27/25 Q1013 NOSIG,TAPA,2024-05-05T01:00:00Z,17.135,-61.797,27,25,130,3,,6+,29.91,,,,,,TRUE,,,,VCSH,SCT,1800,SCT,3800,,,,,VFR,,,,,,,,,,,,METAR,15
SYCJ 050100Z 08004KT 9999 FEW016 SCT038 27/26 Q1011 NOSIG,SYCJ,2024-05-05T01:00:00Z,6.499,-58.254,27,26,80,4,,6+,29.85,,,,,,TRUE,,,,,FEW,1600,SCT,3800,,,,,VFR,,,,,,,,,,,,METAR,30
SVVA 050100Z /////KT 9999 BKN016 24/22 Q1012,SVVA,2024-05-05T01:00:00Z,10.154,-67.92,24,22,,,,6+,29.88,,,,,,,,,,,BKN,1600,,,,,,,MVFR,,,,,,,,,,,,METAR,428
SVMI 050100Z 09002KT 9999 SCT016 BKN080 26/22 Q1010 ,SVMI,2024-05-05T01:00:00Z,10.603,-66.991,26,22,90,2,,6+,29.82,,,,,,,,,,,SCT,1600,BKN,8000,,,,,VFR,,,,,,,,,,,,METAR,48
SUMU 050100Z 09006KT 9999 FEW017 BKN025 17/16 Q1014 TEMPO RA,SUMU,2024-05-05T01:00:00Z,-34.838,-56.031,17,16,90,6,,6+,29.94,,,,,,,,,,,FEW,1700,BKN,2500,,,,,MVFR,,,,,,,,,,,,METAR,32
SULS 050100Z 09006KT 9999 BKN015 BKN026 17/16 Q1014,SULS,2024-05-05T01:00:00Z,-34.855,-55.094,17,16,90,6,,6+,29.94,,,,,,,,,,,BKN,1500,BKN,2600,,,,,MVFR,,,,,,,,,,,,METAR,22
SPZO 050100Z 25005KT 220V280 9999 SCT050 14/07 Q1032 NOSIG RMK BIRD HAZARD RWY 10/28 PP000,SPZO,2024-05-05T01:00:00Z,-13.536,-71.939,14,7,250,5,,6+,30.47,,,,,,TRUE,,,,,SCT,5000,,,,,,,VFR,,,,,,,,,,,,METAR,3249
SPUR 050100Z 19013KT CAVOK 25/18 Q1011 RMK BIRD HAZARD RWY 19/01 PP000,SPUR,2024-05-05T01:00:00Z,-5.206,-80.616,25,18,190,13,,6+,29.85,,,,,,,,,,,CAVOK,,,,,,,,VFR,,,,,,,,,,,,METAR,30
SPTN 050100Z 23005KT 9999 OVC023 16/14 Q1015 RMK PP000,SPTN,2024-05-05T01:00:00Z,-18.049,-70.277,16,14,230,5,,6+,29.97,,,,,,,,,,,OVC,2300,,,,,,,MVFR,,,,,,,,,,,,METAR,459
SPST 050100Z VRB02KT 9999 FEW015 SCT080 25/25 Q1010 RMK PP000,SPST,2024-05-05T01:00:00Z,-6.509,-76.373,25,25,VRB,2,,6+,29.82,,,,,,,,,,,FEW,1500,SCT,8000,,,,,VFR,,,,,,,,,,,,METAR,282
SPSO 050100Z 20004KT CAVOK 20/17 Q1012 RMK PP000,SPSO,2024-05-05T01:00:00Z,-13.744,-76.221,20,17,200,4,,6+,29.88,,,,,,,,,,,CAVOK,,,,,,,,VFR,,,,,,,,,,,,METAR,8
SPRU 050100Z 14010KT 7000 BCFG NSC 19/17 Q1012 RMK PP000,SPRU,2024-05-05T01:00:00Z,-8.087,-79.109,19,17,140,10,,4.35,29.88,,,,,,,,,,BCFG,CLR,,,,,,,,MVFR,,,,,,,,,,,,METAR,23
SPQU 050100Z VRB02KT CAVOK 14/08 Q1027 NOSIG RMK PP000,SPQU,2024-05-05T01:00:00Z,-16.341,-71.583,14,8,VRB,2,,6+,30.32,,,,,,TRUE,,,,,CAVOK,,,,,,,,VFR,,,,,,,,,,,,METAR,2527
SPME 050100Z 27003KT 9999 SCT020 SCT030 26/23 Q1009 RMK BIRD HAZARD RWY 32/14 PP000,SPME,2024-05-05T01:00:00Z,-3.551,-80.385,26,23,270,3,,6+,29.79,,,,,,,,,,,SCT,2000,SCT,3000,,,,,VFR,,,,,,,,,,,,METAR,26
SPJC 050100Z 16008KT 8000 FEW010 20/17 Q1012 NOSIG RMK PP000,SPJC,2024-05-05T01:00:00Z,-12.024,-77.113,20,17,160,8,,4.97,29.88,,,,,,TRUE,,,,,FEW,1000,,,,,,,MVFR,,,,,,,,,,,,METAR,26
SPHI 050100Z 18017KT CAVOK 20/16 Q1011 RMK BIRD HAZARD RWY 19/01 PP000,SPHI,2024-05-05T01:00:00Z,-6.787,-79.828,20,16,180,17,,6+,29.85,,,,,,,,,,,CAVOK,,,,,,,,VFR,,,,,,,,,,,,METAR,33
SPCL 050100Z 35002KT 9999 SCT015 SCT080 24/24 Q1010 RMK PP000,SPCL,2024-05-05T01:00:00Z,-8.378,-74.574,24,24,350,2,,6+,29.82,,,,,,,,,,,SCT,1500,SCT,8000,,,,,VFR,,,,,,,,,,,,METAR,154
SOCA 050100Z AUTO 10001KT 9999 FEW019 27/26 Q1011 TEMPO 3000 SHRA FEW012CB BKN015TCU,SOCA,2024-05-05T01:00:00Z,4.822,-52.365,27,26,100,1,,6+,29.85,,,TRUE,,,,,,,,FEW,1900,,,,,,,VFR,,,,,,,,,,,,METAR,7
SMJP 050100Z 09010KT 9999 FEW005 SCT020 26/26 Q1011 NOSIG,SMJP,2024-05-05T01:00:00Z,5.453,-55.188,26,26,90,10,,6+,29.85,,,,,,TRUE,,,,,FEW,500,SCT,2000,,,,,VFR,,,,,,,,,,,,METAR,14
SLVR 050100Z VRB02KT 9000 SCT015 19/18 Q1011,SLVR,2024-05-05T01:00:00Z,-17.645,-63.135,19,18,VRB,2,,5.59,29.85,,,,,,,,,,,SCT,1500,,,,,,,VFR,,,,,,,,,,,,METAR,377
SLLP 050100Z 07005KT 9999 FEW013 06/04 Q1039,SLLP,2024-05-05T01:00:00Z,-16.511,-68.182,6,4,70,5,,6+,30.68,,,,,,,,,,,FEW,1300,,,,,,,VFR,,,,,,,,,,,,METAR,4061
SLCB 050100Z 21006KT 170V280 9999 NSC 19/06 Q1022,SLCB,2024-05-05T01:00:00Z,-17.421,-66.179,19,6,210,6,,6+,30.18,,,,,,,,,,,CLR,,,,,,,,VFR,,,,,,,,,,,,METAR,2560
SKSP 050100Z VRB02KT 9999 FEW017 28/24 Q1009,SKSP,2024-05-05T01:00:00Z,12.587,-81.704,28,24,VRB,2,,6+,29.79,,,,,,,,,,,FEW,1700,,,,,,,VFR,,,,,,,,,,,,METAR,6
SKSM 050100Z VRB02KT 9999 SCT020 SCT100 27/24 Q1010,SKSM,2024-05-05T01:00:00Z,11.12,-74.231,27,24,VRB,2,,6+,29.82,,,,,,,,,,,SCT,2000,SCT,10000,,,,,VFR,,,,,,,,,,,,METAR,5
SKRG 050100Z VRB02KT 9999 SCT015 17/15 Q1025 NOSIG,SKRG,2024-05-05T01:00:00Z,6.169,-75.426,17,15,VRB,2,,6+,30.27,,,,,,TRUE,,,,,SCT,1500,,,,,,,VFR,,,,,,,,,,,,METAR,2132
SKPE 050100Z 33003KT 0200 FG VV001 20/19 Q1018,SKPE,2024-05-05T01:00:00Z,4.814,-75.735,20,19,330,3,,0.12,30.06,,,,,,,,,,FG,OVX,0,,,,,,,LIFR,,,,,,,,,,,100,METAR,1341
SKLT 050100Z 00000KT 9999 SCT008 24/24 Q1009,SKLT,2024-05-05T01:00:00Z,-4.196,-69.943,24,24,0,0,,6+,29.79,,,,,,,,,,,SCT,800,,,,,,,VFR,,,,,,,,,,,,METAR,78
SKCL 050100Z 02008KT 9999 FEW030 SCT090 23/20 Q1015 NOSIG,SKCL,2024-05-05T01:00:00Z,3.543,-76.382,23,20,20,8,,6+,29.97,,,,,,TRUE,,,,,FEW,3000,SCT,9000,,,,,VFR,,,,,,,,,,,,METAR,967
SKCG 050100Z VRB01KT 9999 FEW018TCU 28/25 Q1009 RMK TCU/SW,SKCG,2024-05-05T01:00:00Z,10.447,-75.516,28,25,VRB,1,,6+,29.79,,,,,,,,,,,FEW,1800,,,,,,,VFR,,,,,,,,,,,,METAR,6
SKCC 050100Z VRB02KT 9999 SCT017 SCT080 26/26 Q1013,SKCC,2024-05-05T01:00:00Z,7.93,-72.509,26,26,VRB,2,,6+,29.91,,,,,,,,,,,SCT,1700,SCT,8000,,,,,VFR,,,,,,,,,,,,METAR,308
SKBQ 050100Z 23003KT 9999 FEW012 26/24 Q1009 NOSIG,SKBQ,2024-05-05T01:00:00Z,10.883,-74.78,26,24,230,3,,6+,29.79,,,,,,TRUE,,,,,FEW,1200,,,,,,,VFR,,,,,,,,,,,,METAR,23
SKBO 050100Z 00000KT 9999 FEW015 BKN070 14/14 Q1027 NOSIG,SKBO,2024-05-05T01:00:00Z,4.706,-74.151,14,14,0,0,,6+,30.32,,,,,,TRUE,,,,,FEW,1500,BKN,7000,,,,,VFR,,,,,,,,,,,,METAR,2547
SKBG 050100Z 28003KT 9999 1000N BCFG BKN008 20/20 Q1016,SKBG,2024-05-05T01:00:00Z,7.127,-73.185,20,20,280,3,,6+,30.00,,,,,,,,,,BCFG,BKN,800,,,,,,,IFR,,,,,,,,,,,,METAR,1187
SGES 050100Z 10003KT 9999 FEW030 25/24 Q1013,SGES,2024-05-05T01:00:00Z,-25.461,-54.849,25,24,100,3,,6+,29.91,,,,,,,,,,,FEW,3000,,,,,,,VFR,,,,,,,,,,,,METAR,256
SGAS 050100Z 23005KT CAVOK 21/21 Q1014,SGAS,2024-05-05T01:00:00Z,-25.248,-57.519,21,21,230,5,,6+,29.94,,,,,,,,,,,CAVOK,,,,,,,,VFR,,,,,,,,,,,,METAR,83
SEQM 050100Z 04003KT 9999 VCFG SCT005 BKN020 OVC080 15/14 Q1026 NOSIG RMK A3031,SEQM,2024-05-05T01:00:00Z,-0.124,-78.354,15,14,40,3,,6+,30.30,,,,,,TRUE,,,,VCFG,SCT,500,BKN,2000,OVC,8000,,,MVFR,,,,,,,,,,,,METAR,2386
SEMT 050100Z 23005KT CAVOK 26/22 Q1008 RMK A2979,SEMT,2024-05-05T01:00:00Z,-0.946,-80.679,26,22,230,5,,6+,29.76,,,,,,,,,,,CAVOK,,,,,,,,VFR,,,,,,,,,,,,METAR,13
SELT 050100Z 15001KT 9999 BKN026 BKN100 12/11 Q1030,SELT,2024-05-05T01:00:00Z,-0.921,-78.619,12,11,150,1,,6+,30.41,,,,,,,,,,,BKN,2600,BKN,10000,,,,,MVFR,,,,,,,,,,,,METAR,2779
SEGU 050100Z 22010KT 9999 FEW023 SCT100 30/21 Q1008 NOSIG RMK A2977,SEGU,2024-05-05T01:00:00Z,-2.158,-79.884,30,21,220,10,,6+,29.76,,,,,,TRUE,,,,,FEW,2300,SCT,10000,,,,,VFR,,,,,,,,,,,,METAR,6
SECU 050100Z 23004KT 9999 FEW010 BKN030 16/14 Q1026,SECU,2024-05-05T01:00:00Z,-2.889,-78.984,16,14,230,4,,6+,30.30,,,,,,,,,,,FEW,1000,BKN,3000,,,,,MVFR,,,,,,,,,,,,METAR,2516
SCVM 050100Z VRB02KT CAVOK 10/09 Q1016,SCVM,2024-05-05T01:00:00Z,-32.947,-71.479,10,9,VRB,2,,6+,30.00,,,,,,,,,,,CAVOK,,,,,,,,VFR,,,,,,,,,,,,METAR,136
SCVD 050100Z AUTO VRB02KT //// R35///// SCT034 BKN039 06/05 Q1012,SCVD,2024-05-05T01:00:00Z,-39.65,-73.086,6,5,VRB,2,,,29.88,,,TRUE,,,,,,,,SCT,3400,BKN,3900,,,,,,,,,,,,,,,,,METAR,19
SCTN 050100Z AUTO 29007KT 260V330 9999 SCT040 06/04 Q1007,SCTN,2024-05-05T01:00:00Z,-42.933,-72.699,6,4,290,7,,6+,29.73,,,TRUE,,,,,,,,SCT,4000,,,,,,,VFR,,,,,,,,,,,,METAR,8
SCTE 050100Z 33005KT 290V360 9999 FEW018 BKN035 04/04 Q1009 RESHRA NOSIG,SCTE,2024-05-05T01:00:00Z,-41.439,-73.094,4,4,330,5,,6+,29.79,,,,,,TRUE,,,,,FEW,1800,BKN,3500,,,,,VFR,,,,,,,,,,,,METAR,85
SCSN 050100Z AUTO VRB02KT 9999 NCD 11/11 Q1017,SCSN,2024-05-05T01:00:00Z,-33.656,-71.615,11,11,VRB,2,,6+,30.03,,,TRUE,,,,,,,,CLR,,,,,,,,VFR,,,,,,,,,,,,METAR,73
SCSE 050100Z AUTO 00000KT CAVOK 13/09 Q1014,SCSE,2024-05-05T01:00:00Z,-29.918,-71.201,13,9,0,0,,6+,29.94,,,TRUE,,,,,,,,CAVOK,,,,,,,,VFR,,,,,,,,,,,,METAR,141
SCQP 050100Z 36007KT 9999 -SHRA SCT007 BKN024 08/07 Q1013,SCQP,2024-05-05T01:00:00Z,-38.925,-72.648,8,7,360,7,,6+,29.91,,,,,,,,,,-SHRA,SCT,700,BKN,2400,,,,,MVFR,,,,,,,,,,,,METAR,97
SCPQ 050100Z AUTO 33004KT 9999 FEW029 02/01 Q1006 RERA,SCPQ,2024-05-05T01:00:00Z,-42.347,-73.718,2,1,330,4,,6+,29.70,,,TRUE,,,,,,,,FEW,2900,,,,,,,VFR,,,,,,,,,,,,METAR,166
SCJO 050100Z AUTO 34009KT 300V010 //// SHRA FEW024/// SCT029/// BKN047/// 05/04 Q1010,SCJO,2024-05-05T01:00:00Z,-40.605,-73.061,5,4,340,9,,,29.82,,,TRUE,,,,,,,SHRA,FEW,2400,SCT,2900,BKN,4700,,,,,,,,,,,,,,,METAR,61
SCIP 050100Z 10014KT 9999 SCT025 BKN031 21/17 Q1022 NOSIG,SCIP,2024-05-05T01:00:00Z,-27.161,-109.427,21,17,100,14,,6+,30.18,,,,,,TRUE,,,,,SCT,2500,BKN,3100,,,,,VFR,,,,,,,,,,,,METAR,48
SCIE 050100Z 34005KT 300V020 9999 FEW030 SCT035 12/09 Q1016,SCIE,2024-05-05T01:00:00Z,-36.773,-73.063,12,9,340,5,,6+,30.00,,,,,,,,,,,FEW,3000,SCT,3500,,,,,VFR,,,,,,,,,,,,METAR,8
SCIC 050100Z AUTO VRB02KT //// R/////// BKN015 OVC032 11/11 Q1017,SCIC,2024-05-05T01:00:00Z,-34.966,-71.217,11,11,VRB,2,,,30.03,,,TRUE,,,,,,,,BKN,1500,OVC,3200,,,,,,,,,,,,,,,,,METAR,230
SCFT 050100Z AUTO 29003KT 9999 -RA FEW006/// OVC014/// 01/01 Q1004 RESHRASN,SCFT,2024-05-05T01:00:00Z,-43.189,-71.853,1,1,290,3,,6+,29.65,,,TRUE,,,,,,,-RA,FEW,600,OVC,1400,,,,,MVFR,,,,,,,,,,,,METAR,345
SCFA 050100Z 20004KT 9999 FEW016 OVC021 15/11 Q1015 NOSIG,SCFA,2024-05-05T01:00:00Z,-23.45,-70.441,15,11,200,4,,6+,29.97,,,,,,TRUE,,,,,FEW,1600,OVC,2100,,,,,MVFR,,,,,,,,,,,,METAR,113
SCEL 050100Z 14006KT CAVOK 12/06 Q1016 NOSIG,SCEL,2024-05-05T01:00:00Z,-33.393,-70.786,12,6,140,6,,6+,30.00,,,,,,TRUE,,,,,CAVOK,,,,,,,,VFR,,,,,,,,,,,,METAR,478
SCDA 050100Z 23005KT 9999 OVC025 18/14 Q1014,SCDA,2024-05-05T01:00:00Z,-20.535,-70.181,18,14,230,5,,6+,29.94,,,,,,,,,,,OVC,2500,,,,,,,MVFR,,,,,,,,,,,,METAR,41
SCCY 050100Z AUTO 04005KT 310V060 9999 SCT038 03/M01 Q0999,SCCY,2024-05-05T01:00:00Z,-45.595,-72.11,3,-1,40,5,,6+,29.50,,,TRUE,,,,,,,,SCT,3800,,,,,,,VFR,,,,,,,,,,,,METAR,301
SCCI 050100Z 25011KT CAVOK 02/M04 Q0992 NOSIG,SCCI,2024-05-05T01:00:00Z,-53.003,-70.855,2,-4,250,11,,6+,29.29,,,,,,TRUE,,,,,CAVOK,,,,,,,,VFR,,,,,,,,,,,,METAR,37
SCCH 050100Z AUTO 02006KT 9999 OVC055 10/09 Q1017,SCCH,2024-05-05T01:00:00Z,-36.583,-72.031,10,9,20,6,,6+,30.03,,,TRUE,,,,,,,,OVC,5500,,,,,,,VFR,,,,,,,,,,,,METAR,148
SCCF 050100Z 28003KT CAVOK 14/M07 Q1027,SCCF,2024-05-05T01:00:00Z,-22.496,-68.905,14,-7,280,3,,6+,30.32,,,,,,,,,,,CAVOK,,,,,,,,VFR,,,,,,,,,,,,METAR,2290
SCAT 050100Z 02002KT CAVOK 11/08 Q1014,SCAT,2024-05-05T01:00:00Z,-27.262,-70.774,11,8,20,2,,6+,29.94,,,,,,,,,,,CAVOK,,,,,,,,VFR,,,,,,,,,,,,METAR,209
SCAR 050100Z 18004KT 9999 OVC025 19/14 Q1014,SCAR,2024-05-05T01:00:00Z,-18.351,-70.336,19,14,180,4,,6+,29.94,,,,,,,,,,,OVC,2500,,,,,,,MVFR,,,,,,,,,,,,METAR,57
SBVT 050100Z VRB01KT 9999 BKN020 24/23 Q1019,SBVT,2024-05-05T01:00:00Z,-20.258,-40.286,24,23,VRB,1,,6+,30.09,,,,,,,,,,,BKN,2000,,,,,,,MVFR,,,,,,,,,,,,METAR,4
SBTE 050100Z 15004KT 9999 FEW015 ///// Q1012,SBTE,2024-05-05T01:00:00Z,-5.06,-42.824,,,150,4,,6+,29.88,,,,,,,,,,,FEW,1500,,,,,,,VFR,,,,,,,,,,,,METAR,60
SBSV 050100Z 12007KT 9999 FEW023 SCT070 28/24 Q1015,SBSV,2024-05-05T01:00:00Z,-12.911,-38.331,28,24,120,7,,6+,29.97,,,,,,,,,,,FEW,2300,SCT,7000,,,,,VFR,,,,,,,,,,,,METAR,9
SBSP 050100Z 11004KT CAVOK 26/16 Q1022,SBSP,2024-05-05T01:00:00Z,-23.627,-46.655,26,16,110,4,,6+,30.18,,,,,,,,,,,CAVOK,,,,,,,,VFR,,,,,,,,,,,,METAR,802
SBSN 050100Z 10003KT 9999 VCTS FEW013 FEW017CB SCT100 28/26 Q1010 RETS,SBSN,2024-05-05T01:00:00Z,-2.423,-54.789,28,26,100,3,,6+,29.82,,,,,,,,,,VCTS,FEW,1300,FEW,1700,SCT,10000,,,VFR,,,,,,,,,,,,METAR,57
SBSL 050100Z 15004KT 9999 FEW018 BKN100 26/25 Q1012,SBSL,2024-05-05T01:00:00Z,-2.585,-44.234,26,25,150,4,,6+,29.88,,,,,,,,,,,FEW,1800,BKN,10000,,,,,VFR,,,,,,,,,,,,METAR,53
SBSJ 050100Z 36003KT 330V050 CAVOK 23/18 Q1021,SBSJ,2024-05-05T01:00:00Z,-23.229,-45.861,23,18,360,3,,6+,30.15,,,,,,,,,,,CAVOK,,,,,,,,VFR,,,,,,,,,,,,METAR,640
SBSG 050100Z 18004KT 9999 SCT020 25/23 Q1013,SBSG,2024-05-05T01:00:00Z,-5.768,-35.376,25,23,180,4,,6+,29.91,,,,,,,,,,,SCT,2000,,,,,,,VFR,,,,,,,,,,,,METAR,83
SBRP 050100Z 12003KT 100V160 CAVOK 24/13 Q1019,SBRP,2024-05-05T01:00:00Z,-21.134,-47.774,24,13,120,3,,6+,30.09,,,,,,,,,,,CAVOK,,,,,,,,VFR,,,,,,,,,,,,METAR,550
SBRJ 050100Z 19002KT CAVOK 24/22 Q1016,SBRJ,2024-05-05T01:00:00Z,-22.91,-43.163,24,22,190,2,,6+,30.00,,,,,,,,,,,CAVOK,,,,,,,,VFR,,,,,,,,,,,,METAR,6
SBRF 050100Z 23006KT 200V260 8000 VCSH SCT020 FEW023TCU SCT050 26/26 Q1013,SBRF,2024-05-05T01:00:00Z,-8.126,-34.923,26,26,230,6,,4.97,29.91,,,,,,,,,,VCSH,SCT,2000,FEW,2300,SCT,5000,,,MVFR,,,,,,,,,,,,METAR,10
SBRB 050100Z 17002KT CAVOK 24/24 Q1011,SBRB,2024-05-05T01:00:00Z,-9.867,-67.897,24,24,170,2,,6+,29.85,,,,,,,,,,,CAVOK,,,,,,,,VFR,,,,,,,,,,,,METAR,190
SBPV 050100Z 00000KT CAVOK 27/25 Q1009,SBPV,2024-05-05T01:00:00Z,-8.708,-63.901,27,25,0,0,,6+,29.79,,,,,,,,,,,CAVOK,,,,,,,,VFR,,,,,,,,,,,,METAR,89
SBPS 050100Z 24003KT 9999 FEW025 BKN050 25/23 Q1018,SBPS,2024-05-05T01:00:00Z,-16.439,-39.081,25,23,240,3,,6+,30.06,,,,,,,,,,,FEW,2500,BKN,5000,,,,,VFR,,,,,,,,,,,,METAR,44
SBPL 050100Z 14005KT 9999 FEW030 SCT070 26/21 Q1015,SBPL,2024-05-05T01:00:00Z,-9.367,-40.565,26,21,140,5,,6+,29.97,,,,,,,,,,,FEW,3000,SCT,7000,,,,,VFR,,,,,,,,,,,,METAR,386
SBPJ 050100Z 11005KT CAVOK 27/23 Q1013,SBPJ,2024-05-05T01:00:00Z,-10.291,-48.357,27,23,110,5,,6+,29.91,,,,,,,,,,,CAVOK,,,,,,,,VFR,,,,,,,,,,,,METAR,226
SBOI 050100Z AUTO 00000KT 9999 // NCD 26/26 Q1012,SBOI,2024-05-05T01:00:00Z,3.861,-51.796,26,26,0,0,,6+,29.88,,,TRUE,,,,,,,,CLR,,,,,,,,VFR,,,,,,,,,,,,METAR,15
SBNT 050100Z 19007KT 9999 FEW021 25/24 Q1012,SBNT,2024-05-05T01:00:00Z,-5.911,-35.248,25,24,190,7,,6+,29.88,,,,,,,,,,,FEW,2100,,,,,,,VFR,,,,,,,,,,,,METAR,51
SBNF 050100Z 31004KT CAVOK 23/22 Q1016,SBNF,2024-05-05T01:00:00Z,-26.88,-48.651,23,22,310,4,,6+,30.00,,,,,,,,,,,CAVOK,,,,,,,,VFR,,,,,,,,,,,,METAR,5
SBMQ 050100Z 08003KT 9999 FEW017 27/26 Q1011,SBMQ,2024-05-05T01:00:00Z,0.051,-51.072,27,26,80,3,,6+,29.85,,,,,,,,,,,FEW,1700,,,,,,,VFR,,,,,,,,,,,,METAR,15
SBMO 050100Z 29003KT 9999 SCT020 25/23 Q1015,SBMO,2024-05-05T01:00:00Z,-9.511,-35.792,25,23,290,3,,6+,29.97,,,,,,,,,,,SCT,2000,,,,,,,VFR,,,,,,,,,,,,METAR,116
SBMN 050100Z 04001KT CAVOK 27/25 Q1010,SBMN,2024-05-05T01:00:00Z,-3.146,-59.986,27,25,40,1,,6+,29.82,,,,,,,,,,,CAVOK,,,,,,,,VFR,,,,,,,,,,,,METAR,71
SBMA 050100Z 00000KT CAVOK 26/26 Q1012,SBMA,2024-05-05T01:00:00Z,-5.368,-49.137,26,26,0,0,,6+,29.88,,,,,,,,,,,CAVOK,,,,,,,,VFR,,,,,,,,,,,,METAR,110
SBLO 050100Z 14002KT CAVOK 26/20 Q1018,SBLO,2024-05-05T01:00:00Z,-23.334,-51.13,26,20,140,2,,6+,30.06,,,,,,,,,,,CAVOK,,,,,,,,VFR,,,,,,,,,,,,METAR,563
SBKP 050100Z 11007KT CAVOK 23/13 Q1020,SBKP,2024-05-05T01:00:00Z,-23.007,-47.135,23,13,110,7,,6+,30.12,,,,,,,,,,,CAVOK,,,,,,,,VFR,,,,,,,,,,,,METAR,659
SBJP 050100Z 18004KT 140V200 3000 -RA BKN014 BKN070 25/24 Q1013,SBJP,2024-05-05T01:00:00Z,-7.148,-34.951,25,24,180,4,,1.86,29.91,,,,,,,,,,-RA,BKN,1400,BKN,7000,,,,,IFR,,,,,,,,,,,,METAR,66
SBGR 050100Z 15001KT 8000 NSC 20/16 Q1021,SBGR,2024-05-05T01:00:00Z,-23.432,-46.469,20,16,150,1,,4.97,30.15,,,,,,,,,,,CLR,,,,,,,,MVFR,,,,,,,,,,,,METAR,745
SBGO 050100Z 13006KT CAVOK 23/13 Q1019,SBGO,2024-05-05T01:00:00Z,-16.632,-49.221,23,13,130,6,,6+,30.09,,,,,,,,,,,CAVOK,,,,,,,,VFR,,,,,,,,,,,,METAR,740
SBGL 050100Z 07003KT CAVOK 25/22 Q1016,SBGL,2024-05-05T01:00:00Z,-22.815,-43.261,25,22,70,3,,6+,30.00,,,,,,,,,,,CAVOK,,,,,,,,VFR,,,,,,,,,,,,METAR,3
SBFZ 050100Z 14007KT 9999 SCT016 28/25 Q1012,SBFZ,2024-05-05T01:00:00Z,-3.776,-38.533,28,25,140,7,,6+,29.88,,,,,,,,,,,SCT,1600,,,,,,,VFR,,,,,,,,,,,,METAR,32
SBFN 050100Z AUTO 14009KT 9999 BKN013 BKN044 28/26 Q1012 RERA,SBFN,2024-05-05T01:00:00Z,-3.855,-32.423,28,26,140,9,,6+,29.88,,,TRUE,,,,,,,,BKN,1300,BKN,4400,,,,,MVFR,,,,,,,,,,,,METAR,52
SBFL 050100Z 11004KT 070V170 9999 FEW010 23/22 Q1016,SBFL,2024-05-05T01:00:00Z,-27.671,-48.547,23,22,110,4,,6+,30.00,,,,,,,,,,,FEW,1000,,,,,,,VFR,,,,,,,,,,,,METAR,5
SBFI 050100Z 14003KT CAVOK 25/25 Q1013,SBFI,2024-05-05T01:00:00Z,-25.595,-54.488,25,25,140,3,,6+,29.91,,,,,,,,,,,CAVOK,,,,,,,,VFR,,,,,,,,,,,,METAR,233
SBEG 050100Z 34001KT 9999 FEW015 SCT100 27/26 Q1010,SBEG,2024-05-05T01:00:00Z,-3.039,-60.05,27,26,340,1,,6+,29.82,,,,,,,,,,,FEW,1500,SCT,10000,,,,,VFR,,,,,,,,,,,,METAR,69
SBCZ 050100Z 14005KT 9999 VCTS FEW025CB SCT100 26/25 Q1011,SBCZ,2024-05-05T01:00:00Z,-7.597,-72.774,26,25,140,5,,6+,29.85,,,,,,,,,,VCTS,FEW,2500,SCT,10000,,,,,VFR,,,,,,,,,,,,METAR,193
SBCY 050100Z 16003KT CAVOK 27/24 Q1012,SBCY,2024-05-05T01:00:00Z,-15.653,-56.116,27,24,160,3,,6+,29.88,,,,,,,,,,,CAVOK,,,,,,,,VFR,,,,,,,,,,,,METAR,182
SBCT 050100Z 13003KT CAVOK 19/19 Q1022,SBCT,2024-05-05T01:00:00Z,-25.529,-49.176,19,19,130,3,,6+,30.18,,,,,,,,,,,CAVOK,,,,,,,,VFR,,,,,,,,,,,,METAR,914
SBCG 050100Z 02004KT CAVOK 26/19 Q1016,SBCG,2024-05-05T01:00:00Z,-20.469,-54.672,26,19,20,4,,6+,30.00,,,,,,,,,,,CAVOK,,,,,,,,VFR,,,,,,,,,,,,METAR,556
SBCF 050100Z 09008KT CAVOK 22/14 Q1022,SBCF,2024-05-05T01:00:00Z,-19.635,-43.966,22,14,90,8,,6+,30.18,,,,,,,,,,,CAVOK,,,,,,,,VFR,,,,,,,,,,,,METAR,825
SBBV 050100Z 13006KT 6000 -SHRA FEW020 FEW030TCU SCT080 27/25 Q1010,SBBV,2024-05-05T01:00:00Z,2.846,-60.69,27,25,130,6,,3.73,29.82,,,,,,,,,,-SHRA,FEW,2000,FEW,3000,SCT,8000,,,MVFR,,,,,,,,,,,,METAR,80
SBBR 050100Z 10006KT CAVOK 21/14 Q1021,SBBR,2024-05-05T01:00:00Z,-15.867,-47.933,21,14,100,6,,6+,30.15,,,,,,,,,,,CAVOK,,,,,,,,VFR,,,,,,,,,,,,METAR,1051
SBBG 050100Z AUTO 08003KT 9999 FEW021 18/18 Q1013,SBBG,2024-05-05T01:00:00Z,-31.391,-54.112,18,18,80,3,,6+,29.91,,,TRUE,,,,,,,,FEW,2100,,,,,,,VFR,,,,,,,,,,,,METAR,182
SBBE 050100Z 09005KT CAVOK 26/24 Q1012,SBBE,2024-05-05T01:00:00Z,-1.379,-48.476,26,24,90,5,,6+,29.88,,,,,,,,,,,CAVOK,,,,,,,,VFR,,,,,,,,,,,,METAR,16
SBAR 050100Z 12005KT 9999 SCT017 28/25 Q1014,SBAR,2024-05-05T01:00:00Z,-10.984,-37.07,28,25,120,5,,6+,29.94,,,,,,,,,,,SCT,1700,,,,,,,VFR,,,,,,,,,,,,METAR,4
SAZS 050100Z 32016KT 2500 -SN BKN003 OVC030 00/M01 Q1005,SAZS,2024-05-05T01:00:00Z,-41.151,-71.157,0,-1,320,16,,1.55,29.68,,,,,,,,,,-SN,BKN,300,OVC,3000,,,,,LIFR,,,,,,,,,,,,METAR,843
SAZN 050100Z 23006KT CAVOK 10/00 Q1009,SAZN,2024-05-05T01:00:00Z,-38.95,-68.141,10,0,230,6,,6+,29.79,,,,,,,,,,,CAVOK,,,,,,,,VFR,,,,,,,,,,,,METAR,273
SAZM 050100Z 02003KT 9999 BKN015 13/12 Q1013,SAZM,2024-05-05T01:00:00Z,-37.932,-57.581,13,12,20,3,,6+,29.91,,,,,,,,,,,BKN,1500,,,,,,,MVFR,,,,,,,,,,,,METAR,17
SAWH 050100Z 24015KT 9999 BKN010 OVC020 03/01 Q0990,SAWH,2024-05-05T01:00:00Z,-54.844,-68.308,3,1,240,15,,6+,29.23,,,,,,,,,,,BKN,1000,OVC,2000,,,,,MVFR,,,,,,,,,,,,METAR,22
SAWG 050100Z 23015KT 9999 SCT035 02/M01 Q0992,SAWG,2024-05-05T01:00:00Z,-51.609,-69.306,2,-1,230,15,,6+,29.29,,,,,,,,,,,SCT,3500,,,,,,,VFR,,,,,,,,,,,,METAR,18
SAVC 050100Z 30006KT CAVOK 05/M00 Q0998,SAVC,2024-05-05T01:00:00Z,-45.79,-67.471,5,0,300,6,,6+,29.47,,,,,,,,,,,CAVOK,,,,,,,,VFR,,,,,,,,,,,,METAR,58
SASA 050100Z 31005KT 270V010 CAVOK 11/09 Q1015,SASA,2024-05-05T01:00:00Z,-24.856,-65.486,11,9,310,5,,6+,29.97,,,,,,,,,,,CAVOK,,,,,,,,VFR,,,,,,,,,,,,METAR,1235
SARI 050100Z 12002KT CAVOK 25/24 Q1014,SARI,2024-05-05T01:00:00Z,-25.737,-54.473,25,24,120,2,,6+,29.94,,,,,,,,,,,CAVOK,,,,,,,,VFR,,,,,,,,,,,,METAR,268
SAME 050100Z 00000KT CAVOK 12/04 Q1007,SAME,2024-05-05T01:00:00Z,-32.832,-68.793,12,4,0,0,,6+,29.73,,,,,,,,,,,CAVOK,,,,,,,,VFR,,,,,,,,,,,,METAR,709
SAEZ 050100Z 06008KT 9999 FEW015 OVC030 18/16 Q1012 NOSIG,SAEZ,2024-05-05T01:00:00Z,-34.822,-58.536,18,16,60,8,,6+,29.88,,,,,,TRUE,,,,,FEW,1500,OVC,3000,,,,,MVFR,,,,,,,,,,,,METAR,16
SADF 050100Z 07008KT 9999 OVC013 18/16 Q1013,SADF,2024-05-05T01:00:00Z,-34.457,-58.593,18,16,70,8,,6+,29.91,,,,,,,,,,,OVC,1300,,,,,,,MVFR,,,,,,,,,,,,METAR,4
SACO 050100Z 03012KT 9999 SCT006 BKN012 14/13 Q1010 BECMG 3000 BR OVC005,SACO,2024-05-05T01:00:00Z,-31.324,-64.208,14,13,30,12,,6+,29.82,,,,,,,,,,,SCT,600,BKN,1200,,,,,MVFR,,,,,,,,,,,,METAR,474
SABE 050100Z 06010KT 9000 -RA SCT012 OVC027 18/16 Q1013 NOSIG,SABE,2024-05-05T01:00:00Z,-34.559,-58.416,18,16,60,10,,5.59,29.91,,,,,,TRUE,,,,-RA,SCT,1200,OVC,2700,,,,,MVFR,,,,,,,,,,,,METAR,3
SAAR 050100Z 04007KT 9999 BKN007 OVC009 16/15 Q1011,SAAR,2024-05-05T01:00:00Z,-32.918,-60.782,16,15,40,7,,6+,29.85,,,,,,,,,,,BKN,700,OVC,900,,,,,IFR,,,,,,,,,,,,METAR,24
RPVP 050100Z 09006KT 9999 FEW019 SCT250 32/25 Q1010 RMK A2983,RPVP,2024-05-05T01:00:00Z,9.742,118.759,32,25,90,6,,6+,29.82,,,,,,,,,,,FEW,1900,SCT,25000,,,,,VFR,,,,,,,,,,,,METAR,15
RPVM 050100Z 04004KT 360V090 9999 FEW020 31/23 Q1011 NOSIG RMK A2985,RPVM,2024-05-05T01:00:00Z,10.308,123.978,31,23,40,4,,6+,29.85,,,,,,TRUE,,,,,FEW,2000,,,,,,,VFR,,,,,,,,,,,,METAR,9
RPVD 050100Z 07010KT 9999 FEW024 31/24 Q1009 RMK A2980,RPVD,2024-05-05T01:00:00Z,9.334,123.297,31,24,70,10,,6+,29.79,,,,,,,,,,,FEW,2400,,,,,,,VFR,,,,,,,,,,,,METAR,11
RPMZ 050100Z 25005KT 210V290 9999 FEW017 SCT090 30/25 Q1009 RMK A2980,RPMZ,2024-05-05T01:00:00Z,6.92,122.063,30,25,250,5,,6+,29.79,,,,,,,,,,,FEW,1700,SCT,9000,,,,,VFR,,,,,,,,,,,,METAR,8
RPMR 050100Z 03007KT 350V080 9999 FEW018 30/23 Q1010 RMK A2983,RPMR,2024-05-05T01:00:00Z,6.058,125.096,30,23,30,7,,6+,29.82,,,,,,,,,,,FEW,1800,,,,,,,VFR,,,,,,,,,,,,METAR,47
RPMD 050100Z 01007KT 320V050 9999 FEW016 31/23 Q1010 RMK A2983,RPMD,2024-05-05T01:00:00Z,7.125,125.646,31,23,10,7,,6+,29.82,,,,,,,,,,,FEW,1600,,,,,,,VFR,,,,,,,,,,,,METAR,19
RPLL 050100Z 12007KT 060V160 9999 FEW025 33/24 Q1010 NOSIG RMK A2983,RPLL,2024-05-05T01:00:00Z,14.507,121.004,33,24,120,7,,6+,29.82,,,,,,TRUE,,,,,FEW,2500,,,,,,,VFR,,,,,,,,,,,,METAR,15
RPLI 050100Z 25005KT 200V300 9999 FEW018 32/27 Q1010 NOSIG RMK A2983,RPLI,2024-05-05T01:00:00Z,18.178,120.532,32,27,250,5,,6+,29.82,,,,,,TRUE,,,,,FEW,1800,,,,,,,VFR,,,,,,,,,,,,METAR,5
RPLC 050100Z 35002KT 9999 FEW020 31/21 Q1011 NOSIG RMK A2985,RPLC,2024-05-05T01:00:00Z,15.186,120.56,31,21,350,2,,6+,29.85,,,,,,TRUE,,,,,FEW,2000,,,,,,,VFR,,,,,,,,,,,,METAR,138
RPLB 050100Z 08011KT 9999 FEW020 33/21 Q1010 NOSIG RMK A2983,RPLB,2024-05-05T01:00:00Z,14.794,120.271,33,21,80,11,,6+,29.82,,,,,,TRUE,,,,,FEW,2000,,,,,,,VFR,,,,,,,,,,,,METAR,19
ROYN 050100Z AUTO 18011KT 9999 -RA FEW011 SCT022 BKN027 //////TCU 27/25 Q1011,ROYN,2024-05-05T01:00:00Z,24.467,122.978,27,25,180,11,,6+,29.85,,,TRUE,,,,,,,-RA,FEW,1100,SCT,2200,BKN,2700,,,MVFR,,,,,,,,,,,,METAR,21
RORY 050100Z AUTO 12017KT 9999 BKN013 BKN037 26/23 Q1015,RORY,2024-05-05T01:00:00Z,27.044,128.4,26,23,120,17,,6+,29.97,,,TRUE,,,,,,,,BKN,1300,BKN,3700,,,,,MVFR,,,,,,,,,,,,METAR,13
RORT 050100Z AUTO 16011KT 9999 SCT014 29/25 Q1012,RORT,2024-05-05T01:00:00Z,24.653,124.674,29,25,160,11,,6+,29.88,,,TRUE,,,,,,,,SCT,1400,,,,,,,VFR,,,,,,,,,,,,METAR,9
RORS 050100Z 15018KT 9999 FEW015 SCT020 29/25 Q1012,RORS,2024-05-05T01:00:00Z,24.827,125.145,29,25,150,18,,6+,29.88,,,,,,,,,,,FEW,1500,SCT,2000,,,,,VFR,,,,,,,,,,,,METAR,13
RORK 050100Z AUTO 10024KT 9999 FEW015 SCT037 BKN046 25/22 Q1015,RORK,2024-05-05T01:00:00Z,25.944,131.326,25,22,100,24,,6+,29.97,,,TRUE,,,,,,,,FEW,1500,SCT,3700,BKN,4600,,,VFR,,,,,,,,,,,,METAR,11
ROMY 050100Z 15015KT 9999 BKN015 28/25 Q1012,ROMY,2024-05-05T01:00:00Z,24.782,125.295,28,25,150,15,,6+,29.88,,,,,,,,,,,BKN,1500,,,,,,,MVFR,,,,,,,,,,,,METAR,42
ROMD 050100Z AUTO VRB10KT 9999 SCT019 BKN029 OVC034 24/22 Q1015,ROMD,2024-05-05T01:00:00Z,25.847,131.264,24,22,VRB,10,,6+,29.97,,,TRUE,,,,,,,,SCT,1900,BKN,2900,OVC,3400,,,MVFR,,,,,,,,,,,,METAR,45
ROIG 050100Z 15012KT 9999 FEW013 BKN025 29/26 Q1011,ROIG,2024-05-05T01:00:00Z,24.395,124.245,29,26,150,12,,6+,29.85,,,,,,,,,,,FEW,1300,BKN,2500,,,,,MVFR,,,,,,,,,,,,METAR,37
ROAH 050100Z 12015KT 9999 SCT020 27/22 Q1014 RMK 4CU020 A2994,ROAH,2024-05-05T01:00:00Z,26.196,127.646,27,22,120,15,,6+,29.94,,,,,,,,,,,SCT,2000,,,,,,,VFR,,,,,,,,,,,,METAR,6
RKTU 050100Z 13006KT 9999 -RA FEW030 OVC060 19/16 Q1012,RKTU,2024-05-05T01:00:00Z,36.717,127.499,19,16,130,6,,6+,29.88,,,,,,,,,,-RA,FEW,3000,OVC,6000,,,,,VFR,,,,,,,,,,,,METAR,46
RKTN 050100Z 33001KT 9000 -RA BKN030 OVC060 20/16 Q1015,RKTN,2024-05-05T01:00:00Z,35.894,128.659,20,16,330,1,,5.59,29.97,,,,,,,,,,-RA,BKN,3000,OVC,6000,,,,,MVFR,,,,,,,,,,,,METAR,25
RKSS 050100Z 12010KT 2500 -RA BR SCT007 BKN025 OVC070 17/17 Q1011 NOSIG,RKSS,2024-05-05T01:00:00Z,37.558,126.791,17,17,120,10,,1.55,29.85,,,,,,TRUE,,,,-RA BR,SCT,700,BKN,2500,OVC,7000,,,IFR,,,,,,,,,,,,METAR,18
RKSI 050100Z 12011KT 2500 -RA SCT005 BKN025 OVC070 17/17 Q1010 NOSIG,RKSI,2024-05-05T01:00:00Z,37.469,126.451,17,17,120,11,,1.55,29.82,,,,,,TRUE,,,,-RA,SCT,500,BKN,2500,OVC,7000,,,IFR,,,,,,,,,,,,METAR,7
RKPK 050100Z 20007KT 9999 -RA BKN050 OVC100 19/16 Q1016,RKPK,2024-05-05T01:00:00Z,35.179,128.938,19,16,200,7,,6+,30.00,,,,,,,,,,-RA,BKN,5000,OVC,10000,,,,,VFR,,,,,,,,,,,,METAR,3
RKPC 050100Z 01006KT 9999 -RA FEW010 BKN045 OVC070 23/18 Q1010 WS ALL RWY NOSIG,RKPC,2024-05-05T01:00:00Z,33.511,126.493,23,18,10,6,,6+,29.82,,,,,,TRUE,,,,-RA,FEW,1000,BKN,4500,OVC,7000,,,VFR,,,,,,,,,,,,METAR,23
RKNY 050100Z 09002KT 9999 FEW025 BKN045 OVC080 17/14 Q1012 NOSIG,RKNY,2024-05-05T01:00:00Z,38.061,128.669,17,14,90,2,,6+,29.88,,,,,,TRUE,,,,,FEW,2500,BKN,4500,OVC,8000,,,VFR,,,,,,,,,,,,METAR,76
RKJB 050100Z 16018KT 6000 -RA SCT010 BKN020 OVC080 20/18 Q1011 NOSIG,RKJB,2024-05-05T01:00:00Z,34.991,126.383,20,18,160,18,,3.73,29.85,,,,,,TRUE,,,,-RA,SCT,1000,BKN,2000,OVC,8000,,,MVFR,,,,,,,,,,,,METAR,16
RJTT 050100Z 19015KT CAVOK 24/14 Q1023 NOSIG RMK A3021,RJTT,2024-05-05T01:00:00Z,35.553,139.781,24,14,190,15,,6+,30.21,,,,,,TRUE,,,,,CAVOK,,,,,,,,VFR,,,,,,,,,,,,METAR,5
RJTO 050100Z 20015KT CAVOK 22/15 Q1023,RJTO,2024-05-05T01:00:00Z,34.782,139.36,22,15,200,15,,6+,30.21,,,,,,,,,,,CAVOK,,,,,,,,VFR,,,,,,,,,,,,METAR,37
RJTI 050100Z 17007KT 140V230 CAVOK 23/16 Q1023,RJTI,2024-05-05T01:00:00Z,35.637,139.839,23,16,170,7,,6+,30.21,,,,,,,,,,,CAVOK,,,,,,,,VFR,,,,,,,,,,,,METAR,4
RJTF 050100Z 18008KT 150V230 9999 FEW030 27/11 Q1022,RJTF,2024-05-05T01:00:00Z,35.672,139.528,27,11,180,8,,6+,30.18,,,,,,,,,,,FEW,3000,,,,,,,VFR,,,,,,,,,,,,METAR,37
RJSY 050100Z VRB02KT CAVOK 24/08 Q1021,RJSY,2024-05-05T01:00:00Z,38.812,139.787,24,8,VRB,2,,6+,30.15,,,,,,,,,,,CAVOK,,,,,,,,VFR,,,,,,,,,,,,METAR,17
RJSS 050100Z 11008KT CAVOK 20/14 Q1021,RJSS,2024-05-05T01:00:00Z,38.14,140.917,20,14,110,8,,6+,30.15,,,,,,,,,,,CAVOK,,,,,,,,VFR,,,,,,,,,,,,METAR,5
RJSR 050100Z VRB03KT CAVOK 21/07 Q1021,RJSR,2024-05-05T01:00:00Z,40.192,140.372,21,7,VRB,3,,6+,30.15,,,,,,,,,,,CAVOK,,,,,,,,VFR,,,,,,,,,,,,METAR,83
RJSN 050100Z 13008KT CAVOK 27/09 Q1020,RJSN,2024-05-05T01:00:00Z,37.956,139.121,27,9,130,8,,6+,30.12,,,,,,,,,,,CAVOK,,,,,,,,VFR,,,,,,,,,,,,METAR,4
RJSM 050100Z 07005KT 360V100 9999 FEW030 BKN230 21/10 Q1020,RJSM,2024-05-05T01:00:00Z,40.705,141.372,21,10,70,5,,6+,30.12,,,,,,,,,,,FEW,3000,BKN,23000,,,,,VFR,,,,,,,,,,,,METAR,31
RJSK 050100Z VRB03KT CAVOK 23/07 Q1021,RJSK,2024-05-05T01:00:00Z,39.616,140.219,23,7,VRB,3,,6+,30.15,,,,,,,,,,,CAVOK,,,,,,,,VFR,,,,,,,,,,,,METAR,95
RJSI 050100Z VRB01KT CAVOK 21/08 Q1021,RJSI,2024-05-05T01:00:00Z,39.429,141.135,21,8,VRB,1,,6+,30.15,,,,,,,,,,,CAVOK,,,,,,,,VFR,,,,,,,,,,,,METAR,89
RJSF 050100Z 19006KT 140V260 CAVOK 26/07 Q1022,RJSF,2024-05-05T01:00:00Z,37.227,140.428,26,7,190,6,,6+,30.18,,,,,,,,,,,CAVOK,,,,,,,,VFR,,,,,,,,,,,,METAR,373
RJSC 050100Z 33005KT 270V010 CAVOK 22/09 Q1021,RJSC,2024-05-05T01:00:00Z,38.412,140.371,22,9,330,5,,6+,30.15,,,,,,,,,,,CAVOK,,,,,,,,VFR,,,,,,,,,,,,METAR,104
RJSA 050100Z 07004KT 030V100 CAVOK 21/13 Q1020,RJSA,2024-05-05T01:00:00Z,40.733,140.689,21,13,70,4,,6+,30.12,,,,,,,,,,,CAVOK,,,,,,,,VFR,,,,,,,,,,,,METAR,196
RJOY 050100Z VRB03KT 9999 FEW040 24/14 Q1021,RJOY,2024-05-05T01:00:00Z,34.597,135.601,24,14,VRB,3,,6+,30.15,,,,,,,,,,,FEW,4000,,,,,,,VFR,,,,,,,,,,,,METAR,10
RJOW 050100Z 16021G32KT 9999 FEW025 BKN180 24/14 Q1016,RJOW,2024-05-05T01:00:00Z,34.676,131.79,24,14,160,21,32,6+,30.00,,,,,,,,,,,FEW,2500,BKN,18000,,,,,VFR,,,,,,,,,,,,METAR,54
RJOT 050100Z 36005KT 270V080 9999 FEW020 21/12 Q1021,RJOT,2024-05-05T01:00:00Z,34.214,134.016,21,12,360,5,,6+,30.15,,,,,,,,,,,FEW,2000,,,,,,,VFR,,,,,,,,,,,,METAR,181
RJOS 050100Z 14016KT 9999 FEW030 BKN/// 20/15 Q1022,RJOS,2024-05-05T01:00:00Z,34.132,134.609,20,15,140,16,,6+,30.18,,,,,,,,,,,FEW,3000,,,,,,,VFR,,,,,,,,,,,,METAR,3
RJOR 050100Z 16011KT 140V200 CAVOK 26/07 Q1018,RJOR,2024-05-05T01:00:00Z,35.53,134.165,26,7,160,11,,6+,30.06,,,,,,,,,,,CAVOK,,,,,,,,VFR,,,,,,,,,,,,METAR,11
RJOO 050100Z VRB02KT 9999 FEW030 SCT/// 23/12 Q1022,RJOO,2024-05-05T01:00:00Z,34.784,135.439,23,12,VRB,2,,6+,30.18,,,,,,,,,,,FEW,3000,,,,,,,VFR,,,,,,,,,,,,METAR,11
RJOM 050100Z 35010KT 9999 FEW030 BKN/// 22/13 Q1019,RJOM,2024-05-05T01:00:00Z,33.83,132.698,22,13,350,10,,6+,30.09,,,,,,,,,,,FEW,3000,,,,,,,VFR,,,,,,,,,,,,METAR,3
RJOK 050100Z 15005KT 110V190 9999 FEW025 SCT/// 23/15 Q1022,RJOK,2024-05-05T01:00:00Z,33.546,133.669,23,15,150,5,,6+,30.18,,,,,,,,,,,FEW,2500,,,,,,,VFR,,,,,,,,,,,,METAR,7
RJOH 050100Z 17016KT 9999 FEW180 BKN250 27/04 Q1018,RJOH,2024-05-05T01:00:00Z,35.493,133.239,27,4,170,16,,6+,30.06,,,,,,,,,,,FEW,18000,BKN,25000,,,,,VFR,,,,,,,,,,,,METAR,6
RJOC 050100Z 19015KT 150V220 9999 FEW040 BKN/// 27/04 Q1017,RJOC,2024-05-05T01:00:00Z,35.414,132.89,27,4,190,15,,6+,30.03,,,,,,,,,,,FEW,4000,,,,,,,VFR,,,,,,,,,,,,METAR,2
RJOB 050100Z 12007KT 040V160 9999 FEW025 21/13 Q1021,RJOB,2024-05-05T01:00:00Z,34.757,133.855,21,13,120,7,,6+,30.15,,,,,,,,,,,FEW,2500,,,,,,,VFR,,,,,,,,,,,,METAR,242
RJOA 050100Z 12005KT 080V160 9999 FEW030 SCT/// 20/11 Q1021,RJOA,2024-05-05T01:00:00Z,34.436,132.919,20,11,120,5,,6+,30.15,,,,,,,,,,,FEW,3000,,,,,,,VFR,,,,,,,,,,,,METAR,318
RJNW 050100Z 19006KT 160V220 CAVOK 26/08 Q1020,RJNW,2024-05-05T01:00:00Z,37.293,136.962,26,8,190,6,,6+,30.12,,,,,,,,,,,CAVOK,,,,,,,,VFR,,,,,,,,,,,,METAR,222
RJNT 050100Z 15007KT 070V220 CAVOK 29/07 Q1019,RJNT,2024-05-05T01:00:00Z,36.641,137.187,29,7,150,7,,6+,30.09,,,,,,,,,,,CAVOK,,,,,,,,VFR,,,,,,,,,,,,METAR,30
RJNS 050100Z VRB02KT 9999 FEW030 24/10 Q1024,RJNS,2024-05-05T01:00:00Z,34.796,138.189,24,10,VRB,2,,6+,30.24,,,,,,,,,,,FEW,3000,,,,,,,VFR,,,,,,,,,,,,METAR,133
RJNK 050100Z 36007KT 330V040 9999 NSC 23/12 Q1019,RJNK,2024-05-05T01:00:00Z,36.394,136.407,23,12,360,7,,6+,30.09,,,,,,,,,,,CLR,,,,,,,,VFR,,,,,,,,,,,,METAR,7
RJKI 050100Z AUTO 12011G21KT 080V160 9999 SCT020 BKN024 BKN027 26/17 Q1016,RJKI,2024-05-05T01:00:00Z,28.321,129.928,26,17,120,11,21,6+,30.00,,,TRUE,,,,,,,,SCT,2000,BKN,2400,BKN,2700,,,MVFR,,,,,,,,,,,,METAR,6
RJKA 050100Z 13016KT 9999 FEW020 BKN030 BKN045 25/21 Q1016,RJKA,2024-05-05T01:00:00Z,28.431,129.713,25,21,130,16,,6+,30.00,,,,,,,,,,,FEW,2000,BKN,3000,BKN,4500,,,MVFR,,,,,,,,,,,,METAR,7
RJGG 050100Z 25003KT 220V300 9999 FEW010 19/16 Q1023 NOSIG,RJGG,2024-05-05T01:00:00Z,34.858,136.805,19,16,250,3,,6+,30.21,,,,,,TRUE,,,,,FEW,1000,,,,,,,VFR,,,,,,,,,,,,METAR,5
RJFU 050100Z 15013KT CAVOK 22/14 Q1016,RJFU,2024-05-05T01:00:00Z,32.917,129.914,22,14,150,13,,6+,30.00,,,,,,,,,,,CAVOK,,,,,,,,VFR,,,,,,,,,,,,METAR,2
RJFT 050100Z 14009KT 110V180 9999 FEW035 SCT140 BKN180 25/11 Q1017,RJFT,2024-05-05T01:00:00Z,32.837,130.855,25,11,140,9,,6+,30.03,,,,,,,,,,,FEW,3500,SCT,14000,BKN,18000,,,VFR,,,,,,,,,,,,METAR,188
RJFS 050100Z 18004KT 9999 FEW035 SCT070 BKN170 21/17 Q1017,RJFS,2024-05-05T01:00:00Z,33.15,130.302,21,17,180,4,,6+,30.03,,,,,,,,,,,FEW,3500,SCT,7000,BKN,17000,,,VFR,,,,,,,,,,,,METAR,2
RJFR 050100Z 09019KT 9999 FEW025 BKN150 19/16 Q1017,RJFR,2024-05-05T01:00:00Z,33.846,131.035,19,16,90,19,,6+,30.03,,,,,,,,,,,FEW,2500,BKN,15000,,,,,VFR,,,,,,,,,,,,METAR,9
RJFO 050100Z 14016KT 9999 FEW020 SCT130 BKN/// 22/16 Q1019,RJFO,2024-05-05T01:00:00Z,33.479,131.737,22,16,140,16,,6+,30.09,,,,,,,,,,,FEW,2000,SCT,13000,,,,,VFR,,,,,,,,,,,,METAR,3
RJFM 050100Z 13010KT 9999 FEW030 BKN050 23/17 Q1020,RJFM,2024-05-05T01:00:00Z,31.877,131.449,23,17,130,10,,6+,30.12,,,,,,,,,,,FEW,3000,BKN,5000,,,,,VFR,,,,,,,,,,,,METAR,10
RJFK 050100Z 13010KT 090V150 9999 FEW025 BKN030 BKN040 22/13 Q1019 RMK 1CU025 5CU030 6CU040 A3012,RJFK,2024-05-05T01:00:00Z,31.803,130.719,22,13,130,10,,6+,30.09,,,,,,,,,,,FEW,2500,BKN,3000,BKN,4000,,,MVFR,,,,,,,,,,,,METAR,271
RJFG 050100Z 12017KT 9999 FEW025 BKN170 23/16 Q1019,RJFG,2024-05-05T01:00:00Z,30.605,130.992,23,16,120,17,,6+,30.09,,,,,,,,,,,FEW,2500,BKN,17000,,,,,VFR,,,,,,,,,,,,METAR,234
RJFF 050100Z 15013KT 100V180 CAVOK 24/13 Q1016 NOSIG RMK A3002,RJFF,2024-05-05T01:00:00Z,33.584,130.452,24,13,150,13,,6+,30.00,,,,,,TRUE,,,,,CAVOK,,,,,,,,VFR,,,,,,,,,,,,METAR,7
RJFE 050100Z 16012KT 120V190 9999 FEW030 SCT040 BKN080 21/17 Q1016,RJFE,2024-05-05T01:00:00Z,32.666,128.833,21,17,160,12,,6+,30.00,,,,,,,,,,,FEW,3000,SCT,4000,BKN,8000,,,VFR,,,,,,,,,,,,METAR,80
RJEC 050100Z 17013KT 9999 FEW025 BKN/// 18/07 Q1018,RJEC,2024-05-05T01:00:00Z,43.671,142.447,18,7,170,13,,6+,30.06,,,,,,,,,,,FEW,2500,,,,,,,VFR,,,,,,,,,,,,METAR,209
RJEB 050100Z 08008KT 040V110 CAVOK 07/05 Q1020,RJEB,2024-05-05T01:00:00Z,44.304,143.404,7,5,80,8,,6+,30.12,,,,,,,,,,,CAVOK,,,,,,,,VFR,,,,,,,,,,,,METAR,24
RJDT 050100Z 15008KT CAVOK 19/16 Q1016,RJDT,2024-05-05T01:00:00Z,34.288,129.325,19,16,150,8,,6+,30.00,,,,,,,,,,,CAVOK,,,,,,,,VFR,,,,,,,,,,,,METAR,61
RJDC 050100Z 09019KT 9999 FEW025 BKN150 20/15 Q1018,RJDC,2024-05-05T01:00:00Z,33.93,131.279,20,15,90,19,,6+,30.06,,,,,,,,,,,FEW,2500,BKN,15000,,,,,VFR,,,,,,,,,,,,METAR,5
RJDB 050100Z AUTO 19008KT 9999 NSC 20/14 Q1016,RJDB,2024-05-05T01:00:00Z,33.749,129.785,20,14,190,8,,6+,30.00,,,TRUE,,,,,,,,CLR,,,,,,,,VFR,,,,,,,,,,,,METAR,13
RJCW 050100Z 10014KT 9999 FEW015 SCT140 BKN/// 11/05 Q1018,RJCW,2024-05-05T01:00:00Z,45.404,141.802,11,5,100,14,,6+,30.06,,,,,,,,,,,FEW,1500,SCT,14000,,,,,VFR,,,,,,,,,,,,METAR,11
RJCO 050100Z 15017KT 9999 FEW020 BKN230 17/10 Q1020,RJCO,2024-05-05T01:00:00Z,43.117,141.381,17,10,150,17,,6+,30.12,,,,,,,,,,,FEW,2000,BKN,23000,,,,,VFR,,,,,,,,,,,,METAR,7
RJCN 050100Z 18005KT 130V210 9999 FEW009 SCT012 BKN018 08/04 Q1023,RJCN,2024-05-05T01:00:00Z,43.578,144.96,8,4,180,5,,6+,30.21,,,,,,,,,,,FEW,900,SCT,1200,BKN,1800,,,MVFR,,,,,,,,,,,,METAR,62
RJCM 050100Z 17011KT 140V210 9999 FEW020 SCT/// 16/07 Q1020,RJCM,2024-05-05T01:00:00Z,43.881,144.164,16,7,170,11,,6+,30.12,,,,,,,,,,,FEW,2000,,,,,,,VFR,,,,,,,,,,,,METAR,30
RJCK 050100Z 10004KT 020V140 9999 FEW010 BKN015 09/06 Q1023,RJCK,2024-05-05T01:00:00Z,43.041,144.193,9,6,100,4,,6+,30.21,,,,,,,,,,,FEW,1000,BKN,1500,,,,,MVFR,,,,,,,,,,,,METAR,94
RJCH 050100Z 16004KT 120V200 CAVOK 15/09 Q1020,RJCH,2024-05-05T01:00:00Z,41.77,140.822,15,9,160,4,,6+,30.12,,,,,,,,,,,CAVOK,,,,,,,,VFR,,,,,,,,,,,,METAR,36
RJCC 050100Z 18016KT 9999 FEW020 BKN/// 15/09 Q1020,RJCC,2024-05-05T01:00:00Z,42.774,141.693,15,9,180,16,,6+,30.12,,,,,,,,,,,FEW,2000,,,,,,,VFR,,,,,,,,,,,,METAR,19
RJCB 050100Z VRB02KT 4500 BR FEW003 BKN004 BKN005 06/06 Q1022,RJCB,2024-05-05T01:00:00Z,42.733,143.217,6,6,VRB,2,,2.8,30.18,,,,,,,,,,BR,FEW,300,BKN,400,BKN,500,,,LIFR,,,,,,,,,,,,METAR,149
RJBT 050100Z 17009KT 100V200 CAVOK 24/05 Q1019,RJBT,2024-05-05T01:00:00Z,35.513,134.787,24,5,170,9,,6+,30.09,,,,,,,,,,,CAVOK,,,,,,,,VFR,,,,,,,,,,,,METAR,172
RJBE 050100Z 32005KT 260V350 9999 FEW020 BKN/// 22/13 Q1022,RJBE,2024-05-05T01:00:00Z,34.633,135.224,22,13,320,5,,6+,30.18,,,,,,,,,,,FEW,2000,,,,,,,VFR,,,,,,,,,,,,METAR,5
RJBD 050100Z 16014KT 9999 FEW025 SCT/// 21/14 Q1022,RJBD,2024-05-05T01:00:00Z,33.662,135.364,21,14,160,14,,6+,30.18,,,,,,,,,,,FEW,2500,,,,,,,VFR,,,,,,,,,,,,METAR,91
RJBB 050100Z 01007KT 9999 FEW020 SCT/// 19/16 Q1022 BECMG 30007KT,RJBB,2024-05-05T01:00:00Z,34.434,135.233,19,16,10,7,,6+,30.18,,,,,,,,,,,FEW,2000,,,,,,,VFR,,,,,,,,,,,,METAR,8
RJAW 050100Z 06020KT 9999 BKN015 SCT040 23/20 Q1016 RMK 6CU015 4SC040 A3002 WIND BY EQPT/25,RJAW,2024-05-05T01:00:00Z,24.784,141.322,23,20,60,20,,6+,30.00,,,,,,,,,,,BKN,1500,SCT,4000,,,,,MVFR,,,,,,,,,,,,METAR,116
RJAH 050100Z 23008KT 170V250 9999 FEW030 25/14 Q1022,RJAH,2024-05-05T01:00:00Z,36.182,140.415,25,14,230,8,,6+,30.18,,,,,,,,,,,FEW,3000,,,,,,,VFR,,,,,,,,,,,,METAR,31
RJAF 050100Z 15011KT 110V170 CAVOK 24/08 Q1023,RJAF,2024-05-05T01:00:00Z,36.167,137.923,24,8,150,11,,6+,30.21,,,,,,,,,,,CAVOK,,,,,,,,VFR,,,,,,,,,,,,METAR,652
RJAA 050100Z 23005KT 150V280 CAVOK 26/14 Q1022 NOSIG RMK A3020,RJAA,2024-05-05T01:00:00Z,35.765,140.386,26,14,230,5,,6+,30.18,,,,,,TRUE,,,,,CAVOK,,,,,,,,VFR,,,,,,,,,,,,METAR,36
RCTP 050100Z 30004KT 280V350 7000 FEW006 SCT010 BKN015 26/25 Q1011 NOSIG RMK A2988,RCTP,2024-05-05T01:00:00Z,25.078,121.233,26,25,300,4,,4.35,29.85,,,,,,TRUE,,,,,FEW,600,SCT,1000,BKN,1500,,,MVFR,,,,,,,,,,,,METAR,33
RCSS 050100Z VRB02KT 9999 FEW013 SCT030 BKN045 29/24 Q1011 NOSIG RMK A2986,RCSS,2024-05-05T01:00:00Z,25.069,121.552,29,24,VRB,2,,6+,29.85,,,,,,TRUE,,,,,FEW,1300,SCT,3000,BKN,4500,,,VFR,,,,,,,,,,,,METAR,8
RCNN 050100Z 12002KT 9999 VCSH FEW010 SCT040 BKN060 28/21 Q1012 NOSIG RMK A2989 VCSH SW-W,RCNN,2024-05-05T01:00:00Z,22.95,120.206,28,21,120,2,,6+,29.88,,,,,,TRUE,,,,VCSH,FEW,1000,SCT,4000,BKN,6000,,,VFR,,,,,,,,,,,,METAR,15
RCMQ 050100Z 29004KT 4000 -RA VCTS BR FEW004 FEW012CB SCT020 BKN050 24/24 Q1012 NOSIG RMK A2988 TS SW MOV N,RCMQ,2024-05-05T01:00:00Z,24.265,120.621,24,24,290,4,,2.49,29.88,,,,,,TRUE,,,,-RA VCTS BR,FEW,400,FEW,1200,SCT,2000,BKN,5000,IFR,,,,,,,,,,,,METAR,202
RCFN 050100Z 17007KT 120V210 9999 FEW015 BKN250 30/26 Q1012 NOSIG RMK A2989,RCFN,2024-05-05T01:00:00Z,22.755,121.102,30,26,170,7,,6+,29.88,,,,,,TRUE,,,,,FEW,1500,BKN,25000,,,,,VFR,,,,,,,,,,,,METAR,42
PLCH 050100Z 09007KT 9999 SCT019 BKN040 29/27 Q1005,PLCH,2024-05-05T01:00:00Z,1.988,-157.349,29,27,90,7,,6+,29.68,,,,,,,,,,,SCT,1900,BKN,4000,,,,,VFR,,,,,,,,,,,,METAR,5
PKWA 050100Z AUTO 08011KT 10SM CLR 31/24 A2978 RMK AO2 T03050241,PKWA,2024-05-05T01:00:00Z,8.72,167.724,30.5,24.1,80,11,,10+,29.78,,,TRUE,TRUE,,,,,,,CLR,,,,,,,,VFR,,,,,,,,,,,,METAR,6
PAOM 050100Z 03019G29KT 10SM OVC029 03/M03 A2942 RMK AO2 PK WND 03029/0056 T00331033 $,PAOM,2024-05-05T01:00:00Z,64.5111,-165.44,3.3,-3.3,30,19,29,10+,29.42,,,,TRUE,TRUE,,,,,,OVC,2900,,,,,,,MVFR,,,,,,,,,,,,SPECI,6
OYAA 050100Z 09012KT 8000 SCT018 30/27 Q1007 NOSIG,OYAA,2024-05-05T01:00:00Z,12.829,45.029,30,27,90,12,,4.97,29.73,,,,,,TRUE,,,,,SCT,1800,,,,,,,MVFR,,,,,,,,,,,,METAR,3
OTHH 050100Z 02007KT 9000 FEW005 26/24 Q1007 NOSIG,OTHH,2024-05-05T01:00:00Z,25.273,51.609,26,24,20,7,,5.59,29.73,,,,,,TRUE,,,,,FEW,500,,,,,,,VFR,,,,,,,,,,,,METAR,3
OTBD 050100Z 03006KT 9000 FEW005 26/25 Q1007 NOSIG,OTBD,2024-05-05T01:00:00Z,25.261,51.565,26,25,30,6,,5.59,29.73,,,,,,TRUE,,,,,FEW,500,,,,,,,VFR,,,,,,,,,,,,METAR,13
ORSU 050100Z 32003KT 8000 NSC 10/10 Q1012,ORSU,2024-05-05T01:00:00Z,35.56,45.318,10,10,320,3,,4.97,29.88,,,,,,,,,,,CLR,,,,,,,,MVFR,,,,,,,,,,,,METAR,760
ORNI 050100Z 00000KT 6000 NSC 19/18 Q1007,ORNI,2024-05-05T01:00:00Z,31.99,44.405,19,18,0,0,,3.73,29.73,,,,,,,,,,,CLR,,,,,,,,MVFR,,,,,,,,,,,,METAR,33
ORMM 050100Z 14008KT CAVOK 23/16 Q1007 NOSIG,ORMM,2024-05-05T01:00:00Z,30.549,47.662,23,16,140,8,,6+,29.73,,,,,,TRUE,,,,,CAVOK,,,,,,,,VFR,,,,,,,,,,,,METAR,2
ORER 050100Z 11007KT 9000 SCT030 20/10 Q1009,ORER,2024-05-05T01:00:00Z,36.232,43.951,20,10,110,7,,5.59,29.79,,,,,,,,,,,SCT,3000,,,,,,,VFR,,,,,,,,,,,,METAR,399
ORBI 050100Z 14006KT CAVOK 20/18 Q1007 NOSIG,ORBI,2024-05-05T01:00:00Z,33.263,44.235,20,18,140,6,,6+,29.73,,,,,,TRUE,,,,,CAVOK,,,,,,,,VFR,,,,,,,,,,,,METAR,37
OPST 050100Z 31004KT 4000 FU NSC 21/16 Q1004 NOSIG RH73,OPST,2024-05-05T01:00:00Z,32.536,74.364,21,16,310,4,,2.49,29.65,,,,,,TRUE,,,,FU,CLR,,,,,,,,IFR,,,,,,,,,,,,METAR,234
OPPS 050100Z 23004KT 8000 HZ FEW100 FEW20019/15 Q1008,OPPS,2024-05-05T01:00:00Z,33.996,71.515,19,15,230,4,,4.97,29.76,,,,,,,,,,HZ,FEW,10000,,,,,,,MVFR,,,,,,,,,,,,METAR,356
OPMT 050100Z 00000KT 4000 FU NSC 23/16 Q1004 NOSIG,OPMT,2024-05-05T01:00:00Z,30.203,71.419,23,16,0,0,,2.49,29.65,,,,,,TRUE,,,,FU,CLR,,,,,,,,IFR,,,,,,,,,,,,METAR,122
OPKC 050100Z 25008KT 6000 FEW030 SCT100 27/22 Q1006 NOSIG,OPKC,2024-05-05T01:00:00Z,24.902,67.139,27,22,250,8,,3.73,29.70,,,,,,TRUE,,,,,FEW,3000,SCT,10000,,,,,MVFR,,,,,,,,,,,,METAR,20
OPIS 050100Z 31010KT 7000 NSC 20/12 Q1007 NOSIG,OPIS,2024-05-05T01:00:00Z,33.551,72.827,20,12,310,10,,4.35,29.73,,,,,,TRUE,,,,,CLR,,,,,,,,MVFR,,,,,,,,,,,,METAR,542
OMSJ 050100Z 12003KT CAVOK 25/21 Q1006 NOSIG,OMSJ,2024-05-05T01:00:00Z,25.329,55.517,25,21,120,3,,6+,29.70,,,,,,TRUE,,,,,CAVOK,,,,,,,,VFR,,,,,,,,,,,,METAR,33
OMRK 050100Z 33003KT CAVOK 23/21 Q1007 A2975,OMRK,2024-05-05T01:00:00Z,25.613,55.939,23,21,330,3,,6+,29.73,,,,,,,,,,,CAVOK,,,,,,,,VFR,,,,,,,,,,,,METAR,18
OMFJ 050100Z 24005KT CAVOK 29/17 Q1006 A2973,OMFJ,2024-05-05T01:00:00Z,25.112,56.324,29,17,240,5,,6+,29.70,,,,,,,,,,,CAVOK,,,,,,,,VFR,,,,,,,,,,,,METAR,27
OMDW 050100Z 15007KT CAVOK 29/20 Q1007 NOSIG,OMDW,2024-05-05T01:00:00Z,24.897,55.161,29,20,150,7,,6+,29.73,,,,,,TRUE,,,,,CAVOK,,,,,,,,VFR,,,,,,,,,,,,METAR,34
OMDB 050100Z VRB01KT CAVOK 30/19 Q1006 NOSIG,OMDB,2024-05-05T01:00:00Z,25.254,55.366,30,19,VRB,1,,6+,29.70,,,,,,TRUE,,,,,CAVOK,,,,,,,,VFR,,,,,,,,,,,,METAR,5
OMAL 050100Z 07004KT CAVOK 27/19 Q1009 NOSIG,OMAL,2024-05-05T01:00:00Z,24.262,55.609,27,19,70,4,,6+,29.79,,,,,,TRUE,,,,,CAVOK,,,,,,,,VFR,,,,,,,,,,,,METAR,247
OMAD 050100Z 13004KT CAVOK 29/18 Q1006 NOSIG,OMAD,2024-05-05T01:00:00Z,24.428,54.458,29,18,130,4,,6+,29.70,,,,,,TRUE,,,,,CAVOK,,,,,,,,VFR,,,,,,,,,,,,METAR,9
OMAA 050100Z 13006KT CAVOK 29/19 Q1006 NOSIG,OMAA,2024-05-05T01:00:00Z,24.433,54.651,29,19,130,6,,6+,29.70,,,,,,TRUE,,,,,CAVOK,,,,,,,,VFR,,,,,,,,,,,,METAR,13
OLBA 050100Z 16007KT 8000 BKN035 19/11 Q1011 NOSIG,OLBA,2024-05-05T01:00:00Z,33.82,35.491,19,11,160,7,,4.97,29.85,,,,,,TRUE,,,,,BKN,3500,,,,,,,MVFR,,,,,,,,,,,,METAR,29
OKKK 050100Z 16005KT 8000 NSC 22/19 Q1008 NOSIG,OKKK,2024-05-05T01:00:00Z,29.227,47.969,22,19,160,5,,4.97,29.76,,,,,,TRUE,,,,,CLR,,,,,,,,MVFR,,,,,,,,,,,,METAR,55
OJAQ 050100Z 35004KT CAVOK 25/04 Q1009 NOSIG,OJAQ,2024-05-05T01:00:00Z,29.612,35.018,25,4,350,4,,6+,29.79,,,,,,TRUE,,,,,CAVOK,,,,,,,,VFR,,,,,,,,,,,,METAR,45
OJAM 050100Z 24010KT 7000 NSC 15/09 Q1011 NOSIG,OJAM,2024-05-05T01:00:00Z,31.973,35.992,15,9,240,10,,4.35,29.85,,,,,,TRUE,,,,,CLR,,,,,,,,MVFR,,,,,,,,,,,,METAR,765
OJAI 050100Z 26007KT 5000 HZ NSC 15/04 Q1013 NOSIG,OJAI,2024-05-05T01:00:00Z,31.723,35.993,15,4,260,7,,3.11,29.91,,,,,,TRUE,,,,HZ,CLR,,,,,,,,MVFR,,,,,,,,,,,,METAR,723
OIZH 050100Z 25012KT CAVOK 20/11 Q1013 A2994,OIZH,2024-05-05T01:00:00Z,29.472,60.901,20,11,250,12,,6+,29.91,,,,,,,,,,,CAVOK,,,,,,,,VFR,,,,,,,,,,,,METAR,1378
OIZC 050100Z 25004KT 4000 BR NSC 25/24 Q1005 A2970,OIZC,2024-05-05T01:00:00Z,25.445,60.383,25,24,250,4,,2.49,29.68,,,,,,,,,,BR,CLR,,,,,,,,IFR,,,,,,,,,,,,METAR,13
OIYY 050100Z 22002KT CAVOK 17/06 Q1014,OIYY,2024-05-05T01:00:00Z,31.905,54.276,17,6,220,2,,6+,29.94,,,,,,,,,,,CAVOK,,,,,,,,VFR,,,,,,,,,,,,METAR,1226
OITT 050100Z 33006KT 9999 FEW030CB SCT080 09/05 Q1011 A2987,OITT,2024-05-05T01:00:00Z,38.13,46.24,9,5,330,6,,6+,29.85,,,,,,,,,,,FEW,3000,SCT,8000,,,,,VFR,,,,,,,,,,,,METAR,1353
OITR 050100Z 23006KT 9999 FEW035CB SCT040 10/05 Q1009 A2982,OITR,2024-05-05T01:00:00Z,37.665,45.066,10,5,230,6,,6+,29.79,,,,,,,,,,,FEW,3500,SCT,4000,,,,,VFR,,,,,,,,,,,,METAR,1312
OITP 050100Z 28006KT 9999 BKN040 14/13 Q1004,OITP,2024-05-05T01:00:00Z,39.604,47.882,14,13,280,6,,6+,29.65,,,,,,,,,,,BKN,4000,,,,,,,VFR,,,,,,,,,,,,METAR,72
OITL 050100Z 23008KT 9999 FEW040 04/04 Q1008,OITL,2024-05-05T01:00:00Z,38.326,48.424,4,4,230,8,,6+,29.76,,,,,,,,,,,FEW,4000,,,,,,,VFR,,,,,,,,,,,,METAR,1314
OITK 050100Z 26002KT 8000 FEW040 SCT090 11/05 Q1008 A2978,OITK,2024-05-05T01:00:00Z,38.425,44.975,11,5,260,2,,4.97,29.76,,,,,,,,,,,FEW,4000,SCT,9000,,,,,MVFR,,,,,,,,,,,,METAR,1192
OISY 050100Z 00000KT CAVOK 09/09 Q1020,OISY,2024-05-05T01:00:00Z,30.701,51.545,9,9,0,0,,6+,30.12,,,,,,,,,,,CAVOK,,,,,,,,VFR,,,,,,,,,,,,METAR,1800
OISS 050100Z 32004KT 5000 BR FEW035 11/11 Q1017 A3003,OISS,2024-05-05T01:00:00Z,29.539,52.59,11,11,320,4,,3.11,30.03,,,,,,,,,,BR,FEW,3500,,,,,,,MVFR,,,,,,,,,,,,METAR,1484
OISL 050100Z 00000KT CAVOK 17/16 Q1011 A2988,OISL,2024-05-05T01:00:00Z,27.67,54.375,17,16,0,0,,6+,29.85,,,,,,,,,,,CAVOK,,,,,,,,VFR,,,,,,,,,,,,METAR,804
OISF 050100Z 00000KT 5000 BR NSC 13/13 Q1016 A3002,OISF,2024-05-05T01:00:00Z,28.895,53.72,13,13,0,0,,3.11,30.00,,,,,,,,,,BR,CLR,,,,,,,,MVFR,,,,,,,,,,,,METAR,1305
OINR 050100Z 18004KT CAVOK 15/14 Q1004,OINR,2024-05-05T01:00:00Z,36.91,50.68,15,14,180,4,,6+,29.65,,,,,,,,,,,CAVOK,,,,,,,,VFR,,,,,,,,,,,,METAR,-19
OINN 050100Z 15004KT 9999 FEW023CB BKN027 16/14 Q1005,OINN,2024-05-05T01:00:00Z,36.663,51.465,16,14,150,4,,6+,29.68,,,,,,,,,,,FEW,2300,BKN,2700,,,,,MVFR,,,,,,,,,,,,METAR,-25
OING 050100Z 00000KT 7000 SCT025 BKN090 16/15 Q1009,OING,2024-05-05T01:00:00Z,36.908,54.404,16,15,0,0,,4.35,29.79,,,,,,,,,,,SCT,2500,BKN,9000,,,,,MVFR,,,,,,,,,,,,METAR,
OIMN 050100Z 32004KT 3000 BR BKN006 09/09 Q1011,OIMN,2024-05-05T01:00:00Z,37.488,57.303,9,9,320,4,,1.86,29.85,,,,,,,,,,BR,BKN,600,,,,,,,IFR,,,,,,,,,,,,METAR,1065
OIMM 050100Z 36004KT CAVOK 12/10 Q1011 A2986,OIMM,2024-05-05T01:00:00Z,36.236,59.639,12,10,360,4,,6+,29.85,,,,,,,,,,,CAVOK,,,,,,,,VFR,,,,,,,,,,,,METAR,995
OIMB 050100Z 09006KT 9999 SCT035 13/09 Q1013 A2992,OIMB,2024-05-05T01:00:00Z,32.894,59.29,13,9,90,6,,6+,29.91,,,,,,,,,,,SCT,3500,,,,,,,VFR,,,,,,,,,,,,METAR,1512
OIKQ 050100Z 00000KT CAVOK 25/22 Q1006,OIKQ,2024-05-05T01:00:00Z,26.755,55.902,25,22,0,0,,6+,29.70,,,,,,,,,,,CAVOK,,,,,,,,VFR,,,,,,,,,,,,METAR,9
OIKK 050100Z 15006KT CAVOK 11/06 Q1019 A3009,OIKK,2024-05-05T01:00:00Z,30.251,56.964,11,6,150,6,,6+,30.09,,,,,,,,,,,CAVOK,,,,,,,,VFR,,,,,,,,,,,,METAR,1749
OIKB 050100Z 36004KT 6000 NSC 25/22 Q1007 A2974,OIKB,2024-05-05T01:00:00Z,27.218,56.378,25,22,360,4,,3.73,29.73,,,,,,,,,,,CLR,,,,,,,,MVFR,,,,,,,,,,,,METAR,6
OIIP 050100Z 26006KT CAVOK 11/06 Q1011 A2988,OIIP,2024-05-05T01:00:00Z,35.776,50.827,11,6,260,6,,6+,29.85,,,,,,,,,,,CAVOK,,,,,,,,VFR,,,,,,,,,,,,METAR,1270
OIIK 050100Z 07004KT 9999 FEW040 09/06 Q1013,OIIK,2024-05-05T01:00:00Z,36.243,50.045,9,6,70,4,,6+,29.91,,,,,,,,,,,FEW,4000,,,,,,,VFR,,,,,,,,,,,,METAR,1278
OIII 050100Z 27008KT CAVOK 15/04 Q1011 A2988 NOSIG,OIII,2024-05-05T01:00:00Z,35.686,51.304,15,4,270,8,,6+,29.85,,,,,,TRUE,,,,,CAVOK,,,,,,,,VFR,,,,,,,,,,,,METAR,1182
OIIE 050100Z 26010KT CAVOK 15/06 Q1011,OIIE,2024-05-05T01:00:00Z,35.416,51.152,15,6,260,10,,6+,29.85,,,,,,,,,,,CAVOK,,,,,,,,VFR,,,,,,,,,,,,METAR,993
OIHH 050100Z 06006KT 9999 FEW040 08/05 Q1014 A2997,OIHH,2024-05-05T01:00:00Z,34.869,48.553,8,5,60,6,,6+,29.94,,,,,,,,,,,FEW,4000,,,,,,,VFR,,,,,,,,,,,,METAR,1742
OIFS 050100Z 29006KT 9999 FEW040 05/01 Q1019,OIFS,2024-05-05T01:00:00Z,32.297,50.842,5,1,290,6,,6+,30.09,,,,,,,,,,,FEW,4000,,,,,,,VFR,,,,,,,,,,,,METAR,2042
OIFM 050100Z 22010KT CAVOK 10/03 Q1016 A3002,OIFM,2024-05-05T01:00:00Z,32.752,51.866,10,3,220,10,,6+,30.00,,,,,,,,,,,CAVOK,,,,,,,,VFR,,,,,,,,,,,,METAR,1539
OICS 050100Z 00000KT 8000 FEW040 07/05 Q1014 A2996,OICS,2024-05-05T01:00:00Z,35.245,47.009,7,5,0,0,,4.97,29.94,,,,,,,,,,,FEW,4000,,,,,,,MVFR,,,,,,,,,,,,METAR,1369
OICK 050100Z 04004KT 9999 FEW090 12/10 Q1014 A2997,OICK,2024-05-05T01:00:00Z,33.435,48.283,12,10,40,4,,6+,29.94,,,,,,,,,,,FEW,9000,,,,,,,VFR,,,,,,,,,,,,METAR,1156
OICI 050100Z 11004KT 9999 FEW030CB SCT040 14/12 Q1016 A3000,OICI,2024-05-05T01:00:00Z,33.588,46.397,14,12,110,4,,6+,30.00,,,,,,,,,,,FEW,3000,SCT,4000,,,,,VFR,,,,,,,,,,,,METAR,1323
OICC 050100Z 30004KT 9999 SCT060 12/10 Q1014 A2996,OICC,2024-05-05T01:00:00Z,34.346,47.158,12,10,300,4,,6+,29.94,,,,,,,,,,,SCT,6000,,,,,,,VFR,,,,,,,,,,,,METAR,1310
OIBQ 050100Z 19004KT 8000 NSC 24/23 Q1008 A2979,OIBQ,2024-05-05T01:00:00Z,29.259,50.324,24,23,190,4,,4.97,29.76,,,,,,,,,,,CLR,,,,,,,,MVFR,,,,,,,,,,,,METAR,3
OIBP 050100Z 00000KT CAVOK 23/22 Q1006 A2973,OIBP,2024-05-05T01:00:00Z,27.38,52.738,23,22,0,0,,6+,29.70,,,,,,,,,,,CAVOK,,,,,,,,VFR,,,,,,,,,,,,METAR,13
OIBK 050100Z 33004KT CAVOK 24/21 Q1007,OIBK,2024-05-05T01:00:00Z,26.526,53.98,24,21,330,4,,6+,29.73,,,,,,,,,,,CAVOK,,,,,,,,VFR,,,,,,,,,,,,METAR,27
OIBB 050100Z 07006KT 8000 NSC 25/21 Q1007 A2976,OIBB,2024-05-05T01:00:00Z,28.947,50.834,25,21,70,6,,4.97,29.73,,,,,,,,,,,CLR,,,,,,,,MVFR,,,,,,,,,,,,METAR,15
OIAW 050100Z 08002KT 5000 BR NSC 22/20 Q1008,OIAW,2024-05-05T01:00:00Z,31.343,48.751,22,20,80,2,,3.11,29.76,,,,,,,,,,BR,CLR,,,,,,,,MVFR,,,,,,,,,,,,METAR,25
OIAM 050100Z 00000KT 6000 NSC 23/22 Q1008,OIAM,2024-05-05T01:00:00Z,30.556,49.152,23,22,0,0,,3.73,29.76,,,,,,,,,,,CLR,,,,,,,,MVFR,,,,,,,,,,,,METAR,7
OIAH 050100Z 00000KT CAVOK 17/16 Q1013,OIAH,2024-05-05T01:00:00Z,30.336,50.83,17,16,0,0,,6+,29.91,,,,,,,,,,,CAVOK,,,,,,,,VFR,,,,,,,,,,,,METAR,730
OIAA 050100Z 17004KT 7000 NSC 23/21 Q1008,OIAA,2024-05-05T01:00:00Z,30.366,48.23,23,21,170,4,,4.35,29.76,,,,,,,,,,,CLR,,,,,,,,MVFR,,,,,,,,,,,,METAR,4
OEYN 050100Z 26010KT CAVOK 25/17 Q1004 NOSIG,OEYN,2024-05-05T01:00:00Z,24.144,38.063,25,17,260,10,,6+,29.65,,,,,,TRUE,,,,,CAVOK,,,,,,,,VFR,,,,,,,,,,,,METAR,20
OEWJ 050100Z 29006KT CAVOK 25/19 Q1007 NOSIG,OEWJ,2024-05-05T01:00:00Z,26.199,36.476,25,19,290,6,,6+,29.73,,,,,,TRUE,,,,,CAVOK,,,,,,,,VFR,,,,,,,,,,,,METAR,8
OEWD 050100Z 11010KT 9999 SCT030 27/17 Q1009,OEWD,2024-05-05T01:00:00Z,20.504,45.197,27,17,110,10,,6+,29.79,,,,,,,,,,,SCT,3000,,,,,,,VFR,,,,,,,,,,,,METAR,629
OETR 050100Z 29008KT CAVOK 17/M01 Q1011 NOSIG,OETR,2024-05-05T01:00:00Z,31.693,38.731,17,-1,290,8,,6+,29.85,,,,,,TRUE,,,,,CAVOK,,,,,,,,VFR,,,,,,,,,,,,METAR,854
OETF 050100Z 21006KT CAVOK 19/11 Q1017 NOSIG,OETF,2024-05-05T01:00:00Z,21.483,40.544,19,11,210,6,,6+,30.03,,,,,,TRUE,,,,,CAVOK,,,,,,,,VFR,,,,,,,,,,,,METAR,1460
OETB 050100Z 32004KT CAVOK 21/M02 Q1011 NOSIG,OETB,2024-05-05T01:00:00Z,28.366,36.619,21,-2,320,4,,6+,29.85,,,,,,TRUE,,,,,CAVOK,,,,,,,,VFR,,,,,,,,,,,,METAR,770
OESK 050100Z 33005KT CAVOK 20/M02 Q1013 NOSIG,OESK,2024-05-05T01:00:00Z,29.785,40.1,20,-2,330,5,,6+,29.91,,,,,,TRUE,,,,,CAVOK,,,,,,,,VFR,,,,,,,,,,,,METAR,671
OESH 050100Z 09006KT 7000 VCTS FEW035CB SCT040 29/17 Q1009 NOSIG,OESH,2024-05-05T01:00:00Z,17.467,47.121,29,17,90,6,,4.35,29.79,,,,,,TRUE,,,,VCTS,FEW,3500,SCT,4000,,,,,MVFR,,,,,,,,,,,,METAR,720
OERR 050100Z 32006KT CAVOK 20/00 Q1009 NOSIG,OERR,2024-05-05T01:00:00Z,30.907,41.138,20,0,320,6,,6+,29.79,,,,,,TRUE,,,,,CAVOK,,,,,,,,VFR,,,,,,,,,,,,METAR,554
OERK 050100Z 12006KT CAVOK 24/07 Q1013 NOSIG,OERK,2024-05-05T01:00:00Z,24.945,46.702,24,7,120,6,,6+,29.91,,,,,,TRUE,,,,,CAVOK,,,,,,,,VFR,,,,,,,,,,,,METAR,618
OERF 050100Z 21004KT CAVOK 18/02 Q1010 NOSIG,OERF,2024-05-05T01:00:00Z,29.626,43.491,18,2,210,4,,6+,29.82,,,,,,TRUE,,,,,CAVOK,,,,,,,,VFR,,,,,,,,,,,,METAR,441
OEPA 050100Z 18006KT CAVOK 24/11 Q1010 NOSIG,OEPA,2024-05-05T01:00:00Z,28.335,46.125,24,11,180,6,,6+,29.82,,,,,,TRUE,,,,,CAVOK,,,,,,,,VFR,,,,,,,,,,,,METAR,361
OENG 050100Z 06004KT 9999 SCT030 25/15 Q1014 NOSIG,OENG,2024-05-05T01:00:00Z,17.611,44.419,25,15,60,4,,6+,29.94,,,,,,TRUE,,,,,SCT,3000,,,,,,,VFR,,,,,,,,,,,,METAR,1210
OEMN 050100Z 00000KT CAVOK 27/17 Q1011,OEMN,2024-05-05T01:00:00Z,-99.99,-99.99,27,17,0,0,,6+,29.85,,,,,,,,,,,CAVOK,,,,,,,,VFR,,,,,,,,,,,,METAR,9999
OEMA 050100Z 27004KT CAVOK 29/04 Q1010 NOSIG,OEMA,2024-05-05T01:00:00Z,24.553,39.705,29,4,270,4,,6+,29.82,,,,,,TRUE,,,,,CAVOK,,,,,,,,VFR,,,,,,,,,,,,METAR,639
OEKM 050100Z 00000KT CAVOK 16/12 Q1021 NOSIG,OEKM,2024-05-05T01:00:00Z,18.301,42.798,16,12,0,0,,6+,30.15,,,,,,TRUE,,,,,CAVOK,,,,,,,,VFR,,,,,,,,,,,,METAR,2038
OEKJ 050100Z 08011KT 9000 NSC 24/12 Q1012,OEKJ,2024-05-05T01:00:00Z,24.07,47.58,24,12,80,11,,5.59,29.88,,,,,,,,,,,CLR,,,,,,,,VFR,,,,,,,,,,,,METAR,487
OEJN 050100Z 00000KT CAVOK 26/21 Q1006 NOSIG,OEJN,2024-05-05T01:00:00Z,21.685,39.166,26,21,0,0,,6+,29.70,,,,,,TRUE,,,,,CAVOK,,,,,,,,VFR,,,,,,,,,,,,METAR,8
OEHL 050100Z 00000KT CAVOK 19/02 Q1013,OEHL,2024-05-05T01:00:00Z,27.438,41.686,19,2,0,0,,6+,29.91,,,,,,,,,,,CAVOK,,,,,,,,VFR,,,,,,,,,,,,METAR,1002
OEGT 050100Z 26004KT CAVOK 18/01 Q1010 NOSIG,OEGT,2024-05-05T01:00:00Z,31.412,37.279,18,1,260,4,,6+,29.82,,,,,,TRUE,,,,,CAVOK,,,,,,,,VFR,,,,,,,,,,,,METAR,512
OEGS 050100Z 03006KT CAVOK 22/05 Q1009,OEGS,2024-05-05T01:00:00Z,26.303,43.774,22,5,30,6,,6+,29.79,,,,,,,,,,,CAVOK,,,,,,,,VFR,,,,,,,,,,,,METAR,647
OEGN 050100Z 00000KT CAVOK 30/22 Q1006 NOSIG,OEGN,2024-05-05T01:00:00Z,16.901,42.586,30,22,0,0,,6+,29.70,,,,,,TRUE,,,,,CAVOK,,,,,,,,VFR,,,,,,,,,,,,METAR,5
OEDR 050100Z VRB03KT 7000 NSC 24/23 Q1007,OEDR,2024-05-05T01:00:00Z,26.265,50.152,24,23,VRB,3,,4.35,29.73,,,,,,,,,,,CLR,,,,,,,,MVFR,,,,,,,,,,,,METAR,17
OEDM 050100Z 06012KT CAVOK 23/02 Q1011,OEDM,2024-05-05T01:00:00Z,24.45,44.121,23,2,60,12,,6+,29.85,,,,,,,,,,,CAVOK,,,,,,,,VFR,,,,,,,,,,,,METAR,922
OEDF 050100Z 36005KT 4000 BR NSC 23/23 Q1008 TEMPO 3000,OEDF,2024-05-05T01:00:00Z,26.45,49.817,23,23,360,5,,2.49,29.76,,,,,,,,,,BR,CLR,,,,,,,,IFR,,,,,,,,,,,,METAR,15
OEBH 050100Z 00000KT CAVOK 21/06 Q1013 NOSIG,OEBH,2024-05-05T01:00:00Z,19.984,42.621,21,6,0,0,,6+,29.91,,,,,,TRUE,,,,,CAVOK,,,,,,,,VFR,,,,,,,,,,,,METAR,1167
OEBA 050100Z 23006KT CAVOK 19/05 Q1017 NOSIG,OEBA,2024-05-05T01:00:00Z,20.296,41.634,19,5,230,6,,6+,30.03,,,,,,TRUE,,,,,CAVOK,,,,,,,,VFR,,,,,,,,,,,,METAR,1659
OEAO 050100Z 22002KT CAVOK 25/02 Q1010 NOSIG,OEAO,2024-05-05T01:00:00Z,26.483,38.117,25,2,220,2,,6+,29.82,,,,,,TRUE,,,,,CAVOK,,,,,,,,VFR,,,,,,,,,,,,METAR,615
OEAH 050100Z 33003KT CAVOK 23/19 Q1008 NOSIG,OEAH,2024-05-05T01:00:00Z,25.285,49.485,23,19,330,3,,6+,29.76,,,,,,TRUE,,,,,CAVOK,,,,,,,,VFR,,,,,,,,,,,,METAR,180
OEAB 050100Z 00000KT CAVOK 13/09 Q1021 NOSIG,OEAB,2024-05-05T01:00:00Z,18.24,42.657,13,9,0,0,,6+,30.15,,,,,,TRUE,,,,,CAVOK,,,,,,,,VFR,,,,,,,,,,,,METAR,2092
OBBI 050100Z 09004KT 7000 FEW006 25/24 Q1008 NOSIG,OBBI,2024-05-05T01:00:00Z,26.271,50.634,25,24,90,4,,4.35,29.76,,,,,,TRUE,,,,,FEW,600,,,,,,,MVFR,,,,,,,,,,,,METAR,6
NZWN 050100Z AUTO 36015KT 9999 FEW027/// 16/10 Q1021,NZWN,2024-05-05T01:00:00Z,-41.331,174.806,16,10,360,15,,6+,30.15,,,TRUE,,,,,,,,FEW,2700,,,,,,,VFR,,,,,,,,,,,,METAR,12
NZQN 050100Z AUTO 30001KT 9999 NCD 11/03 Q1020,NZQN,2024-05-05T01:00:00Z,-45.021,168.739,11,3,300,1,,6+,30.12,,,TRUE,,,,,,,,CLR,,,,,,,,VFR,,,,,,,,,,,,METAR,356
NZCH 050100Z AUTO 05009KT 020V080 9999 NCD 15/09 Q1020,NZCH,2024-05-05T01:00:00Z,-43.489,172.528,15,9,50,9,,6+,30.12,,,TRUE,,,,,,,,CLR,,,,,,,,VFR,,,,,,,,,,,,METAR,36
NZAA 050100Z AUTO 01007KT 340V060 9999 BKN038/// 19/10 Q1022,NZAA,2024-05-05T01:00:00Z,-37.008,174.792,19,10,10,7,,6+,30.18,,,TRUE,,,,,,,,BKN,3800,,,,,,,VFR,,,,,,,,,,,,METAR,7
NWWW 050100Z AUTO 14011KT 100V170 9999 FEW043 27/17 Q1013 NOSIG,NWWW,2024-05-05T01:00:00Z,-22.015,166.213,27,17,140,11,,6+,29.91,,,TRUE,,,TRUE,,,,,FEW,4300,,,,,,,VFR,,,,,,,,,,,,METAR,16
NVVV 050100Z 13012KT 9999 BKN020 OVC040 26/22 Q1010,NVVV,2024-05-05T01:00:00Z,-17.695,168.313,26,22,130,12,,6+,29.82,,,,,,,,,,,BKN,2000,OVC,4000,,,,,MVFR,,,,,,,,,,,,METAR,23
NVSS 050100Z 15007KT 9999 FEW020 BKN040 27/25 Q1008,NVSS,2024-05-05T01:00:00Z,-15.505,167.22,27,25,150,7,,6+,29.76,,,,,,,,,,,FEW,2000,BKN,4000,,,,,VFR,,,,,,,,,,,,METAR,47
NTAA 050100Z 20005KT 160V220 9999 FEW026 SCT033 30/24 Q1010 WS R22 NOSIG,NTAA,2024-05-05T01:00:00Z,-17.554,-149.607,30,24,200,5,,6+,29.82,,,,,,TRUE,,,,,FEW,2600,SCT,3300,,,,,VFR,,,,,,,,,,,,METAR,2
NSFA 050100Z 06009KT 9999 SCT018 BKN035 OVC120 28/25 Q1005,NSFA,2024-05-05T01:00:00Z,-13.829,-171.993,28,25,60,9,,6+,29.68,,,,,,,,,,,SCT,1800,BKN,3500,OVC,12000,,,VFR,,,,,,,,,,,,METAR,6
NIUE 050100Z AUTO 01009KT 330V060 9999 NCD 31/25 Q1008,NIUE,2024-05-05T01:00:00Z,-19.079,-169.926,31,25,10,9,,6+,29.76,,,TRUE,,,,,,,,CLR,,,,,,,,VFR,,,,,,,,,,,,METAR,22
NGTA 050100Z 12009KT 9999 FEW020 32/26 Q1005,NGTA,2024-05-05T01:00:00Z,1.381,173.147,32,26,120,9,,6+,29.68,,,,,,,,,,,FEW,2000,,,,,,,VFR,,,,,,,,,,,,METAR,8
NGFU 050100Z VRB02KT 9999 -SHRA FEW016CB FEW018TCU OVC110 28/27 Q1006,NGFU,2024-05-05T01:00:00Z,-8.523,179.198,28,27,VRB,2,,6+,29.70,,,,,,,,,,-SHRA,FEW,1600,FEW,1800,OVC,11000,,,VFR,,,,,,,,,,,,METAR,2
NFTV 050100Z 09007KT 9999 FEW017TCU SCT300 29/26 Q1007,NFTV,2024-05-05T01:00:00Z,-18.585,-173.963,29,26,90,7,,6+,29.73,,,,,,,,,,,FEW,1700,SCT,30000,,,,,VFR,,,,,,,,,,,,METAR,71
NFTF 050100Z 12009KT 9999 FEW009 BKN017TCU OVC100 25/23 Q1009,NFTF,2024-05-05T01:00:00Z,-21.241,-175.15,25,23,120,9,,6+,29.79,,,,,,,,,,,FEW,900,BKN,1700,OVC,10000,,,MVFR,,,,,,,,,,,,METAR,38
NFNS 050100Z 13013KT 9999 -SHRA SCT015 BKN042 BKN110 27/26 Q1006,NFNS,2024-05-05T01:00:00Z,-16.803,179.341,27,26,130,13,,6+,29.70,,,,,,,,,,-SHRA,SCT,1500,BKN,4200,BKN,11000,,,VFR,,,,,,,,,,,,METAR,4
NFNM 050100Z 14007KT 9999 VCSH SCT018TCU BKN300 29/27 Q1005,NFNM,2024-05-05T01:00:00Z,-16.691,-179.877,29,27,140,7,,6+,29.68,,,,,,,,,,VCSH,SCT,1800,BKN,30000,,,,,VFR,,,,,,,,,,,,METAR,21
NFNL 050100Z 35008KT 9999 -RA SCT024TCU SCT045 BKN110 29/27 Q1006,NFNL,2024-05-05T01:00:00Z,-16.467,179.339,29,27,350,8,,6+,29.70,,,,,,,,,,-RA,SCT,2400,SCT,4500,BKN,11000,,,VFR,,,,,,,,,,,,METAR,17
NFNA 050100Z 14009KT 9999 SCT018 BKN045 28/25 Q1007,NFNA,2024-05-05T01:00:00Z,-18.043,178.559,28,25,140,9,,6+,29.73,,,,,,,,,,,SCT,1800,BKN,4500,,,,,VFR,,,,,,,,,,,,METAR,6
NFFN 050100Z 14009KT 9999 SCT026TCU SCT048 BKN110 31/24 Q1007 NOSIG,NFFN,2024-05-05T01:00:00Z,-17.755,177.443,31,24,140,9,,6+,29.73,,,,,,TRUE,,,,,SCT,2600,SCT,4800,BKN,11000,,,VFR,,,,,,,,,,,,METAR,14
NCSW 050100Z AUTO NIL,NCSW,2024-05-05T01:00:00Z,-99.99,-99.99,,,,,,,0.00,,,TRUE,,,,,,,,,,,,,,,,,,,,,,,,,,,,METAR,9999
NCRK 050100Z AUTO NIL,NCRK,2024-05-05T01:00:00Z,-10.032,-161.101,,,,,,,0.00,,,TRUE,,,,,,,,,,,,,,,,,,,,,,,,,,,,METAR,7
NCRG 050100Z AUTO 03006KT 340V080 9999 SCT017/// BKN024/// BKN031/// 29/25 Q1011,NCRG,2024-05-05T01:00:00Z,-21.203,-159.806,29,25,30,6,,6+,29.85,,,TRUE,,,,,,,,SCT,1700,BKN,2400,BKN,3100,,,MVFR,,,,,,,,,,,,METAR,7
NCPY 050100Z AUTO 06015KT //// ////// 29/26 Q1006,NCPY,2024-05-05T01:00:00Z,-9.01,-158.034,29,26,60,15,,,29.70,,,TRUE,,,,,,,,,,,,,,,,,,,,,,,,,,,,METAR,2
NCPL 050100Z AUTO NIL,NCPL,2024-05-05T01:00:00Z,1.98,-157.48,,,,,,,0.00,,,TRUE,,,,,,,,,,,,,,,,,,,,,,,,,,,,METAR,3
NCPK 050100Z AUTO NIL,NCPK,2024-05-05T01:00:00Z,-10.915,-165.839,,,,,,,0.00,,,TRUE,,,,,,,,,,,,,,,,,,,,,,,,,,,,METAR,5
NCNS 050100Z AUTO NIL,NCNS,2024-05-05T01:00:00Z,-99.99,-99.99,,,,,,,0.00,,,TRUE,,,,,,,,,,,,,,,,,,,,,,,,,,,,METAR,9999
NCMR 050100Z AUTO 05009KT //// ////// 30/25 Q1010,NCMR,2024-05-05T01:00:00Z,-19.842,-157.703,30,25,50,9,,,29.82,,,TRUE,,,,,,,,,,,,,,,,,,,,,,,,,,,,METAR,8
NCMK 050100Z AUTO 05006KT //// ////// 29/26 Q1009,NCMK,2024-05-05T01:00:00Z,-20.137,-157.344,29,26,50,6,,,29.79,,,TRUE,,,,,,,,,,,,,,,,,,,,,,,,,,,,METAR,13
NCMH 050100Z AUTO 11002KT //// ////// 26/25 Q1008,NCMH,2024-05-05T01:00:00Z,-10.374,-161.004,26,25,110,2,,,29.76,,,TRUE,,,,,,,,,,,,,,,,,,,,,,,,,,,,METAR,1
NCMG 050100Z AUTO 01005KT //// ////// ///// Q////,NCMG,2024-05-05T01:00:00Z,-21.896,-157.907,,,10,5,,,0.00,,,TRUE,,,,,,,,,,,,,,,,,,,,,,,,,,,,METAR,14
NCAT 050100Z AUTO NIL,NCAT,2024-05-05T01:00:00Z,-19.968,-158.119,,,,,,,0.00,,,TRUE,,,,,,,,,,,,,,,,,,,,,,,,,,,,METAR,11
NCAI 050100Z AUTO 06006KT //// ////// 30/25 Q1009,NCAI,2024-05-05T01:00:00Z,-18.829,-159.766,30,25,60,6,,,29.79,,,TRUE,,,,,,,,,,,,,,,,,,,,,,,,,,,,METAR,7
MYSM 050100Z AUTO 09012KT 9999 FEW019/// 24/21 A3002,MYSM,2024-05-05T01:00:00Z,24.064,-74.529,24,21,90,12,,6+,30.02,,,TRUE,,,,,,,,FEW,1900,,,,,,,VFR,,,,,,,,,,,,METAR,5
MYNN 050100Z 10008KT 9999 FEW025 24/20 A3004,MYNN,2024-05-05T01:00:00Z,25.04,-77.467,24,20,100,8,,6+,30.04,,,,,,,,,,,FEW,2500,,,,,,,VFR,,,,,,,,,,,,METAR,5
MYIG 050100Z AUTO 08013KT 9999 -SHRA SCT015/// BKN032/// BKN074/// 25/23 A2996,MYIG,2024-05-05T01:00:00Z,20.975,-73.674,25,23,80,13,,6+,29.96,,,TRUE,,,,,,,-SHRA,SCT,1500,BKN,3200,BKN,7400,,,VFR,,,,,,,,,,,,METAR,2
MYGF 050100Z AUTO 12012KT //// R06///// // SCT025/// 25/20 A3003,MYGF,2024-05-05T01:00:00Z,26.555,-78.698,25,20,120,12,,,30.03,,,TRUE,,,,,,,,SCT,2500,,,,,,,,,,,,,,,,,,,METAR,2
MYEM 050100Z AUTO 07011KT 9999 FEW024 24/20 Q1017 A3003,MYEM,2024-05-05T01:00:00Z,25.285,-76.331,24,20,70,11,,6+,30.03,,,TRUE,,,,,,,,FEW,2400,,,,,,,VFR,,,,,,,,,,,,METAR,8
MWCR 050100Z 06008KT 9999 FEW016 27/25 Q1012,MWCR,2024-05-05T01:00:00Z,19.294,-81.357,27,25,60,8,,6+,29.88,,,,,,,,,,,FEW,1600,,,,,,,VFR,,,,,,,,,,,,METAR,4
MWCB 050100Z 06003KT 9999 FEW018 28/22 Q1013,MWCB,2024-05-05T01:00:00Z,19.688,-79.879,28,22,60,3,,6+,29.91,,,,,,,,,,,FEW,1800,,,,,,,VFR,,,,,,,,,,,,METAR,7
MSLP 050100Z 23003KT 9999 FEW022 FEW037CB BKN050 29/27 Q1007 A2976 NOSIG RMK CB NE,MSLP,2024-05-05T01:00:00Z,13.438,-89.056,29,27,230,3,,6+,29.73,,,,,,TRUE,,,,,FEW,2200,FEW,3700,BKN,5000,,,VFR,,,,,,,,,,,,METAR,25
MROC 050100Z 25006KT 230V300 6000 2500SW BCFG BKN008 23/22 A3001 NOSIG,MROC,2024-05-05T01:00:00Z,9.991,-84.218,23,22,250,6,,3.73,30.01,,,,,,TRUE,,,,BCFG,BKN,800,,,,,,,IFR,,,,,,,,,,,,METAR,900
MRLB 050100Z 01002KT CAVOK 28/26 A2977,MRLB,2024-05-05T01:00:00Z,10.589,-85.552,28,26,10,2,,6+,29.77,,,,,,,,,,,CAVOK,,,,,,,,VFR,,,,,,,,,,,,METAR,79
MPTO 050100Z VRB02KT 9999 FEW020 28/24 Q1010 NOSIG,MPTO,2024-05-05T01:00:00Z,9.056,-79.391,28,24,VRB,2,,6+,29.82,,,,,,TRUE,,,,,FEW,2000,,,,,,,VFR,,,,,,,,,,,,METAR,7
MPPA 050100Z 00000KT 9999 FEW018 26/24 Q1009,MPPA,2024-05-05T01:00:00Z,8.909,-79.597,26,24,0,0,,6+,29.79,,,,,,,,,,,FEW,1800,,,,,,,VFR,,,,,,,,,,,,METAR,1
MPMG 050100Z 28005KT 9999 FEW020 29/23 Q1010 NOSIG,MPMG,2024-05-05T01:00:00Z,8.967,-79.555,29,23,280,5,,6+,29.82,,,,,,TRUE,,,,,FEW,2000,,,,,,,VFR,,,,,,,,,,,,METAR,6
MNMG 050100Z 00000KT 8000 FEW022 SCT300 33/22 Q1007 A2974 FU NOSIG,MNMG,2024-05-05T01:00:00Z,12.141,-86.177,33,22,0,0,,4.97,29.73,,,,,,TRUE,,,,FU,FEW,2200,SCT,30000,,,,,MVFR,,,,,,,,,,,,METAR,59
MKJS 050100Z 02007KT 4000 -TSRA FEW020 BKN022CB BKN040 25/22 Q1012,MKJS,2024-05-05T01:00:00Z,18.502,-77.915,25,22,20,7,,2.49,29.88,,,,,,,,,,-TSRA,FEW,2000,BKN,2200,BKN,4000,,,IFR,,,,,,,,,,,,METAR,3
MKJP 050100Z 05007KT 9999 FEW020 FEW022CB 29/24 Q1011,MKJP,2024-05-05T01:00:00Z,17.942,-76.798,29,24,50,7,,6+,29.85,,,,,,,,,,,FEW,2000,FEW,2200,,,,,VFR,,,,,,,,,,,,METAR,3
MHTG 050100Z 18010KT 8000 4000SW FU FEW030TCU FEW032CB 26/18 Q1015 A2997 NOSIG,MHTG,2024-05-05T01:00:00Z,14.06,-87.216,26,18,180,10,,4.97,29.97,,,,,,TRUE,,,,FU,FEW,3000,FEW,3200,,,,,MVFR,,,,,,,,,,,,METAR,1001
MHTE 050100Z 06003KT 9999 FEW024 29/// Q1007 A2974,MHTE,2024-05-05T01:00:00Z,15.776,-87.473,,,60,3,,6+,29.73,,,,,,,,,,,FEW,2400,,,,,,,VFR,,,,,,,,,,,,METAR,7
MHRO 050100Z 07010KT 9999 FEW022 28/24 Q1010 A2983 NOSIG,MHRO,2024-05-05T01:00:00Z,16.316,-86.523,28,24,70,10,,6+,29.82,,,,,,TRUE,,,,,FEW,2200,,,,,,,VFR,,,,,,,,,,,,METAR,6
MHPR 050100Z 36020KT 7000 3000S FU FEW050 SCT100 29/17 Q1012 A2990 NOSIG,MHPR,2024-05-05T01:00:00Z,14.382,-87.621,29,17,360,20,,4.35,29.88,,,,,,TRUE,,,,FU,FEW,5000,SCT,10000,,,,,MVFR,,,,,,,,,,,,METAR,628
MHLM 050100Z 22009KT 9999 FEW028 29/24 Q1009 A2980 NOSIG,MHLM,2024-05-05T01:00:00Z,15.442,-87.934,29,24,220,9,,6+,29.79,,,,,,TRUE,,,,,FEW,2800,,,,,,,VFR,,,,,,,,,,,,METAR,32
MHLC 050100Z 08005KT 9999 FEW020 28/25 Q1009 A2980 NOSIG,MHLC,2024-05-05T01:00:00Z,15.737,-86.864,28,25,80,5,,6+,29.79,,,,,,TRUE,,,,,FEW,2000,,,,,,,VFR,,,,,,,,,,,,METAR,13
MHCA 050100Z VRB02KT 6000 SCT030 30/19 Q1011,MHCA,2024-05-05T01:00:00Z,14.875,-85.775,30,19,VRB,2,,3.73,29.85,,,,,,,,,,,SCT,3000,,,,,,,MVFR,,,,,,,,,,,,METAR,386
MGPB 050100Z 00000KT CAVOK 26/24 Q1008 A2977,MGPB,2024-05-05T01:00:00Z,15.737,-88.589,26,24,0,0,,6+,29.76,,,,,,,,,,,CAVOK,,,,,,,,VFR,,,,,,,,,,,,METAR,6
MGMM 050100Z 07010KT CAVOK 32/22 Q1009 A2980,MGMM,2024-05-05T01:00:00Z,16.914,-89.866,32,22,70,10,,6+,29.79,,,,,,,,,,,CAVOK,,,,,,,,VFR,,,,,,,,,,,,METAR,105
MGGT 050100Z VRB03KT 6000 FEW020 24/20 Q1018 A3006 HZ,MGGT,2024-05-05T01:00:00Z,14.585,-90.526,24,20,VRB,3,,3.73,30.06,,,,,,,,,,HZ,FEW,2000,,,,,,,MVFR,,,,,,,,,,,,METAR,1497
MDST 050100Z 13006KT 070V180 9999 TS FEW016CB BKN018 23/23 Q1014 CB/SE/SW/NW/N,MDST,2024-05-05T01:00:00Z,19.407,-70.614,23,23,130,6,,6+,29.94,,,,,,,,,,TS,FEW,1600,BKN,1800,,,,,MVFR,,,,,,,,,,,,METAR,175
MDSD 050100Z 36004KT 9999 FEW018CB BKN018 SCT300 26/24 Q1013 CB/NE,MDSD,2024-05-05T01:00:00Z,18.433,-69.667,26,24,360,4,,6+,29.91,,,,,,,,,,,FEW,1800,BKN,1800,SCT,30000,,,MVFR,,,,,,,,,,,,METAR,18
MDPP 050100Z 09012KT 7000-RA BKN016 BKN070 25/24 Q1013,MDPP,2024-05-05T01:00:00Z,19.759,-70.571,25,24,90,12,,,29.91,,,,,,,,,,-RA,BKN,1600,BKN,7000,,,,,,,,,,,,,,,,,METAR,9
MDPC 050100Z 00000KT 9999 BKN016 26/24 Q1013,MDPC,2024-05-05T01:00:00Z,18.566,-68.356,26,24,0,0,,6+,29.91,,,,,,,,,,,BKN,1600,,,,,,,MVFR,,,,,,,,,,,,METAR,10
MDLR 050100Z 36004KT 9999 BKN018 25/25 Q1014,MDLR,2024-05-05T01:00:00Z,18.451,-68.921,25,25,360,4,,6+,29.94,,,,,,,,,,,BKN,1800,,,,,,,MVFR,,,,,,,,,,,,METAR,66
MDJB 050100Z 36006KT 9999 SCT016 SCT070 24/22 Q1013,MDJB,2024-05-05T01:00:00Z,18.577,-69.984,24,22,360,6,,6+,29.91,,,,,,,,,,,SCT,1600,SCT,7000,,,,,VFR,,,,,,,,,,,,METAR,24
LZZI 050100Z 08002KT CAVOK 09/07 Q1014,LZZI,2024-05-05T01:00:00Z,49.231,18.613,9,7,80,2,,6+,29.94,,,,,,,,,,,CAVOK,,,,,,,,VFR,,,,,,,,,,,,METAR,311
LZTT 050100Z 31003KT CAVOK 05/04 Q1015,LZTT,2024-05-05T01:00:00Z,49.068,20.25,5,4,310,3,,6+,29.97,,,,,,,,,,,CAVOK,,,,,,,,VFR,,,,,,,,,,,,METAR,693
LZPP 050100Z AUTO VRB02KT 9999 NCD 08/08 Q1013,LZPP,2024-05-05T01:00:00Z,48.613,17.832,8,8,VRB,2,,6+,29.91,,,TRUE,,,,,,,,CLR,,,,,,,,VFR,,,,,,,,,,,,METAR,160
LZKZ 050100Z 04006KT CAVOK 10/06 Q1014 NOSIG,LZKZ,2024-05-05T01:00:00Z,48.661,21.24,10,6,40,6,,6+,29.94,,,,,,TRUE,,,,,CAVOK,,,,,,,,VFR,,,,,,,,,,,,METAR,227
LZIB 050100Z VRB01KT 9999 MIFG NSC 13/11 Q1013 NOSIG,LZIB,2024-05-05T01:00:00Z,48.17,17.207,13,11,VRB,1,,6+,29.91,,,,,,TRUE,,,,MIFG,CLR,,,,,,,,VFR,,,,,,,,,,,,METAR,129
LYVR 050100Z AUTO 18009KT 9999 SCT041/// 16/14 Q1015,LYVR,2024-05-05T01:00:00Z,45.147,21.31,16,14,180,9,,6+,29.97,,,TRUE,,,,,,,,SCT,4100,,,,,,,VFR,,,,,,,,,,,,METAR,82
LYTV 050100Z AUTO 19001KT CAVOK 11/10 Q1015,LYTV,2024-05-05T01:00:00Z,42.405,18.723,11,10,190,1,,6+,29.97,,,TRUE,,,,,,,,CAVOK,,,,,,,,VFR,,,,,,,,,,,,METAR,3
LYPG 050100Z 32004KT CAVOK 12/11 Q1016 NOSIG,LYPG,2024-05-05T01:00:00Z,42.359,19.252,12,11,320,4,,6+,30.00,,,,,,TRUE,,,,,CAVOK,,,,,,,,VFR,,,,,,,,,,,,METAR,32
LYNI 050100Z VRB02KT 9999 SCT006 BKN070 11/11 Q1018 NOSIG,LYNI,2024-05-05T01:00:00Z,43.338,21.863,11,11,VRB,2,,6+,30.06,,,,,,TRUE,,,,,SCT,600,BKN,7000,,,,,VFR,,,,,,,,,,,,METAR,197
LYKV 050100Z 00000KT 0600 R31/P2000N R13/0600N FG NSC 10/10 Q1016 NOSIG,LYKV,2024-05-05T01:00:00Z,43.818,20.587,10,10,0,0,,0.37,30.00,,,,,,TRUE,,,,FG,CLR,,,,,,,,LIFR,,,,,,,,,,,,METAR,209
LYBT 050100Z 00000KT 4000 BR NSC 11/11 Q1015 NOSIG,LYBT,2024-05-05T01:00:00Z,44.935,20.258,11,11,0,0,,2.49,29.97,,,,,,TRUE,,,,BR,CLR,,,,,,,,IFR,,,,,,,,,,,,METAR,78
LYBE 050100Z 19006KT CAVOK 14/12 Q1015 NOSIG,LYBE,2024-05-05T01:00:00Z,44.824,20.291,14,12,190,6,,6+,29.97,,,,,,TRUE,,,,,CAVOK,,,,,,,,VFR,,,,,,,,,,,,METAR,93
LUKK 050100Z 00000KT CAVOK 02/M00 Q1016 NOSIG,LUKK,2024-05-05T01:00:00Z,46.928,28.931,2,0,0,0,,6+,30.00,,,,,,TRUE,,,,,CAVOK,,,,,,,,VFR,,,,,,,,,,,,METAR,102
LRTR 050100Z 18005KT 6000 NSC 14/14 Q1014 TEMPO 5000 BR,LRTR,2024-05-05T01:00:00Z,45.811,21.333,14,14,180,5,,3.73,29.94,,,,,,,,,,,CLR,,,,,,,,MVFR,,,,,,,,,,,,METAR,104
LRTM 050100Z AUTO 09003KT 9999 NCD 08/05 Q1015,LRTM,2024-05-05T01:00:00Z,46.468,24.421,8,5,90,3,,6+,29.97,,,TRUE,,,,,,,,CLR,,,,,,,,VFR,,,,,,,,,,,,METAR,289
LRTC 050100Z AUTO VRB01KT 7000 NCD 06/04 Q1015,LRTC,2024-05-05T01:00:00Z,45.065,28.716,6,4,VRB,1,,4.35,29.97,,,TRUE,,,,,,,,CLR,,,,,,,,MVFR,,,,,,,,,,,,METAR,52
LRSV 050100Z 25003KT CAVOK 09/04 Q1015,LRSV,2024-05-05T01:00:00Z,47.686,26.354,9,4,250,3,,6+,29.97,,,,,,,,,,,CAVOK,,,,,,,,VFR,,,,,,,,,,,,METAR,406
LRSM 050100Z AUTO 00000KT 9999 FEW090/// 12/06 Q1013,LRSM,2024-05-05T01:00:00Z,47.703,22.886,12,6,0,0,,6+,29.91,,,TRUE,,,,,,,,FEW,9000,,,,,,,VFR,,,,,,,,,,,,METAR,123
LRSB 050100Z 23001KT 9999 FEW037 SCT045 10/07 Q1015 NOSIG,LRSB,2024-05-05T01:00:00Z,45.789,24.091,10,7,230,1,,6+,29.97,,,,,,TRUE,,,,,FEW,3700,SCT,4500,,,,,VFR,,,,,,,,,,,,METAR,442
LROP 050100Z 28002KT CAVOK 08/08 Q1016 NOSIG,LROP,2024-05-05T01:00:00Z,44.572,26.102,8,8,280,2,,6+,30.00,,,,,,TRUE,,,,,CAVOK,,,,,,,,VFR,,,,,,,,,,,,METAR,92
LROD 050100Z AUTO 14006KT 9999 NCD 14/11 Q1014,LROD,2024-05-05T01:00:00Z,47.036,21.896,14,11,140,6,,6+,29.94,,,TRUE,,,,,,,,CLR,,,,,,,,VFR,,,,,,,,,,,,METAR,132
LRIA 050100Z 09004KT CAVOK 11/02 Q1016,LRIA,2024-05-05T01:00:00Z,47.164,27.627,11,2,90,4,,6+,30.00,,,,,,,,,,,CAVOK,,,,,,,,VFR,,,,,,,,,,,,METAR,71
LRCV 050100Z 10005KT 9999 BKN046 13/11 Q1016,LRCV,2024-05-05T01:00:00Z,44.31,23.867,13,11,100,5,,6+,30.00,,,,,,,,,,,BKN,4600,,,,,,,VFR,,,,,,,,,,,,METAR,192
LRCL 050100Z AUTO 07006KT 9999 NCD 12/04 Q1015,LRCL,2024-05-05T01:00:00Z,46.783,23.676,12,4,70,6,,6+,29.97,,,TRUE,,,,,,,,CLR,,,,,,,,VFR,,,,,,,,,,,,METAR,313
LRCK 050100Z 35008KT CAVOK 08/04 Q1015 NOSIG,LRCK,2024-05-05T01:00:00Z,44.362,28.488,8,4,350,8,,6+,29.97,,,,,,TRUE,,,,,CAVOK,,,,,,,,VFR,,,,,,,,,,,,METAR,108
LRBV 050100Z AUTO VRB02KT 9999 SCT087/// 07/03 Q1016,LRBV,2024-05-05T01:00:00Z,-99.99,-99.99,7,3,VRB,2,,6+,30.00,,,TRUE,,,,,,,,SCT,8700,,,,,,,VFR,,,,,,,,,,,,METAR,9999
LRBS 050100Z VRB01KT CAVOK 07/06 Q1016 NOSIG,LRBS,2024-05-05T01:00:00Z,44.511,26.078,7,6,VRB,1,,6+,30.00,,,,,,TRUE,,,,,CAVOK,,,,,,,,VFR,,,,,,,,,,,,METAR,91
LRBM 050100Z AUTO 05006KT 9999 NCD 15/05 Q1014,LRBM,2024-05-05T01:00:00Z,47.658,23.47,15,5,50,6,,6+,29.94,,,TRUE,,,,,,,,CLR,,,,,,,,VFR,,,,,,,,,,,,METAR,180
LRBC 050100Z 00000KT CAVOK 06/03 Q1016,LRBC,2024-05-05T01:00:00Z,46.522,26.91,6,3,0,0,,6+,30.00,,,,,,,,,,,CAVOK,,,,,,,,VFR,,,,,,,,,,,,METAR,183
LRAR 050100Z AUTO 17007KT 5000 BR NCD 14/13 Q1014,LRAR,2024-05-05T01:00:00Z,46.176,21.264,14,13,170,7,,3.11,29.94,,,TRUE,,,,,,,BR,CLR,,,,,,,,MVFR,,,,,,,,,,,,METAR,102
LQTZ 050100Z VRB02KT 3600 BR NSC 08/08 Q1016,LQTZ,2024-05-05T01:00:00Z,44.461,18.728,8,8,VRB,2,,2.24,30.00,,,,,,,,,,BR,CLR,,,,,,,,IFR,,,,,,,,,,,,METAR,242
LQSA 050100Z 13002KT CAVOK 08/07 Q1017,LQSA,2024-05-05T01:00:00Z,43.825,18.331,8,7,130,2,,6+,30.03,,,,,,,,,,,CAVOK,,,,,,,,VFR,,,,,,,,,,,,METAR,505
LQMO 050100Z VRB01KT CAVOK 10/09 Q1015,LQMO,2024-05-05T01:00:00Z,43.285,17.84,10,9,VRB,1,,6+,29.97,,,,,,,,,,,CAVOK,,,,,,,,VFR,,,,,,,,,,,,METAR,49
LQBK 050100Z VRB01KT CAVOK 11/11 Q1015 NOSIG,LQBK,2024-05-05T01:00:00Z,44.937,17.299,11,11,VRB,1,,6+,29.97,,,,,,TRUE,,,,,CAVOK,,,,,,,,VFR,,,,,,,,,,,,METAR,114
LPPT 050100Z 22006KT 210V270 9999 -DZ BKN006 17/16 Q1017,LPPT,2024-05-05T01:00:00Z,38.781,-9.136,17,16,220,6,,6+,30.03,,,,,,,,,,-DZ,BKN,600,,,,,,,IFR,,,,,,,,,,,,METAR,98
LPPS 050100Z 30006KT 9999 FEW012 19/16 Q1022,LPPS,2024-05-05T01:00:00Z,33.073,-16.35,19,16,300,6,,6+,30.18,,,,,,,,,,,FEW,1200,,,,,,,VFR,,,,,,,,,,,,METAR,89
LPPR 050100Z 18015KT 9999 SCT009 BKN023 16/14 Q1015,LPPR,2024-05-05T01:00:00Z,41.235,-8.684,16,14,180,15,,6+,29.97,,,,,,,,,,,SCT,900,BKN,2300,,,,,MVFR,,,,,,,,,,,,METAR,64
LPPD 050100Z 28012KT 9999 FEW006 BKN012 17/16 Q1017,LPPD,2024-05-05T01:00:00Z,37.741,-25.698,17,16,280,12,,6+,30.03,,,,,,,,,,,FEW,600,BKN,1200,,,,,MVFR,,,,,,,,,,,,METAR,62
LPMA 050100Z 33004KT 300V360 9999 FEW016 18/15 Q1022,LPMA,2024-05-05T01:00:00Z,32.698,-16.774,18,15,330,4,,6+,30.18,,,,,,,,,,,FEW,1600,,,,,,,VFR,,,,,,,,,,,,METAR,54
LPLA 050100Z /////KT 9999 FEW025 17/14 Q1017,LPLA,2024-05-05T01:00:00Z,38.762,-27.091,17,14,,,,6+,30.03,,,,,,,,,,,FEW,2500,,,,,,,VFR,,,,,,,,,,,,METAR,60
LPFR 050100Z 32004KT CAVOK 17/14 Q1018,LPFR,2024-05-05T01:00:00Z,37.014,-7.966,17,14,320,4,,6+,30.06,,,,,,,,,,,CAVOK,,,,,,,,VFR,,,,,,,,,,,,METAR,3
LPBJ 050100Z 21003KT 180V250 9999 FEW008 BKN015 16/15 Q1019,LPBJ,2024-05-05T01:00:00Z,38.073,-7.931,16,15,210,3,,6+,30.09,,,,,,,,,,,FEW,800,BKN,1500,,,,,MVFR,,,,,,,,,,,,METAR,196
LPAZ 050100Z 26009KT 9999 FEW008 SCT012 18/16 Q1018,LPAZ,2024-05-05T01:00:00Z,36.971,-25.171,18,16,260,9,,6+,30.06,,,,,,,,,,,FEW,800,SCT,1200,,,,,VFR,,,,,,,,,,,,METAR,96
LKTB 050100Z VRB01KT CAVOK 12/10 Q1013 NOSIG,LKTB,2024-05-05T01:00:00Z,49.151,16.694,12,10,VRB,1,,6+,29.91,,,,,,TRUE,,,,,CAVOK,,,,,,,,VFR,,,,,,,,,,,,METAR,233
LKPR 050100Z 21003KT 180V250 CAVOK 12/10 Q1012 NOSIG,LKPR,2024-05-05T01:00:00Z,50.101,14.26,12,10,210,3,,6+,29.88,,,,,,TRUE,,,,,CAVOK,,,,,,,,VFR,,,,,,,,,,,,METAR,364
LKPD 050100Z 09003KT 7000 NSC 09/09 Q1012 RMK WHT,LKPD,2024-05-05T01:00:00Z,50.016,15.74,9,9,90,3,,4.35,29.88,,,,,,,,,,,CLR,,,,,,,,MVFR,,,,,,,,,,,,METAR,226
LKNA 050100Z 12003KT CAVOK 15/10 Q1013 RMK BLU,LKNA,2024-05-05T01:00:00Z,49.166,16.125,15,10,120,3,,6+,29.91,,,,,,,,,,,CAVOK,,,,,,,,VFR,,,,,,,,,,,,METAR,460
LKMT 050100Z 12004KT CAVOK 09/07 Q1013 NOSIG,LKMT,2024-05-05T01:00:00Z,49.696,18.111,9,7,120,4,,6+,29.91,,,,,,TRUE,,,,,CAVOK,,,,,,,,VFR,,,,,,,,,,,,METAR,251
LKLN 050100Z AUTO VRB01KT 9999 FEW004 SCT089 08/08 Q1012,LKLN,2024-05-05T01:00:00Z,49.675,13.275,8,8,VRB,1,,6+,29.88,,,TRUE,,,,,,,,FEW,400,SCT,8900,,,,,VFR,,,,,,,,,,,,METAR,353
LKKV 050100Z 12004KT CAVOK 08/07 Q1012,LKKV,2024-05-05T01:00:00Z,50.202,12.91,8,7,120,4,,6+,29.88,,,,,,,,,,,CAVOK,,,,,,,,VFR,,,,,,,,,,,,METAR,600
LKKB 050100Z 19005KT CAVOK 13/11 Q1011,LKKB,2024-05-05T01:00:00Z,50.123,14.538,13,11,190,5,,6+,29.85,,,,,,,,,,,CAVOK,,,,,,,,VFR,,,,,,,,,,,,METAR,281
LKCV 050100Z VRB02KT CAVOK 11/09 Q1012 NOSIG RMK BLU BLU,LKCV,2024-05-05T01:00:00Z,49.94,15.382,11,9,VRB,2,,6+,29.88,,,,,,TRUE,,,,,CAVOK,,,,,,,,VFR,,,,,,,,,,,,METAR,234
LJPZ 050100Z AUTO 12008KT 9999 NCD 10/08 Q1015,LJPZ,2024-05-05T01:00:00Z,45.473,13.615,10,8,120,8,,6+,29.97,,,TRUE,,,,,,,,CLR,,,,,,,,VFR,,,,,,,,,,,,METAR,2
LJMB 050100Z AUTO 00000KT 3200 R32/1500U BR NCD 10/09 Q1014,LJMB,2024-05-05T01:00:00Z,46.48,15.682,10,9,0,0,,1.99,29.94,,,TRUE,,,,,,,BR,CLR,,,,,,,,IFR,,,,,,,,,,,,METAR,263
LJCE 050100Z AUTO 00000KT 9999 NCD 10/09 Q1015,LJCE,2024-05-05T01:00:00Z,45.899,15.523,10,9,0,0,,6+,29.97,,,TRUE,,,,,,,,CLR,,,,,,,,VFR,,,,,,,,,,,,METAR,153
LHBP 050100Z 36002KT CAVOK 10/08 Q1013 NOSIG,LHBP,2024-05-05T01:00:00Z,47.437,19.256,10,8,360,2,,6+,29.91,,,,,,TRUE,,,,,CAVOK,,,,,,,,VFR,,,,,,,,,,,,METAR,141
LFYR 050100Z AUTO 24003KT 7000 -DZ BKN006 OVC010 14/14 Q1010,LFYR,2024-05-05T01:00:00Z,47.32,1.688,14,14,240,3,,4.35,29.82,,,TRUE,,,,,,,-DZ,BKN,600,OVC,1000,,,,,IFR,,,,,,,,,,,,METAR,83
LFVP 050100Z AUTO 03014KT 9999 OVC024 05/00 Q1028,LFVP,2024-05-05T01:00:00Z,46.764,-56.169,5,0,30,14,,6+,30.35,,,TRUE,,,,,,,,OVC,2400,,,,,,,MVFR,,,,,,,,,,,,METAR,5
LFTW 050100Z AUTO 06003KT 040V100 7000 SCT018 BKN150 13/13 Q1016,LFTW,2024-05-05T01:00:00Z,43.757,4.416,13,13,60,3,,4.35,30.00,,,TRUE,,,,,,,,SCT,1800,BKN,15000,,,,,MVFR,,,,,,,,,,,,METAR,91
LFTH 050100Z AUTO 02002KT 8000 NSC 10/09 Q1017 TEMPO 0500 FG VV///,LFTH,2024-05-05T01:00:00Z,43.094,6.146,10,9,20,2,,4.97,30.03,,,TRUE,,,,,,,,CLR,,,,,,,,MVFR,,,,,,,,,,,,METAR,3
LFSX 050100Z AUTO 21011KT 9999 -RADZ FEW018 BKN050 BKN066 12/11 Q1012,LFSX,2024-05-05T01:00:00Z,47.783,6.364,12,11,210,11,,6+,29.88,,,TRUE,,,,,,,-RA -DZ,FEW,1800,BKN,5000,BKN,6600,,,VFR,,,,,,,,,,,,METAR,266
LFST 050100Z AUTO 17008KT 130V200 9999 FEW056/// BKN074/// OVC088/// //////TCU 14/12 Q1011 TEMPO 4000 RA BKN009,LFST,2024-05-05T01:00:00Z,48.549,7.64,14,12,170,8,,6+,29.85,,,TRUE,,,,,,,,FEW,5600,BKN,7400,OVC,8800,,,VFR,,,,,,,,,,,,METAR,149
LFSO 050100Z AUTO 23007KT 5000 -RA BR FEW005/// SCT015/// BKN024/// ///TCU 11/11 Q1010,LFSO,2024-05-05T01:00:00Z,48.583,5.955,11,11,230,7,,3.11,29.82,,,TRUE,,,,,,,-RA BR,FEW,500,SCT,1500,BKN,2400,,,MVFR,,,,,,,,,,,,METAR,328
LFSN 050100Z AUTO 05002KT 5000 RA BR BKN007/// BKN030/// OVC038/// //////TCU 12/12 Q1010,LFSN,2024-05-05T01:00:00Z,48.692,6.231,12,12,50,2,,3.11,29.82,,,TRUE,,,,,,,RA BR,BKN,700,BKN,3000,OVC,3800,,,IFR,,,,,,,,,,,,METAR,214
LFSL 050100Z AUTO VRB03KT 6000 RA BKN049/// BKN066/// BKN078/// ///TCU 13/13 Q1014,LFSL,2024-05-05T01:00:00Z,45.04,1.486,13,13,VRB,3,,3.73,29.94,,,TRUE,,,,,,,RA,BKN,4900,BKN,6600,BKN,7800,,,MVFR,,,,,,,,,,,,METAR,300
LFSI 050100Z AUTO VRB02KT 9999 -RA BKN006/// BKN014/// OVC020/// //////TCU 11/11 Q1010,LFSI,2024-05-05T01:00:00Z,48.631,4.904,11,11,VRB,2,,6+,29.82,,,TRUE,,,,,,,-RA,BKN,600,BKN,1400,OVC,2000,,,IFR,,,,,,,,,,,,METAR,136
LFSD 050100Z AUTO 19007KT 160V220 9999 BKN007/// OVC016/// ///TCU 12/12 Q1012,LFSD,2024-05-05T01:00:00Z,47.269,5.09,12,12,190,7,,6+,29.88,,,TRUE,,,,,,,,BKN,700,OVC,1600,,,,,IFR,,,,,,,,,,,,METAR,218
LFSB 050100Z AUTO 10002KT 9999 -RA BKN049/// BKN056/// BKN068/// ///TCU 13/12 Q1013 TEMPO 4000 RA,LFSB,2024-05-05T01:00:00Z,47.614,7.51,13,12,100,2,,6+,29.91,,,TRUE,,,,,,,-RA,BKN,4900,BKN,5600,BKN,6800,,,VFR,,,,,,,,,,,,METAR,262
LFRZ 050100Z AUTO 22010KT 9999 OVC025 13/11 Q1009 TEMPO BKN012,LFRZ,2024-05-05T01:00:00Z,47.312,-2.163,13,11,220,10,,6+,29.79,,,TRUE,,,,,,,,OVC,2500,,,,,,,MVFR,,,,,,,,,,,,METAR,2
LFRV 050100Z AUTO 20004KT 170V240 9999 BKN009 BKN014 OVC021 12/11 Q1008,LFRV,2024-05-05T01:00:00Z,47.722,-2.727,12,11,200,4,,6+,29.76,,,TRUE,,,,,,,,BKN,900,BKN,1400,OVC,2100,,,IFR,,,,,,,,,,,,METAR,132
LFRT 050100Z AUTO 22007KT 9999 SCT013 OVC021 12/10 Q1007,LFRT,2024-05-05T01:00:00Z,48.536,-2.853,12,10,220,7,,6+,29.73,,,TRUE,,,,,,,,SCT,1300,OVC,2100,,,,,MVFR,,,,,,,,,,,,METAR,134
LFRS 050100Z AUTO 24006KT 210V280 9999 OVC022 13/11 Q1010 TEMPO BKN008,LFRS,2024-05-05T01:00:00Z,47.15,-1.609,13,11,240,6,,6+,29.82,,,TRUE,,,,,,,,OVC,2200,,,,,,,MVFR,,,,,,,,,,,,METAR,26
LFRQ 050100Z AUTO 19005KT 4300 -RADZ BR OVC008 12/11 Q1007,LFRQ,2024-05-05T01:00:00Z,47.975,-4.168,12,11,190,5,,2.67,29.73,,,TRUE,,,,,,,-RA -DZ BR,OVC,800,,,,,,,IFR,,,,,,,,,,,,METAR,94
LFRN 050100Z AUTO 21008KT 9999 OVC031 13/11 Q1009 TEMPO BKN007,LFRN,2024-05-05T01:00:00Z,48.069,-1.734,13,11,210,8,,6+,29.79,,,TRUE,,,,,,,,OVC,3100,,,,,,,VFR,,,,,,,,,,,,METAR,35
LFRM 050100Z AUTO VRB02KT 4400 BR OVC003 12/12 Q1009,LFRM,2024-05-05T01:00:00Z,47.949,0.202,12,12,VRB,2,,2.73,29.79,,,TRUE,,,,,,,BR,OVC,300,,,,,,,LIFR,,,,,,,,,,,,METAR,51
LFRL 050100Z AUTO 21009KT 9999 OVC011 12/11 Q1006,LFRL,2024-05-05T01:00:00Z,48.279,-4.439,12,11,210,9,,6+,29.70,,,TRUE,,,,,,,,OVC,1100,,,,,,,MVFR,,,,,,,,,,,,METAR,80
LFRK 050100Z AUTO 15007KT 9999 FEW021/// SCT031/// BKN037/// 11/09 Q1009,LFRK,2024-05-05T01:00:00Z,49.18,-0.456,11,9,150,7,,6+,29.79,,,TRUE,,,,,,,,FEW,2100,SCT,3100,BKN,3700,,,VFR,,,,,,,,,,,,METAR,66
LFRJ 050100Z AUTO 20009KT 9999 BKN007 BKN018 OVC023 11/10 Q1006,LFRJ,2024-05-05T01:00:00Z,48.527,-4.138,11,10,200,9,,6+,29.70,,,TRUE,,,,,,,,BKN,700,BKN,1800,OVC,2300,,,IFR,,,,,,,,,,,,METAR,109
LFRI 050100Z AUTO 23006KT 200V270 9999 OVC016 12/11 Q1011,LFRI,2024-05-05T01:00:00Z,46.702,-1.379,12,11,230,6,,6+,29.85,,,TRUE,,,,,,,,OVC,1600,,,,,,,MVFR,,,,,,,,,,,,METAR,89
LFRH 050100Z AUTO 20007KT 6000 -RADZ BKN011 OVC017 13/11 Q1008 BECMG OVC020,LFRH,2024-05-05T01:00:00Z,47.761,-3.44,13,11,200,7,,3.73,29.76,,,TRUE,,,,,,,-RA -DZ,BKN,1100,OVC,1700,,,,,MVFR,,,,,,,,,,,,METAR,46
LFRG 050100Z AUTO 18006KT CAVOK 11/09 Q1009,LFRG,2024-05-05T01:00:00Z,49.365,0.154,11,9,180,6,,6+,29.79,,,TRUE,,,,,,,,CAVOK,,,,,,,,VFR,,,,,,,,,,,,METAR,146
LFRD 050100Z AUTO 19009KT 9999 OVC035 12/11 Q1008 TEMPO BKN007,LFRD,2024-05-05T01:00:00Z,48.589,-2.075,12,11,190,9,,6+,29.76,,,TRUE,,,,,,,,OVC,3500,,,,,,,VFR,,,,,,,,,,,,METAR,56
LFRC 050100Z AUTO 16006KT 9999 FEW014/// BKN044/// OVC062/// 11/09 Q1008,LFRC,2024-05-05T01:00:00Z,49.65,-1.47,11,9,160,6,,6+,29.76,,,TRUE,,,,,,,,FEW,1400,BKN,4400,OVC,6200,,,VFR,,,,,,,,,,,,METAR,137
LFRB 050100Z AUTO 21011KT 4300 BR BKN004 BKN009 BKN015 12/11 Q1006 TEMPO SHRA BKN006 BKN012,LFRB,2024-05-05T01:00:00Z,48.444,-4.412,12,11,210,11,,2.67,29.70,,,TRUE,,,,,,,BR,BKN,400,BKN,900,BKN,1500,,,LIFR,,,,,,,,,,,,METAR,91
LFQQ 050100Z AUTO 24001KT 0450 0350 R26/0600U R08/0400D FG VV/// 07/07 Q1009 NOSIG,LFQQ,2024-05-05T01:00:00Z,50.562,3.089,7,7,240,1,,0.28,29.79,,,TRUE,,,TRUE,,,,FG,OVX,0,,,,,,,LIFR,,,,,,,,,,,,METAR,43
LFQB 050100Z AUTO 00000KT 9999 FEW002/// OVC007/// //////TCU 12/11 Q1010,LFQB,2024-05-05T01:00:00Z,48.325,4.02,12,11,0,0,,6+,29.82,,,TRUE,,,,,,,,FEW,200,OVC,700,,,,,IFR,,,,,,,,,,,,METAR,107
LFQA 050100Z AUTO VRB02KT 2400 1200 BR VV/// 05/05 Q1010,LFQA,2024-05-05T01:00:00Z,49.21,4.155,5,5,VRB,2,,1.49,29.82,,,TRUE,,,,,,,BR,OVX,0,,,,,,,IFR,,,,,,,,,,,,METAR,92
LFPV 050100Z AUTO VRB01KT 9999 OVC044 10/09 Q1010 TEMPO OVC005,LFPV,2024-05-05T01:00:00Z,48.77,2.205,10,9,VRB,1,,6+,29.82,,,TRUE,,,,,,,,OVC,4400,,,,,,,VFR,,,,,,,,,,,,METAR,171
LFPT 050100Z AUTO 05002KT CAVOK 07/06 Q1009,LFPT,2024-05-05T01:00:00Z,49.097,2.041,7,6,50,2,,6+,29.79,,,TRUE,,,,,,,,CAVOK,,,,,,,,VFR,,,,,,,,,,,,METAR,91
LFPO 050100Z AUTO 18003KT 9999 4300 OVC048 11/10 Q1010 TEMPO 4000 -DZRA BKN007,LFPO,2024-05-05T01:00:00Z,48.717,2.384,11,10,180,3,,6+,29.82,,,TRUE,,,,,,,,OVC,4800,,,,,,,VFR,,,,,,,,,,,,METAR,88
LFPN 050100Z AUTO 16001KT 9999 OVC045 09/09 Q1010,LFPN,2024-05-05T01:00:00Z,48.752,2.114,9,9,160,1,,6+,29.82,,,TRUE,,,,,,,,OVC,4500,,,,,,,VFR,,,,,,,,,,,,METAR,152
LFPM 050100Z AUTO VRB02KT 9999 BKN002 OVC045 10/10 Q1010,LFPM,2024-05-05T01:00:00Z,48.611,2.68,10,10,VRB,2,,6+,29.82,,,TRUE,,,,,,,,BKN,200,OVC,4500,,,,,LIFR,,,,,,,,,,,,METAR,91
LFPG 050100Z 17002KT CAVOK 10/08 Q1010 NOSIG,LFPG,2024-05-05T01:00:00Z,49.015,2.534,10,8,170,2,,6+,29.82,,,,,,TRUE,,,,,CAVOK,,,,,,,,VFR,,,,,,,,,,,,METAR,107
LFPB 050100Z AUTO 10002KT CAVOK 09/08 Q1010 NOSIG,LFPB,2024-05-05T01:00:00Z,48.967,2.428,9,8,100,2,,6+,29.82,,,TRUE,,,TRUE,,,,,CAVOK,,,,,,,,VFR,,,,,,,,,,,,METAR,50
LFOZ 050100Z AUTO 13003KT 9999 OVC006 12/11 Q1010,LFOZ,2024-05-05T01:00:00Z,47.897,2.163,12,11,130,3,,6+,29.82,,,TRUE,,,,,,,,OVC,600,,,,,,,IFR,,,,,,,,,,,,METAR,121
LFOV 050100Z AUTO 21004KT 180V260 7000 -DZ BKN002 BKN008 BKN014 12/11 Q1009,LFOV,2024-05-05T01:00:00Z,48.031,-0.746,12,11,210,4,,4.35,29.79,,,TRUE,,,,,,,-DZ,BKN,200,BKN,800,BKN,1400,,,LIFR,,,,,,,,,,,,METAR,99
LFOT 050100Z AUTO 23008KT 7000 OVC005 14/13 Q1010 TEMPO 2500 DZ,LFOT,2024-05-05T01:00:00Z,47.444,0.728,14,13,230,8,,4.35,29.82,,,TRUE,,,,,,,,OVC,500,,,,,,,IFR,,,,,,,,,,,,METAR,107
LFOP 050100Z AUTO 15002KT CAVOK 08/08 Q1009,LFOP,2024-05-05T01:00:00Z,49.383,1.182,8,8,150,2,,6+,29.79,,,TRUE,,,,,,,,CAVOK,,,,,,,,VFR,,,,,,,,,,,,METAR,149
LFOK 050100Z AUTO 21004KT 9999 FEW003 OVC036 10/10 Q1010 TEMPO 3000 -RADZ BKN003 OVC007,LFOK,2024-05-05T01:00:00Z,48.777,4.165,10,10,210,4,,6+,29.82,,,TRUE,,,,,,,,FEW,300,OVC,3600,,,,,VFR,,,,,,,,,,,,METAR,166
LFOJ 050100Z AUTO VRB02KT 3300 BR OVC003 11/11 Q1009 NOSIG,LFOJ,2024-05-05T01:00:00Z,47.985,1.754,11,11,VRB,2,,2.05,29.79,,,TRUE,,,TRUE,,,,BR,OVC,300,,,,,,,LIFR,,,,,,,,,,,,METAR,122
LFOH 050100Z AUTO 14004KT CAVOK 12/08 Q1009,LFOH,2024-05-05T01:00:00Z,49.533,0.091,12,8,140,4,,6+,29.79,,,TRUE,,,,,,,,CAVOK,,,,,,,,VFR,,,,,,,,,,,,METAR,87
LFOE 050100Z AUTO 18004KT 9999 OVC046 10/09 Q1009 BECMG 4000 -RADZ SCT004 OVC008,LFOE,2024-05-05T01:00:00Z,49.025,1.222,10,9,180,4,,6+,29.79,,,TRUE,,,,,,,,OVC,4600,,,,,,,VFR,,,,,,,,,,,,METAR,132
LFOB 050100Z AUTO 00000KT 0550 0500 R30/0650U R12/0550D FG VV/// 04/04 Q1009 NOSIG,LFOB,2024-05-05T01:00:00Z,49.454,2.113,4,4,0,0,,0.34,29.79,,,TRUE,,,TRUE,,,,FG,OVX,0,,,,,,,LIFR,,,,,,,,,,,,METAR,99
LFOA 050100Z AUTO 21007KT 7000 DZ BKN008 OVC012 14/13 Q1011,LFOA,2024-05-05T01:00:00Z,47.052,2.642,14,13,210,7,,4.35,29.85,,,TRUE,,,,,,,DZ,BKN,800,OVC,1200,,,,,IFR,,,,,,,,,,,,METAR,174
LFMY 050100Z AUTO 00000KT CAVOK 12/10 Q1016,LFMY,2024-05-05T01:00:00Z,43.604,5.108,12,10,0,0,,6+,30.00,,,TRUE,,,,,,,,CAVOK,,,,,,,,VFR,,,,,,,,,,,,METAR,57
LFMV 050100Z AUTO VRB02KT CAVOK 13/12 Q1016,LFMV,2024-05-05T01:00:00Z,43.911,4.903,13,12,VRB,2,,6+,30.00,,,TRUE,,,,,,,,CAVOK,,,,,,,,VFR,,,,,,,,,,,,METAR,33
LFMU 050100Z AUTO 06003KT 9999 FEW008 BKN013 OVC022 15/15 Q1016,LFMU,2024-05-05T01:00:00Z,43.322,3.353,15,15,60,3,,6+,30.00,,,TRUE,,,,,,,,FEW,800,BKN,1300,OVC,2200,,,MVFR,,,,,,,,,,,,METAR,14
LFMT 050100Z AUTO 08007KT 9999 BKN008 BKN015 BKN110 15/14 Q1016 TEMPO 0800 FG VV///,LFMT,2024-05-05T01:00:00Z,43.577,3.963,15,14,80,7,,6+,30.00,,,TRUE,,,,,,,,BKN,800,BKN,1500,BKN,11000,,,IFR,,,,,,,,,,,,METAR,1
LFMP 050100Z AUTO VRB03KT 9999 BKN017 OVC150 13/12 Q1015 BECMG BKN008,LFMP,2024-05-05T01:00:00Z,42.737,2.873,13,12,VRB,3,,6+,29.97,,,TRUE,,,,,,,,BKN,1700,OVC,15000,,,,,MVFR,,,,,,,,,,,,METAR,41
LFMO 050100Z AUTO VRB02KT 9999 BKN078 OVC098 14/12 Q1016 TEMPO 4000 BR,LFMO,2024-05-05T01:00:00Z,44.144,4.861,14,12,VRB,2,,6+,30.00,,,TRUE,,,,,,,,BKN,7800,OVC,9800,,,,,VFR,,,,,,,,,,,,METAR,56
LFMN 050100Z 31005KT 9999 SCT100 14/11 Q1017 NOSIG,LFMN,2024-05-05T01:00:00Z,43.658,7.216,14,11,310,5,,6+,30.03,,,,,,TRUE,,,,,SCT,10000,,,,,,,VFR,,,,,,,,,,,,METAR,4
LFML 050100Z AUTO 02003KT 350V050 CAVOK 15/08 Q1016 NOSIG,LFML,2024-05-05T01:00:00Z,43.438,5.216,15,8,20,3,,6+,30.00,,,TRUE,,,TRUE,,,,,CAVOK,,,,,,,,VFR,,,,,,,,,,,,METAR,20
LFMK 050100Z AUTO 08011KT 9999 SCT005 SCT011 BKN017 14/13 Q1015,LFMK,2024-05-05T01:00:00Z,43.214,2.31,14,13,80,11,,6+,29.97,,,TRUE,,,,,,,,SCT,500,SCT,1100,BKN,1700,,,MVFR,,,,,,,,,,,,METAR,124
LFMI 050100Z AUTO 05003KT 9999 ///TCU 14/12 Q1016 TEMPO 3000 BR BKN005,LFMI,2024-05-05T01:00:00Z,43.516,4.935,14,12,50,3,,6+,30.00,,,TRUE,,,,,,,,,,,,,,,,VFR,,,,,,,,,,,,METAR,20
LFMH 050100Z AUTO 19007KT 150V220 CAVOK 14/08 Q1014,LFMH,2024-05-05T01:00:00Z,45.533,4.293,14,8,190,7,,6+,29.94,,,TRUE,,,,,,,,CAVOK,,,,,,,,VFR,,,,,,,,,,,,METAR,400
LFMD 050100Z AUTO VRB02KT CAVOK 12/11 Q1017,LFMD,2024-05-05T01:00:00Z,43.544,6.953,12,11,VRB,2,,6+,30.03,,,TRUE,,,,,,,,CAVOK,,,,,,,,VFR,,,,,,,,,,,,METAR,2
LFMC 050100Z AUTO 00000KT 9999 ////// 12/11 Q1017,LFMC,2024-05-05T01:00:00Z,43.383,6.386,12,11,0,0,,6+,30.03,,,TRUE,,,,,,,,,,,,,,,,VFR,,,,,,,,,,,,METAR,79
LFLY 050100Z AUTO 18013KT CAVOK 14/07 Q1014 TEMPO 4000 SCT055TCU BECMG 18015G25KT,LFLY,2024-05-05T01:00:00Z,45.726,4.938,14,7,180,13,,6+,29.94,,,TRUE,,,,,,,,CAVOK,,,,,,,,VFR,,,,,,,,,,,,METAR,197
LFLX 050100Z AUTO 23013KT 9999 OVC011 14/13 Q1011 TEMPO 2500 DZ BKN008,LFLX,2024-05-05T01:00:00Z,46.87,1.741,14,13,230,13,,6+,29.85,,,TRUE,,,,,,,,OVC,1100,,,,,,,MVFR,,,,,,,,,,,,METAR,157
LFLW 050100Z AUTO 09007KT 9999 BKN047 OVC054 11/10 Q1015,LFLW,2024-05-05T01:00:00Z,44.899,2.421,11,10,90,7,,6+,29.97,,,TRUE,,,,,,,,BKN,4700,OVC,5400,,,,,VFR,,,,,,,,,,,,METAR,638
LFLS 050100Z AUTO VRB02KT 9999 FEW056 BKN078 OVC098 11/08 Q1016,LFLS,2024-05-05T01:00:00Z,45.363,5.329,11,8,VRB,2,,6+,30.00,,,TRUE,,,,,,,,FEW,5600,BKN,7800,OVC,9800,,,VFR,,,,,,,,,,,,METAR,386
LFLP 050100Z AUTO VRB02KT 9999 OVC049 12/11 Q1016,LFLP,2024-05-05T01:00:00Z,45.93,6.106,12,11,VRB,2,,6+,30.00,,,TRUE,,,,,,,,OVC,4900,,,,,,,VFR,,,,,,,,,,,,METAR,460
LFLN 050100Z AUTO 19005KT 160V220 9999 BKN041/// OVC054/// //////TCU 13/11 Q1013,LFLN,2024-05-05T01:00:00Z,46.412,4.025,13,11,190,5,,6+,29.91,,,TRUE,,,,,,,,BKN,4100,OVC,5400,,,,,VFR,,,,,,,,,,,,METAR,238
LFLL 050100Z 19014KT CAVOK 14/06 Q1015 NOSIG,LFLL,2024-05-05T01:00:00Z,45.726,5.078,14,6,190,14,,6+,29.97,,,,,,TRUE,,,,,CAVOK,,,,,,,,VFR,,,,,,,,,,,,METAR,234
LFLC 050100Z AUTO 19011KT 9999 FEW042 BKN076 OVC088 14/11 Q1013 TEMPO SHRA,LFLC,2024-05-05T01:00:00Z,45.787,3.169,14,11,190,11,,6+,29.91,,,TRUE,,,,,,,,FEW,4200,BKN,7600,OVC,8800,,,VFR,,,,,,,,,,,,METAR,325
LFLB 050100Z AUTO VRB02KT 9999 -RA BKN062/// BKN076/// OVC094/// //////TCU 12/11 Q1016,LFLB,2024-05-05T01:00:00Z,45.637,5.883,12,11,VRB,2,,6+,30.00,,,TRUE,,,,,,,-RA,BKN,6200,BKN,7600,OVC,9400,,,VFR,,,,,,,,,,,,METAR,234
LFKS 050100Z AUTO 27006KT 240V300 CAVOK 13/05 Q1017,LFKS,2024-05-05T01:00:00Z,41.924,9.406,13,5,270,6,,6+,30.03,,,TRUE,,,,,,,,CAVOK,,,,,,,,VFR,,,,,,,,,,,,METAR,22
LFKJ 050100Z AUTO 06005KT CAVOK 11/07 Q1018 NOSIG,LFKJ,2024-05-05T01:00:00Z,41.924,8.803,11,7,60,5,,6+,30.06,,,TRUE,,,TRUE,,,,,CAVOK,,,,,,,,VFR,,,,,,,,,,,,METAR,9
LFKF 050100Z AUTO 02004KT CAVOK 08/06 Q1018 BECMG 26010KT,LFKF,2024-05-05T01:00:00Z,41.501,9.098,8,6,20,4,,6+,30.06,,,TRUE,,,,,,,,CAVOK,,,,,,,,VFR,,,,,,,,,,,,METAR,15
LFKC 050100Z AUTO VRB02KT CAVOK 11/08 Q1017,LFKC,2024-05-05T01:00:00Z,42.531,8.793,11,8,VRB,2,,6+,30.03,,,TRUE,,,,,,,,CAVOK,,,,,,,,VFR,,,,,,,,,,,,METAR,38
LFKB 050100Z AUTO 21003KT CAVOK 11/09 Q1017 NOSIG,LFKB,2024-05-05T01:00:00Z,42.553,9.484,11,9,210,3,,6+,30.03,,,TRUE,,,TRUE,,,,,CAVOK,,,,,,,,VFR,,,,,,,,,,,,METAR,7
LFJR 050100Z AUTO 23008KT 9999 FEW014 OVC025 13/12 Q1010,LFJR,2024-05-05T01:00:00Z,47.562,-0.317,13,12,230,8,,6+,29.82,,,TRUE,,,,,,,,FEW,1400,OVC,2500,,,,,MVFR,,,,,,,,,,,,METAR,50
LFJL 050100Z AUTO 22006KT 9999 FEW010/// OVC028/// ///TCU 11/11 Q1010 TEMPO 1400 -RA BR BKN003,LFJL,2024-05-05T01:00:00Z,48.982,6.251,11,11,220,6,,6+,29.82,,,TRUE,,,,,,,,FEW,1000,OVC,2800,,,,,MVFR,,,,,,,,,,,,METAR,259
LFGJ 050100Z AUTO 19015KT 9999 BKN036 OVC045 13/11 Q1012,LFGJ,2024-05-05T01:00:00Z,47.044,5.427,13,11,190,15,,6+,29.88,,,TRUE,,,,,,,,BKN,3600,OVC,4500,,,,,VFR,,,,,,,,,,,,METAR,191
LFCR 050100Z AUTO 11004KT CAVOK 10/08 Q1014 TEMPO SCT040TCU,LFCR,2024-05-05T01:00:00Z,44.41,2.483,10,8,110,4,,6+,29.94,,,TRUE,,,,,,,,CAVOK,,,,,,,,VFR,,,,,,,,,,,,METAR,576
LFCK 050100Z AUTO 12005KT 090V150 CAVOK 15/08 Q1015,LFCK,2024-05-05T01:00:00Z,43.556,2.289,15,8,120,5,,6+,29.97,,,TRUE,,,,,,,,CAVOK,,,,,,,,VFR,,,,,,,,,,,,METAR,223
LFBZ 050100Z AUTO 14003KT 9999 NCD 14/13 Q1014 TEMPO 21010KT BKN010,LFBZ,2024-05-05T01:00:00Z,43.469,-1.534,14,13,140,3,,6+,29.94,,,TRUE,,,,,,,,CLR,,,,,,,,VFR,,,-1,,,,,,,,,METAR,70
LFBY 050100Z AUTO 23004KT 200V270 9999 // ////// 14/13 Q1014,LFBY,2024-05-05T01:00:00Z,43.69,-1.07,14,13,230,4,,6+,29.94,,,TRUE,,,,,,,,,,,,,,,,VFR,,,,,,,,,,,,METAR,32
LFBX 050100Z AUTO 00000KT 1300 R29/1400U BR VV/// 13/13 Q1013,LFBX,2024-05-05T01:00:00Z,45.196,0.815,13,13,0,0,,0.81,29.91,,,TRUE,,,,,,,BR,OVX,0,,,,,,,LIFR,,,,,,,,,,,,METAR,97
LFBU 050100Z AUTO 20007KT 9999 BKN008 OVC035 14/13 Q1013,LFBU,2024-05-05T01:00:00Z,45.728,0.22,14,13,200,7,,6+,29.91,,,TRUE,,,,,,,,BKN,800,OVC,3500,,,,,IFR,,,,,,,,,,,,METAR,124
LFBT 050100Z AUTO 22005KT 170V270 9999 FEW068 BKN088 15/11 Q1015 TEMPO BKN008,LFBT,2024-05-05T01:00:00Z,43.189,,15,11,220,5,,6+,29.97,,,TRUE,,,,,,,,FEW,6800,BKN,8800,,,,,VFR,,,,,,,,,,,,METAR,359
LFBP 050100Z AUTO 24006KT 9999 NCD 14/12 Q1015 BECMG 4000 BR BKN003,LFBP,2024-05-05T01:00:00Z,43.385,-0.416,14,12,240,6,,6+,29.97,,,TRUE,,,,,,,,CLR,,,,,,,,VFR,,,,,,,,,,,,METAR,182
LFBO 050100Z AUTO 17006KT 9999 //////TCU 14/10 Q1014 BECMG NSC,LFBO,2024-05-05T01:00:00Z,43.621,1.379,14,10,170,6,,6+,29.94,,,TRUE,,,,,,,,,,,,,,,,VFR,,,,,,,,,,,,METAR,150
LFBM 050100Z AUTO 27006KT CAVOK 13/13 Q1014 BECMG 2000 BR,LFBM,2024-05-05T01:00:00Z,43.912,-0.507,13,13,270,6,,6+,29.94,,,TRUE,,,,,,,,CAVOK,,,,,,,,VFR,,,,,,,,,,,,METAR,56
LFBL 050100Z AUTO 21007KT 9999 OVC038 12/12 Q1013 TEMPO 0500 FG VV///,LFBL,2024-05-05T01:00:00Z,45.863,1.179,12,12,210,7,,6+,29.91,,,TRUE,,,,,,,,OVC,3800,,,,,,,VFR,,,,,,,,,,,,METAR,402
LFBI 050100Z AUTO 23012KT 9999 FEW009 BKN018 13/12 Q1011 TEMPO 2500 -RA BKN003,LFBI,2024-05-05T01:00:00Z,46.584,0.309,13,12,230,12,,6+,29.85,,,TRUE,,,,,,,,FEW,900,BKN,1800,,,,,MVFR,,,,,,,,,,,,METAR,117
LFBH 050100Z AUTO 25009KT 9999 OVC018 14/11 Q1012 BECMG 19010KT BKN012,LFBH,2024-05-05T01:00:00Z,46.178,-1.193,14,11,250,9,,6+,29.88,,,TRUE,,,,,,,,OVC,1800,,,,,,,MVFR,,,,,,,,,,,,METAR,18
LFBG 050100Z AUTO 26007KT 9999 OVC014 14/13 Q1013,LFBG,2024-05-05T01:00:00Z,45.665,-0.316,14,13,260,7,,6+,29.91,,,TRUE,,,,,,,,OVC,1400,,,,,,,MVFR,,,,,,,,,,,,METAR,28
LFBE 050100Z AUTO VRB03KT 7000 NSC 14/13 Q1013 TEMPO 4000 -RA BKN007,LFBE,2024-05-05T01:00:00Z,44.826,0.516,14,13,VRB,3,,4.35,29.91,,,TRUE,,,,,,,,CLR,,,,,,,,MVFR,,,,,,,,,,,,METAR,49
LFBD 050100Z AUTO 27007KT 9999 BKN011 BKN016 OVC068 15/14 Q1013 TEMPO 2000 BR BKN010 BKN040TCU,LFBD,2024-05-05T01:00:00Z,44.831,-0.691,15,14,270,7,,6+,29.91,,,TRUE,,,,,,,,BKN,1100,BKN,1600,OVC,6800,,,MVFR,,,,,,,,,,,,METAR,48
LFBC 050100Z AUTO 29005KT 9999 SCT009 BKN013 OVC066 14/13 Q1013,LFBC,2024-05-05T01:00:00Z,44.533,-1.125,14,13,290,5,,6+,29.91,,,TRUE,,,,,,,,SCT,900,BKN,1300,OVC,6600,,,MVFR,,,,,,,,,,,,METAR,22
LFBA 050100Z AUTO VRB02KT CAVOK 14/11 Q1014,LFBA,2024-05-05T01:00:00Z,44.176,0.593,14,11,VRB,2,,6+,29.94,,,TRUE,,,,,,,,CAVOK,,,,,,,,VFR,,,,,,,,,,,,METAR,68
LFAT 050100Z AUTO 18005KT 110V250 CAVOK 07/07 Q1009,LFAT,2024-05-05T01:00:00Z,50.515,1.623,7,7,180,5,,6+,29.79,,,TRUE,,,,,,,,CAVOK,,,,,,,,VFR,,,,,,,,,,,,METAR,2
LFAQ 050100Z AUTO 16004KT 7000 NSC 08/07 Q1009,LFAQ,2024-05-05T01:00:00Z,49.972,2.704,8,7,160,4,,4.35,29.79,,,TRUE,,,,,,,,CLR,,,,,,,,MVFR,,,,,,,,,,,,METAR,107
LEZL 050100Z AUTO 20003KT 140V300 CAVOK 14/12 Q1017,LEZL,2024-05-05T01:00:00Z,37.418,-5.893,14,12,200,3,,6+,30.03,,,TRUE,,,,,,,,CAVOK,,,,,,,,VFR,,,,,,,,,,,,METAR,26
LEZG 050100Z VRB02KT 9999 SCT085 20/09 Q1015,LEZG,2024-05-05T01:00:00Z,41.661,-1.004,20,9,VRB,2,,6+,29.97,,,,,,,,,,,SCT,8500,,,,,,,VFR,,,,,,,,,,,,METAR,245
LEXJ 050100Z AUTO 10006KT 070V140 CAVOK 14/12 Q1012,LEXJ,2024-05-05T01:00:00Z,43.429,-3.831,14,12,100,6,,6+,29.88,,,TRUE,,,,,,,,CAVOK,,,,,,,,VFR,,,,,,,,,,,,METAR,1
LEVX 050100Z 19012KT 150V210 0100 R19/0900U R01/0450N BCFG DZ VV001 13/12 Q1013 NOSIG,LEVX,2024-05-05T01:00:00Z,42.239,-8.624,13,12,190,12,,0.06,29.91,,,,,,TRUE,,,,BCFG DZ,OVX,0,,,,,,,LIFR,,,,,,,,,,,100,METAR,253
LEVT 050100Z VRB01KT 9999 FEW065 12/09 Q1014,LEVT,2024-05-05T01:00:00Z,42.872,-2.733,12,9,VRB,1,,6+,29.94,,,,,,,,,,,FEW,6500,,,,,,,VFR,,,,,,,,,,,,METAR,501
LEVS 050100Z AUTO 21005KT 170V240 9999 FEW075 15/08 Q1017,LEVS,2024-05-05T01:00:00Z,40.371,-3.785,15,8,210,5,,6+,30.03,,,TRUE,,,,,,,,FEW,7500,,,,,,,VFR,,,,,,,,,,,,METAR,683
LEVD 050100Z AUTO 24007KT 9999 FEW008 10/09 Q1016,LEVD,2024-05-05T01:00:00Z,41.706,-4.852,10,9,240,7,,6+,30.00,,,TRUE,,,,,,,,FEW,800,,,,,,,VFR,,,,,,,,,,,,METAR,844
LEVC 050100Z 30006KT CAVOK 16/12 Q1014 NOSIG,LEVC,2024-05-05T01:00:00Z,39.489,-0.482,16,12,300,6,,6+,29.94,,,,,,TRUE,,,,,CAVOK,,,,,,,,VFR,,,,,,,,,,,,METAR,58
LETU 050100Z AUTO 17005KT CAVOK 16/09 Q1015,LETU,2024-05-05T01:00:00Z,-99.99,-99.99,16,9,170,5,,6+,29.97,,,TRUE,,,,,,,,CAVOK,,,,,,,,VFR,,,,,,,,,,,,METAR,9999
LETO 050100Z 20005KT 9999 FEW067 17/08 Q1016 NOSIG,LETO,2024-05-05T01:00:00Z,40.489,-3.451,17,8,200,5,,6+,30.00,,,,,,TRUE,,,,,FEW,6700,,,,,,,VFR,,,,,,,,,,,,METAR,598
LETL 050100Z AUTO 27009KT CAVOK 11/04 Q1018,LETL,2024-05-05T01:00:00Z,40.404,-1.218,11,4,270,9,,6+,30.06,,,TRUE,,,,,,,,CAVOK,,,,,,,,VFR,,,,,,,,,,,,METAR,1024
LEST 050100Z 21012KT 170V240 3000 RA BKN005 BKN012 12/12 Q1011 TEMPO 6000 NSW,LEST,2024-05-05T01:00:00Z,42.888,-8.411,12,12,210,12,,1.86,29.85,,,,,,,,,,RA,BKN,500,BKN,1200,,,,,IFR,,,,,,,,,,,,METAR,363
LESO 050100Z AUTO VRB02KT 9999 FEW037 15/13 Q1014,LESO,2024-05-05T01:00:00Z,43.361,-1.787,15,13,VRB,2,,6+,29.94,,,TRUE,,,,,,,,FEW,3700,,,,,,,VFR,,,,,,,,,,,,METAR,3
LESB 050100Z AUTO 34003KT CAVOK 13/08 Q1016,LESB,2024-05-05T01:00:00Z,39.599,2.703,13,8,340,3,,6+,30.00,,,TRUE,,,,,,,,CAVOK,,,,,,,,VFR,,,,,,,,,,,,METAR,48
LESA 050100Z AUTO 20005KT 9999 SCT017 BKN025 BKN039 11/11 Q1017,LESA,2024-05-05T01:00:00Z,40.96,-5.498,11,11,200,5,,6+,30.03,,,TRUE,,,,,,,,SCT,1700,BKN,2500,BKN,3900,,,MVFR,,,,,,,,,,,,METAR,788
LERT 050100Z 09002KT CAVOK 15/14 Q1018 NOSIG,LERT,2024-05-05T01:00:00Z,36.645,-6.349,15,14,90,2,,6+,30.06,,,,,,TRUE,,,,,CAVOK,,,,,,,,VFR,,,,,,,,,,,,METAR,27
LERS 050100Z AUTO 03003KT CAVOK 12/10 Q1015,LERS,2024-05-05T01:00:00Z,41.15,1.179,12,10,30,3,,6+,29.97,,,TRUE,,,,,,,,CAVOK,,,,,,,,VFR,,,,,,,,,,,,METAR,68
LEPP 050100Z AUTO 16003KT 140V200 CAVOK 11/08 Q1015,LEPP,2024-05-05T01:00:00Z,42.777,-1.65,11,8,160,3,,6+,29.97,,,TRUE,,,,,,,,CAVOK,,,,,,,,VFR,,,,,,,,,,,,METAR,448
LEPA 050100Z 04002KT CAVOK 11/11 Q1016 NOSIG,LEPA,2024-05-05T01:00:00Z,39.561,2.737,11,11,40,2,,6+,30.00,,,,,,TRUE,,,,,CAVOK,,,,,,,,VFR,,,,,,,,,,,,METAR,8
LEMO 050100Z 22004KT 190V260 CAVOK 12/08 Q1018 NOSIG,LEMO,2024-05-05T01:00:00Z,37.175,-5.616,12,8,220,4,,6+,30.06,,,,,,TRUE,,,,,CAVOK,,,,,,,,VFR,,,,,,,,,,,,METAR,82
LEMI 050100Z AUTO 28005KT CAVOK 15/07 Q1016,LEMI,2024-05-05T01:00:00Z,37.803,-1.125,15,7,280,5,,6+,30.00,,,TRUE,,,,,,,,CAVOK,,,,,,,,VFR,,,,,,,,,,,,METAR,193
LEMH 050100Z AUTO 21005KT CAVOK 15/15 Q1016,LEMH,2024-05-05T01:00:00Z,39.855,4.216,15,15,210,5,,6+,30.00,,,TRUE,,,,,,,,CAVOK,,,,,,,,VFR,,,,,,,,,,,,METAR,82
LEMG 050100Z VRB02KT CAVOK 16/09 Q1016 NOSIG,LEMG,2024-05-05T01:00:00Z,36.666,-4.482,16,9,VRB,2,,6+,30.00,,,,,,TRUE,,,,,CAVOK,,,,,,,,VFR,,,,,,,,,,,,METAR,5
LEMD 050100Z 22006KT 160V280 CAVOK 18/07 Q1016 NOSIG,LEMD,2024-05-05T01:00:00Z,40.466,-3.555,18,7,220,6,,6+,30.00,,,,,,TRUE,,,,,CAVOK,,,,,,,,VFR,,,,,,,,,,,,METAR,589
LELO 050100Z AUTO 15004KT 060V170 CAVOK 11/08 Q1014,LELO,2024-05-05T01:00:00Z,42.452,-2.331,11,8,150,4,,6+,29.94,,,TRUE,,,,,,,,CAVOK,,,,,,,,VFR,,,,,,,,,,,,METAR,352
LELN 050100Z AUTO 20010KT CAVOK 10/08 Q1015,LELN,2024-05-05T01:00:00Z,42.588,-5.651,10,8,200,10,,6+,29.97,,,TRUE,,,,,,,,CAVOK,,,,,,,,VFR,,,,,,,,,,,,METAR,911
LELL 050100Z AUTO VRB02KT CAVOK 14/06 Q1015,LELL,2024-05-05T01:00:00Z,41.521,2.105,14,6,VRB,2,,6+,29.97,,,TRUE,,,,,,,,CAVOK,,,,,,,,VFR,,,,,,,,,,,,METAR,136
LELC 050100Z AUTO 27004KT 9000 NCD 15/13 Q1015,LELC,2024-05-05T01:00:00Z,37.775,-0.812,15,13,270,4,,5.59,29.97,,,TRUE,,,,,,,,CLR,,,,,,,,VFR,,,,,,,,,,,,METAR,3
LEJR 050100Z AUTO VRB02KT 7000 NCD 11/09 Q1018,LEJR,2024-05-05T01:00:00Z,36.751,-6.056,11,9,VRB,2,,4.35,30.06,,,TRUE,,,,,,,,CLR,,,,,,,,MVFR,,,,,,,,,,,,METAR,25
LEIB 050100Z 23005KT CAVOK 16/14 Q1016 NOSIG,LEIB,2024-05-05T01:00:00Z,38.876,1.384,16,14,230,5,,6+,30.00,,,,,,TRUE,,,,,CAVOK,,,,,,,,VFR,,,,,,,,,,,,METAR,4
LEHC 050100Z AUTO 01003KT 340V040 CAVOK 14/10 Q1015,LEHC,2024-05-05T01:00:00Z,42.082,-0.324,14,10,10,3,,6+,29.97,,,TRUE,,,,,,,,CAVOK,,,,,,,,VFR,,,,,,,,,,,,METAR,540
LEGT 050100Z AUTO 21005KT 170V240 CAVOK 16/08 Q1017,LEGT,2024-05-05T01:00:00Z,40.299,-3.723,16,8,210,5,,6+,30.03,,,TRUE,,,,,,,,CAVOK,,,,,,,,VFR,,,,,,,,,,,,METAR,619
LEGR 050100Z AUTO 25003KT CAVOK 10/06 Q1019,LEGR,2024-05-05T01:00:00Z,37.19,-3.789,10,6,250,3,,6+,30.09,,,TRUE,,,,,,,,CAVOK,,,,,,,,VFR,,,,,,,,,,,,METAR,560
LEGE 050100Z 03003KT 340V050 CAVOK 13/12 Q1015,LEGE,2024-05-05T01:00:00Z,41.911,2.763,13,12,30,3,,6+,29.97,,,,,,,,,,,CAVOK,,,,,,,,VFR,,,,,,,,,,,,METAR,140
LEDA 050100Z AUTO 09007KT CAVOK 14/09 Q1014,LEDA,2024-05-05T01:00:00Z,41.734,0.538,14,9,90,7,,6+,29.94,,,TRUE,,,,,,,,CAVOK,,,,,,,,VFR,,,,,,,,,,,,METAR,352
LECO 050100Z AUTO 18013KT 140V210 4500 RA FEW023 14/12 Q1009,LECO,2024-05-05T01:00:00Z,43.307,-8.372,14,12,180,13,,2.8,29.79,,,TRUE,,,,,,,RA,FEW,2300,,,,,,,IFR,,,,,,,,,,,,METAR,80
LECH 050100Z AUTO VRB02KT CAVOK 14/09 Q1015,LECH,2024-05-05T01:00:00Z,40.211,0.067,14,9,VRB,2,,6+,29.97,,,TRUE,,,,,,,,CAVOK,,,,,,,,VFR,,,,,,,,,,,,METAR,360
LEBT 050100Z AUTO VRB01KT CAVOK 13/07 Q1014,LEBT,2024-05-05T01:00:00Z,39.58,-0.45,13,7,VRB,1,,6+,29.94,,,TRUE,,,,,,,,CAVOK,,,,,,,,VFR,,,,,,,,,,,,METAR,50
LEBR 050100Z AUTO 03004KT 330V070 CAVOK 13/08 Q1015,LEBR,2024-05-05T01:00:00Z,42.2,-1.43,13,8,30,4,,6+,29.97,,,TRUE,,,,,,,,CAVOK,,,,,,,,VFR,,,,,,,,,,,,METAR,347
LEBL 050100Z 23002KT CAVOK 16/12 Q1015 NOSIG,LEBL,2024-05-05T01:00:00Z,41.293,2.07,16,12,230,2,,6+,29.97,,,,,,TRUE,,,,,CAVOK,,,,,,,,VFR,,,,,,,,,,,,METAR,2
LEBG 050100Z AUTO 21010KT 9999 BKN043 BKN050 11/10 Q1016,LEBG,2024-05-05T01:00:00Z,42.356,-3.622,11,10,210,10,,6+,30.00,,,TRUE,,,,,,,,BKN,4300,BKN,5000,,,,,VFR,,,,,,,,,,,,METAR,892
LEBB 050100Z 08005KT 040V100 9999 FEW020 15/13 Q1013 NOSIG,LEBB,2024-05-05T01:00:00Z,43.298,-2.906,15,13,80,5,,6+,29.91,,,,,,TRUE,,,,,FEW,2000,,,,,,,VFR,,,,,,,,,,,,METAR,38
LEBA 050100Z AUTO 25005KT CAVOK 14/09 Q1017,LEBA,2024-05-05T01:00:00Z,37.842,-4.849,14,9,250,5,,6+,30.03,,,TRUE,,,,,,,,CAVOK,,,,,,,,VFR,,,,,,,,,,,,METAR,88
LEAS 050100Z AUTO 18006KT CAVOK 14/13 Q1010,LEAS,2024-05-05T01:00:00Z,43.567,-6.044,14,13,180,6,,6+,29.82,,,TRUE,,,,,,,,CAVOK,,,,,,,,VFR,,,,,,,,,,,,METAR,120
LEAM 050100Z AUTO 00000KT CAVOK 16/13 Q1016,LEAM,2024-05-05T01:00:00Z,36.846,-2.357,16,13,0,0,,6+,30.00,,,TRUE,,,,,,,,CAVOK,,,,,,,,VFR,,,,,,,,,,,,METAR,16
LEAL 050100Z 00000KT CAVOK 15/11 Q1015 NOSIG,LEAL,2024-05-05T01:00:00Z,38.282,-0.558,15,11,0,0,,6+,29.97,,,,,,TRUE,,,,,CAVOK,,,,,,,,VFR,,,,,,,,,,,,METAR,26
LEAG 050100Z AUTO 21003KT 180V320 CAVOK 17/09 Q1017,LEAG,2024-05-05T01:00:00Z,36.129,-5.441,17,9,210,3,,6+,30.03,,,TRUE,,,,,,,,CAVOK,,,,,,,,VFR,,,,,,,,,,,,METAR,4
LEAB 050100Z VRB02KT CAVOK 13/02 Q1018 NOSIG,LEAB,2024-05-05T01:00:00Z,38.952,-1.863,13,2,VRB,2,,6+,30.06,,,,,,TRUE,,,,,CAVOK,,,,,,,,VFR,,,,,,,,,,,,METAR,704
LDZD 050100Z VRB02KT CAVOK 09/09 Q1015,LDZD,2024-05-05T01:00:00Z,44.108,15.347,9,9,VRB,2,,6+,29.97,,,,,,,,,,,CAVOK,,,,,,,,VFR,,,,,,,,,,,,METAR,82
LDZA 050100Z 23002KT 9999 R22/0900U MIFG NSC 10/09 Q1014 TEMPO 1200 BR,LDZA,2024-05-05T01:00:00Z,45.729,16.054,10,9,230,2,,6+,29.94,,,,,,,,,,MIFG,CLR,,,,,,,,VFR,,,,,,,,,,,,METAR,103
LDSP 050100Z AUTO VRB01KT CAVOK 14/11 Q1015,LDSP,2024-05-05T01:00:00Z,43.539,16.301,14,11,VRB,1,,6+,29.97,,,TRUE,,,,,,,,CAVOK,,,,,,,,VFR,,,,,,,,,,,,METAR,16
LDRI 050100Z 28002KT CAVOK 13/11 Q1015,LDRI,2024-05-05T01:00:00Z,45.218,14.573,13,11,280,2,,6+,29.97,,,,,,,,,,,CAVOK,,,,,,,,VFR,,,,,,,,,,,,METAR,80
LDPL 050100Z 02003KT CAVOK 11/08 Q1015,LDPL,2024-05-05T01:00:00Z,44.894,13.922,11,8,20,3,,6+,29.97,,,,,,,,,,,CAVOK,,,,,,,,VFR,,,,,,,,,,,,METAR,63
LDOS 050100Z 24002KT CAVOK 12/11 Q1014,LDOS,2024-05-05T01:00:00Z,45.463,18.81,12,11,240,2,,6+,29.94,,,,,,,,,,,CAVOK,,,,,,,,VFR,,,,,,,,,,,,METAR,82
LDDU 050100Z 10008KT CAVOK 13/09 Q1015,LDDU,2024-05-05T01:00:00Z,42.56,18.269,13,9,100,8,,6+,29.97,,,,,,,,,,,CAVOK,,,,,,,,VFR,,,,,,,,,,,,METAR,156
LCPH 050100Z AUTO 28012KT 250V320 9999 SCT030 BKN039 OVC050 19/13 Q1006 NOSIG,LCPH,2024-05-05T01:00:00Z,34.715,32.479,19,13,280,12,,6+,29.70,,,TRUE,,,TRUE,,,,,SCT,3000,BKN,3900,OVC,5000,,,VFR,,,,,,,,,,,,METAR,8
LCLK 050100Z 29004KT 240V340 9999 FEW025 16/11 Q1006 NOSIG,LCLK,2024-05-05T01:00:00Z,34.874,33.617,16,11,290,4,,6+,29.70,,,,,,TRUE,,,,,FEW,2500,,,,,,,VFR,,,,,,,,,,,,METAR,2
LBWN 050100Z AUTO 03009KT 9999 NCD 11/07 Q1015 NOSIG,LBWN,2024-05-05T01:00:00Z,43.232,27.825,11,7,30,9,,6+,29.97,,,TRUE,,,TRUE,,,,,CLR,,,,,,,,VFR,,,,,,,,,,,,METAR,74
LBSF 050100Z AUTO VRB03KT 5000 BR SCT003/// BKN044/// 08/07 Q1017 NOSIG,LBSF,2024-05-05T01:00:00Z,42.694,23.414,8,7,VRB,3,,3.11,30.03,,,TRUE,,,TRUE,,,,BR,SCT,300,BKN,4400,,,,,MVFR,,,,,,,,,,,,METAR,531
LBPD 050100Z AUTO 19005KT 9999 NCD 08/08 Q1015,LBPD,2024-05-05T01:00:00Z,42.064,24.86,8,8,190,5,,6+,29.97,,,TRUE,,,,,,,,CLR,,,,,,,,VFR,,,,,,,,,,,,METAR,182
LBGO 050100Z AUTO 11001KT 0300 R09/0275D FG VV002 06/06 Q1016,LBGO,2024-05-05T01:00:00Z,43.151,25.713,6,6,110,1,,0.19,30.00,,,TRUE,,,,,,,FG,OVX,0,,,,,,,LIFR,,,,,,,,,,,200,METAR,84
LBBG 050100Z AUTO 03008KT 9999 BKN033/// 12/10 Q1014 NOSIG,LBBG,2024-05-05T01:00:00Z,42.569,27.514,12,10,30,8,,6+,29.94,,,TRUE,,,TRUE,,,,,BKN,3300,,,,,,,VFR,,,,,,,,,,,,METAR,41
KXER 050100Z AUTO 11011KT 9SM SCT013 BKN019 25/24 A2997 RMK A01,KXER,2024-05-05T01:00:00Z,27.946,-90.997,25,24,110,11,,9,29.97,,,TRUE,TRUE,,,,,,,SCT,1300,BKN,1900,,,,,MVFR,,,,,,,,,,,,METAR,40
KVAF 050100Z AUTO 12009G15KT 2 1/2SM HZ BKN018 BKN022 26/23 A2985 RMK A01,KVAF,2024-05-05T01:00:00Z,27.3536,-94.6253,26,23,120,9,15,2.5,29.85,,,TRUE,TRUE,,,,,,HZ,BKN,1800,BKN,2200,,,,,IFR,,,,,,,,,,,,METAR,38
KUES 050100Z 30007KT 10SM BKN018 BKN037 OVC090 16/16 A2987,KUES,2024-05-05T01:00:00Z,43.0425,-88.2465,16,16,300,7,,10+,29.87,,,,,,,,,,,BKN,1800,BKN,3700,OVC,9000,,,MVFR,,,,,,,,,,,,SPECI,273
KTTN 050100Z 09008KT 6SM -RA BR FEW008 OVC038 09/08 A3030 RMK AO2 P0000 T00940083,KTTN,2024-05-05T01:00:00Z,40.2768,-74.8159,9.4,8.3,90,8,,6,30.30,,,,TRUE,,,,,,-RA BR,FEW,800,OVC,3800,,,,,VFR,,,,,,0.005,,,,,,SPECI,58
KRUE 050100Z AUTO 22008KT 8SM VCTS FEW085 BKN110 22/20 A2998 RMK AO2 LTG DSNT ALQDS T02220200,KRUE,2024-05-05T01:00:00Z,35.2573,-93.095,22.2,20,220,8,,8,29.98,,,TRUE,TRUE,,,,,,VCTS,FEW,8500,BKN,11000,,,,,VFR,,,,,,,,,,,,SPECI,119
KQFW 050100Z AUTO 08001KT 3200 -SHRA OVC022 15/14 A2975 RMK A02 TSNO,KQFW,2024-05-05T01:00:00Z,-99.99,-99.99,15,14,80,1,,1.99,29.75,,,TRUE,TRUE,,,TRUE,,,-SHRA,OVC,2200,,,,,,,IFR,,,,,,,,,,,,METAR,9999
KQFT 050100Z AUTO 01003KT 1600 BR OVC015 16/15 A2989 RMK A02 TSNO,KQFT,2024-05-05T01:00:00Z,-99.99,-99.99,16,15,10,3,,0.99,29.89,,,TRUE,TRUE,,,TRUE,,,BR,OVC,1500,,,,,,,LIFR,,,,,,,,,,,,METAR,9999
KQFB 050100Z AUTO 14004KT 9000 HZ OVC030 19/15 A3005 RMK A02 TSNO,KQFB,2024-05-05T01:00:00Z,-99.99,-99.99,19,15,140,4,,5.59,30.05,,,TRUE,TRUE,,,TRUE,,,HZ,OVC,3000,,,,,,,MVFR,,,,,,,,,,,,METAR,9999
KQEY 050100Z AUTO 11004KT 9000 FEW024 OVC050 19/17 A2962 RMK A02 TSNO,KQEY,2024-05-05T01:00:00Z,-99.99,-99.99,19,17,110,4,,5.59,29.62,,,TRUE,TRUE,,,TRUE,,,,FEW,2400,OVC,5000,,,,,VFR,,,,,,,,,,,,METAR,9999
KQEX 050100Z AUTO 16004G11KT 6000 -RA FEW010 SCT029 BKN046 17/16 A2990 RMK A02 TSNO,KQEX,2024-05-05T01:00:00Z,-99.99,-99.99,17,16,160,4,11,3.73,29.90,,,TRUE,TRUE,,,TRUE,,,-RA,FEW,1000,SCT,2900,BKN,4600,,,MVFR,,,,,,,,,,,,METAR,9999
KQEV 050100Z AUTO 09002KT 2000 -RA BR FEW033 18/17 A2986 RMK A02 TSNO,KQEV,2024-05-05T01:00:00Z,-99.99,-99.99,18,17,90,2,,1.24,29.86,,,TRUE,TRUE,,,TRUE,,,-RA BR,FEW,3300,,,,,,,IFR,,,,,,,,,,,,METAR,9999
KQER 050100Z AUTO 02002KT 4000 -SHRA BR CLR 16/16 A2986 RMK A02 TSNO,KQER,2024-05-05T01:00:00Z,-99.99,-99.99,16,16,20,2,,2.49,29.86,,,TRUE,TRUE,,,TRUE,,,-SHRA BR,CLR,,,,,,,,IFR,,,,,,,,,,,,METAR,9999
KQEP 050100Z AUTO 14003KT 2800 -SHRA BKN013 OVC031 17/17 A2991 RMK A02 TSNO,KQEP,2024-05-05T01:00:00Z,-99.99,-99.99,17,17,140,3,,1.74,29.91,,,TRUE,TRUE,,,TRUE,,,-SHRA,BKN,1300,OVC,3100,,,,,IFR,,,,,,,,,,,,METAR,9999
KQEJ 050100Z AUTO 12001KT 4800 -RA OVC033 15/14 A2990 RMK A02 TSNO,KQEJ,2024-05-05T01:00:00Z,-99.99,-99.99,15,14,120,1,,2.98,29.90,,,TRUE,TRUE,,,TRUE,,,-RA,OVC,3300,,,,,,,IFR,,,,,,,,,,,,METAR,9999
KQEI 050100Z AUTO 25001KT 9000 HZ OVC029 17/14 A2991 RMK A02 TSNO,KQEI,2024-05-05T01:00:00Z,-99.99,-99.99,17,14,250,1,,5.59,29.91,,,TRUE,TRUE,,,TRUE,,,HZ,OVC,2900,,,,,,,MVFR,,,,,,,,,,,,METAR,9999
KPMH 050100Z AUTO 00000KT 7SM VCTSRA SCT020 SCT032 OVC090 18/16 A2997 RMK AO2 LTG DSNT S AND SW,KPMH,2024-05-05T01:00:00Z,38.8387,-82.8493,18,16,0,0,,7,29.97,,,TRUE,TRUE,,,,,,VCTSRA,SCT,2000,SCT,3200,OVC,9000,,,VFR,,,,,,,,,,,,METAR,200
KOXD 050100Z AUTO 17006KT 10SM SCT043 23/19 A2991 RMK AO2,KOXD,2024-05-05T01:00:00Z,39.5047,-84.7838,23,19,170,6,,10+,29.91,,,TRUE,TRUE,,,,,,,SCT,4300,,,,,,,VFR,,,,,,,,,,,,METAR,317
KNEL 050100Z AUTO 09007KT -RA FEW008 OVC042 10/09 A3030 RMK AO2 RAB0019 SLP260 P0000 T01000089 $,KNEL,2024-05-05T01:00:00Z,40.037,-74.326,10,8.9,90,7,,,30.30,1026,,TRUE,TRUE,TRUE,,,,,-RA,FEW,800,OVC,4200,,,,,,,,,,,0.005,,,,,,METAR,26
KM08 050100Z AUTO 00000KT 10SM CLR 23/19 A2995 RMK A01,KM08,2024-05-05T01:00:00Z,35.2155,-89.0449,23,19,0,0,,10+,29.95,,,TRUE,TRUE,,,,,,,CLR,,,,,,,,VFR,,,,,,,,,,,,METAR,149
KGUL 050100Z AUTO 12010KT 3SM BR CLR A2986 RMK A01,KGUL,2024-05-05T01:00:00Z,27.3039,-93.5383,,,120,10,,3,29.86,,,TRUE,TRUE,,,,,,BR,CLR,,,,,,,,MVFR,,,,,,,,,,,,METAR,20
KGHB 050100Z AUTO 6SM BR CLR 25/24 A2994 RMK A01,KGHB,2024-05-05T01:00:00Z,27.8403,-91.9878,25,24,,,,6,29.94,,,TRUE,TRUE,,,,,,BR,CLR,,,,,,,,VFR,,,,,,,,,,,,METAR,30
KEFT 050100Z AUTO 33012G19KT 10SM SCT039 OVC045 14/12 A2991 RMK AO2 T01350119,KEFT,2024-05-05T01:00:00Z,42.6196,-89.5931,13.5,11.9,330,12,19,10+,29.91,,,TRUE,TRUE,,,,,,,SCT,3900,OVC,4500,,,,,VFR,,,,,,,,,,,,METAR,332
KDSF 050100Z AUTO 05006KT 9SM CLR 25/24 A3000 RMK A01,KDSF,2024-05-05T01:00:00Z,28.3426,-88.2649,25,24,50,6,,9,30.00,,,TRUE,TRUE,,,,,,,CLR,,,,,,,,VFR,,,,,,,,,,,,METAR,40
KCVH 050100Z AUTO 26008KT 10SM FEW030 BKN038 OVC048 11/08 A2989 RMK A01,KCVH,2024-05-05T01:00:00Z,36.8919,-121.41,11,8,260,8,,10+,29.89,,,TRUE,TRUE,,,,,,,FEW,3000,BKN,3800,OVC,4800,,,VFR,,,,,,,,,,,,METAR,68
KATP 050100Z AUTO 11012KT 8SM FEW020 26/23 A2996 RMK A01,KATP,2024-05-05T01:00:00Z,27.1956,-90.0269,26,23,110,12,,8,29.96,,,TRUE,TRUE,,,,,,,FEW,2000,,,,,,,VFR,,,,,,,,,,,,METAR,50
KANR 050100Z AUTO 11017KT 10SM CLR 25/22 A3005 RMK A01,KANR,2024-05-05T01:00:00Z,27.2264,-91.19,25,22,110,17,,10+,30.05,,,TRUE,TRUE,,,,,,,CLR,,,,,,,,VFR,,,,,,,,,,,,METAR,92
K3U3 050100Z AUTO 11005KT 10SM 15/M06 A2966 ,K3U3,2024-05-05T01:00:00Z,46.1516,-112.868,15,-6,110,5,,10+,29.66,,,TRUE,,,,,,,,,,,,,,,,VFR,,,,,,,,,,,,METAR,1534
K38S 050100Z AUTO 13010G14KT 10SM 16/04 A2968 ,K38S,2024-05-05T01:00:00Z,46.389,-112.769,16,4,130,10,14,10+,29.68,,,TRUE,,,,,,,,,,,,,,,,VFR,,,,,,,,,,,,METAR,1430
HRYR 050100Z 28003KT 9999 SCT023 BKN100 19/18 Q1020 NOSIG,HRYR,2024-05-05T01:00:00Z,-1.969,30.14,19,18,280,3,,6+,30.12,,,,,,TRUE,,,,,SCT,2300,BKN,10000,,,,,VFR,,,,,,,,,,,,METAR,1493
HETR 050100Z 33005KT CAVOK 24/13 Q1007,HETR,2024-05-05T01:00:00Z,28.209,33.646,24,13,330,5,,6+,29.73,,,,,,,,,,,CAVOK,,,,,,,,VFR,,,,,,,,,,,,METAR,35
HESW 050100Z 02008KT CAVOK 16/04 Q1013,HESW,2024-05-05T01:00:00Z,29.346,25.507,16,4,20,8,,6+,29.91,,,,,,,,,,,CAVOK,,,,,,,,VFR,,,,,,,,,,,,METAR,101
HECA 050100Z 31005KT CAVOK 21/08 Q1010 NOSIG,HECA,2024-05-05T01:00:00Z,30.133,31.405,21,8,310,5,,6+,29.82,,,,,,TRUE,,,,,CAVOK,,,,,,,,VFR,,,,,,,,,,,,METAR,142
GVSV 050100Z 06016KT 9999 FEW020 22/18 Q1014 NOSIG,GVSV,2024-05-05T01:00:00Z,16.833,-25.055,22,18,60,16,,6+,29.94,,,,,,TRUE,,,,,FEW,2000,,,,,,,VFR,,,,,,,,,,,,METAR,16
GVNP 050100Z 02008KT 9999 FEW016 24/15 Q1014 NOSIG,GVNP,2024-05-05T01:00:00Z,14.947,-23.484,24,15,20,8,,6+,29.94,,,,,,TRUE,,,,,FEW,1600,,,,,,,VFR,,,,,,,,,,,,METAR,70
GVAC 050100Z 03012KT 9999 FEW013 22/19 Q1015 NOSIG,GVAC,2024-05-05T01:00:00Z,16.742,-22.949,22,19,30,12,,6+,29.97,,,,,,TRUE,,,,,FEW,1300,,,,,,,VFR,,,,,,,,,,,,METAR,54
GQPP 050100Z 35013KT 6000 NSC 18/16 Q1013 NOSIG,GQPP,2024-05-05T01:00:00Z,20.929,-17.031,18,16,350,13,,3.73,29.91,,,,,,TRUE,,,,,CLR,,,,,,,,MVFR,,,,,,,,,,,,METAR,5
GMTT 050100Z VRB01KT CAVOK 13/13 Q1018 NOSIG,GMTT,2024-05-05T01:00:00Z,35.727,-5.917,13,13,VRB,1,,6+,30.06,,,,,,TRUE,,,,,CAVOK,,,,,,,,VFR,,,,,,,,,,,,METAR,19
GMTN 050100Z 22013KT CAVOK 17/09 Q1017 NOSIG,GMTN,2024-05-05T01:00:00Z,35.594,-5.32,17,9,220,13,,6+,30.03,,,,,,TRUE,,,,,CAVOK,,,,,,,,VFR,,,,,,,,,,,,METAR,10
GMTA 050100Z 16007KT CAVOK 18/08 Q1015 NOSIG,GMTA,2024-05-05T01:00:00Z,35.177,-3.84,18,8,160,7,,6+,29.97,,,,,,TRUE,,,,,CAVOK,,,,,,,,VFR,,,,,,,,,,,,METAR,14
GMMZ 050100Z VRB02KT CAVOK 19/M07 Q1019 NOSIG,GMMZ,2024-05-05T01:00:00Z,30.939,-6.909,19,-7,VRB,2,,6+,30.09,,,,,,TRUE,,,,,CAVOK,,,,,,,,VFR,,,,,,,,,,,,METAR,1139
GMMX 050100Z 09004KT CAVOK 20/04 Q1018 NOSIG,GMMX,2024-05-05T01:00:00Z,31.607,-8.036,20,4,90,4,,6+,30.06,,,,,,TRUE,,,,,CAVOK,,,,,,,,VFR,,,,,,,,,,,,METAR,465
GMMW 050100Z VRB02KT CAVOK 13/07 Q1017 NOSIG,GMMW,2024-05-05T01:00:00Z,34.993,-3.025,13,7,VRB,2,,6+,30.03,,,,,,TRUE,,,,,CAVOK,,,,,,,,VFR,,,,,,,,,,,,METAR,174
GMMN 050100Z 05006KT 5000 BKN007 15/12 Q1019 NOSIG,GMMN,2024-05-05T01:00:00Z,33.367,-7.59,15,12,50,6,,3.11,30.09,,,,,,TRUE,,,,,BKN,700,,,,,,,IFR,,,,,,,,,,,,METAR,196
GMMI 050100Z AUTO 02007KT 350V050 6000 NSC 16/10 Q1017 NOSIG,GMMI,2024-05-05T01:00:00Z,31.406,-9.687,16,10,20,7,,3.73,30.03,,,TRUE,,,TRUE,,,,,CLR,,,,,,,,MVFR,,,,,,,,,,,,METAR,102
GMME 050100Z 00000KT 5000 SCT016 12/11 Q1019 NOSIG,GMME,2024-05-05T01:00:00Z,34.051,-6.752,12,11,0,0,,3.11,30.09,,,,,,TRUE,,,,,SCT,1600,,,,,,,MVFR,,,,,,,,,,,,METAR,84
GMMB 050100Z AUTO 06005KT //// NSC 12/12 Q1019 NOSIG,GMMB,2024-05-05T01:00:00Z,33.655,-7.221,12,12,60,5,,,30.09,,,TRUE,,,TRUE,,,,,CLR,,,,,,,,,,,,,,,,,,,,METAR,191
GMFO 050100Z 20007KT CAVOK 14/M06 Q1018 NOSIG,GMFO,2024-05-05T01:00:00Z,34.787,-1.924,14,-6,200,7,,6+,30.06,,,,,,TRUE,,,,,CAVOK,,,,,,,,VFR,,,,,,,,,,,,METAR,452
GMFM 050100Z 17005KT CAVOK 11/07 Q1019 NOSIG,GMFM,2024-05-05T01:00:00Z,33.875,-5.52,11,7,170,5,,6+,30.09,,,,,,TRUE,,,,,CAVOK,,,,,,,,VFR,,,,,,,,,,,,METAR,569
GMFK 050100Z 01003KT CAVOK 21/M16 Q1020 NOSIG,GMFK,2024-05-05T01:00:00Z,31.946,-4.399,21,-16,10,3,,6+,30.12,,,,,,TRUE,,,,,CAVOK,,,,,,,,VFR,,,,,,,,,,,,METAR,1033
GMFF 050100Z 20006KT CAVOK 11/09 Q1019 NOSIG,GMFF,2024-05-05T01:00:00Z,33.929,-4.976,11,9,200,6,,6+,30.09,,,,,,TRUE,,,,,CAVOK,,,,,,,,VFR,,,,,,,,,,,,METAR,575
GMFB 050100Z AUTO 05004KT CAVOK 19/M02 Q1020 NOSIG,GMFB,2024-05-05T01:00:00Z,32.514,-1.978,19,-2,50,4,,6+,30.12,,,TRUE,,,TRUE,,,,,CAVOK,,,,,,,,VFR,,,,,,,,,,,,METAR,1106
GMAG 050100Z AUTO 19007KT 6000 15/13 Q1017,GMAG,2024-05-05T01:00:00Z,29.031,-10.051,15,13,190,7,,3.73,30.03,,,TRUE,,,,,,,,,,,,,,,,MVFR,,,,,,,,,,,,METAR,333
GMAD 050100Z 00000KT CAVOK 14/14 Q1016 NOSIG,GMAD,2024-05-05T01:00:00Z,30.325,-9.413,14,14,0,0,,6+,30.00,,,,,,TRUE,,,,,CAVOK,,,,,,,,VFR,,,,,,,,,,,,METAR,66
GEML 050100Z AUTO 14003KT CAVOK 17/06 Q1016,GEML,2024-05-05T01:00:00Z,35.278,-2.956,17,6,140,3,,6+,30.00,,,TRUE,,,,,,,,CAVOK,,,,,,,,VFR,,,,,,,,,,,,METAR,48
GECE 050100Z AUTO 09004KT 060V130 CAVOK 19/06 Q1017,GECE,2024-05-05T01:00:00Z,35.893,-5.306,19,6,90,4,,6+,30.03,,,TRUE,,,,,,,,CAVOK,,,,,,,,VFR,,,,,,,,,,,,METAR,2
GCXO 050100Z AUTO 27006KT CAVOK 17/M03 Q1021,GCXO,2024-05-05T01:00:00Z,28.483,-16.342,17,-3,270,6,,6+,30.15,,,TRUE,,,,,,,,CAVOK,,,,,,,,VFR,,,,,,,,,,,,METAR,623
GCTS 050100Z 05008KT CAVOK 19/14 Q1020 NOSIG,GCTS,2024-05-05T01:00:00Z,28.047,-16.561,19,14,50,8,,6+,30.12,,,,,,TRUE,,,,,CAVOK,,,,,,,,VFR,,,,,,,,,,,,METAR,59
GCRR 050100Z AUTO 02013KT CAVOK 18/14 Q1019,GCRR,2024-05-05T01:00:00Z,28.952,-13.6,18,14,20,13,,6+,30.09,,,TRUE,,,,,,,,CAVOK,,,,,,,,VFR,,,,,,,,,,,,METAR,9
GCLP 050100Z 01017KT 9999 FEW030 19/14 Q1019 NOSIG,GCLP,2024-05-05T01:00:00Z,27.923,-15.389,19,14,10,17,,6+,30.09,,,,,,TRUE,,,,,FEW,3000,,,,,,,VFR,,,,,,,,,,,,METAR,16
GCLA 050100Z AUTO 33008KT CAVOK 19/14 Q1021,GCLA,2024-05-05T01:00:00Z,28.633,-17.755,19,14,330,8,,6+,30.15,,,TRUE,,,,,,,,CAVOK,,,,,,,,VFR,,,,,,,,,,,,METAR,20
GCHI 050100Z AUTO 36013KT 330V040 9999 BKN018 20/16 Q1020,GCHI,2024-05-05T01:00:00Z,27.819,-17.889,20,16,360,13,,6+,30.12,,,TRUE,,,,,,,,BKN,1800,,,,,,,MVFR,,,,,,,,,,,,METAR,21
GCGM 050100Z AUTO 24004KT 220V280 CAVOK 18/16 Q1020 RMK R09/27004KT ARP/26004KT 240V300,GCGM,2024-05-05T01:00:00Z,28.032,-17.211,18,16,240,4,,6+,30.12,,,TRUE,,,,,,,,CAVOK,,,,,,,,VFR,,,,,,,,,,,,METAR,217
GCFV 050100Z AUTO 01010KT 9999 FEW017 18/14 Q1019,GCFV,2024-05-05T01:00:00Z,28.445,-13.863,18,14,10,10,,6+,30.09,,,TRUE,,,,,,,,FEW,1700,,,,,,,VFR,,,,,,,,,,,,METAR,11
FYWH 050100Z AUTO 29004KT //// // ////// 08/00 Q1025,FYWH,2024-05-05T01:00:00Z,-22.481,17.47,8,0,290,4,,,30.27,,,TRUE,,,,,,,,,,,,,,,,,,,,,,,,,,,,METAR,1699
FYWE 050100Z AUTO 17005KT //// // ////// 12/M00 Q1026,FYWE,2024-05-05T01:00:00Z,-22.612,17.08,12,0,170,5,,,30.30,,,TRUE,,,,,,,,,,,,,,,,,,,,,,,,,,,,METAR,1700
FYWB 050100Z AUTO 06007KT //// // ////// 15/13 Q1014,FYWB,2024-05-05T01:00:00Z,-22.98,14.645,15,13,60,7,,,29.94,,,TRUE,,,,,,,,,,,,,,,,,,,,,,,,,,,,METAR,87
FYRU 050100Z AUTO 19001KT //// // ////// 16/01 Q1022,FYRU,2024-05-05T01:00:00Z,-17.956,19.724,16,1,190,1,,,30.18,,,TRUE,,,,,,,,,,,,,,,,,,,,,,,,,,,,METAR,1104
FYOG 050100Z AUTO 15010KT 0900 R02/1100U FG VV002 13/13 Q1017,FYOG,2024-05-05T01:00:00Z,-28.585,16.447,13,13,150,10,,0.56,30.03,,,TRUE,,,,,,,FG,OVX,0,,,,,,,LIFR,,,,,,,,,,,200,METAR,6
FYOA 050100Z AUTO 05004KT //// // ////// 18/04 Q1016,FYOA,2024-05-05T01:00:00Z,-17.878,15.953,18,4,50,4,,,30.00,,,TRUE,,,,,,,,,,,,,,,,,,,,,,,,,,,,METAR,1099
FYLZ 050100Z AUTO /////KT //// // ////// 14/13 Q1015,FYLZ,2024-05-05T01:00:00Z,-26.687,15.243,14,13,,,,,29.97,,,TRUE,,,,,,,,,,,,,,,,,,,,,,,,,,,,METAR,129
FYKT 050100Z AUTO 08006KT //// // ////// 17/05 Q1021,FYKT,2024-05-05T01:00:00Z,-26.54,18.111,17,5,80,6,,,30.15,,,TRUE,,,,,,,,,,,,,,,,,,,,,,,,,,,,METAR,1064
FYKM 050100Z AUTO 03001KT //// // ////// 12/06 Q1018,FYKM,2024-05-05T01:00:00Z,-17.634,24.177,12,6,30,1,,,30.06,,,TRUE,,,,,,,,,,,,,,,,,,,,,,,,,,,,METAR,959
FYGF 050100Z AUTO 02003KT //// // ////// 12/M00 Q1023,FYGF,2024-05-05T01:00:00Z,-19.599,18.116,12,0,20,3,,,30.21,,,TRUE,,,,,,,,,,,,,,,,,,,,,,,,,,,,METAR,1407
FSIA 050100Z 18003KT 140V200 9999 SCT019 28/26 Q1008 NOSIG,FSIA,2024-05-05T01:00:00Z,-4.674,55.522,28,26,180,3,,6+,29.76,,,,,,TRUE,,,,,SCT,1900,,,,,,,VFR,,,,,,,,,,,,METAR,3
FQXA 050100Z 04003KT 9999 FEW020 17/16 Q1020,FQXA,2024-05-05T01:00:00Z,-25.038,33.627,17,16,40,3,,6+,30.12,,,,,,,,,,,FEW,2000,,,,,,,VFR,,,,,,,,,,,,METAR,3
FQNP 050100Z 22009KT 9999 FEW020 20/19 Q1017,FQNP,2024-05-05T01:00:00Z,-15.106,39.282,20,19,220,9,,6+,30.03,,,,,,,,,,,FEW,2000,,,,,,,VFR,,,,,,,,,,,,METAR,434
FQMA 050100Z 36005KT CAVOK 18/17 Q1018 NOSIG,FQMA,2024-05-05T01:00:00Z,-25.921,32.573,18,17,360,5,,6+,30.06,,,,,,TRUE,,,,,CAVOK,,,,,,,,VFR,,,,,,,,,,,,METAR,34
FQLC 050100Z 15006KT 9999 SCT016 15/13 Q1022,FQLC,2024-05-05T01:00:00Z,-13.271,35.265,15,13,150,6,,6+,30.18,,,,,,,,,,,SCT,1600,,,,,,,VFR,,,,,,,,,,,,METAR,1362
FQBR 050100Z 20003KT 9999 FEW018 24/17 Q1016,FQBR,2024-05-05T01:00:00Z,-19.796,34.908,24,17,200,3,,6+,30.00,,,,,,,,,,,FEW,1800,,,,,,,VFR,,,,,,,,,,,,METAR,14
FNLU 050100Z VRB03KT 9999 SCT020 25/// Q1008,FNLU,2024-05-05T01:00:00Z,-8.858,13.231,,,VRB,3,,6+,29.76,,,,,,,,,,,SCT,2000,,,,,,,VFR,,,,,,,,,,,,METAR,75
FMMI 050100Z 15007KT 9999 FEW017 BKN020 16/15 Q1023 NOSIG,FMMI,2024-05-05T01:00:00Z,-18.797,47.479,16,15,150,7,,6+,30.21,,,,,,TRUE,,,,,FEW,1700,BKN,2000,,,,,MVFR,,,,,,,,,,,,METAR,1269
FMEP 050100Z AUTO 10011KT 9999 BKN039 BKN048 22/18 Q1018,FMEP,2024-05-05T01:00:00Z,-21.32,55.425,22,18,100,11,,6+,30.06,,,TRUE,,,,,,,,BKN,3900,BKN,4800,,,,,VFR,,,,,,,,,,,,METAR,21
FMEE 050100Z AUTO 13015KT CAVOK 23/17 Q1016 BECMG 13018G28KT,FMEE,2024-05-05T01:00:00Z,-20.887,55.51,23,17,130,15,,6+,30.00,,,TRUE,,,,,,,,CAVOK,,,,,,,,VFR,,,,,,,,,,,,METAR,20
FMCZ 050100Z AUTO 15009KT 9999 SCT018 28/25 Q1011 NOSIG,FMCZ,2024-05-05T01:00:00Z,-12.805,45.281,28,25,150,9,,6+,29.85,,,TRUE,,,TRUE,,,,,SCT,1800,,,,,,,VFR,,,,,,,,,,,,METAR,7
FIMP 050100Z 14012KT 8000 VCSH SCT015 BKN050 23/21 Q1016 RESH,FIMP,2024-05-05T01:00:00Z,-20.434,57.684,23,21,140,12,,4.97,30.00,,,,,,,,,,VCSH,SCT,1500,BKN,5000,,,,,MVFR,,,,,,,,,,,,METAR,57
FGSL 050100Z 23003KT 9999 FEW010 26/25 Q1010 NOSIG,FGSL,2024-05-05T01:00:00Z,3.756,8.71,26,25,230,3,,6+,29.82,,,,,,TRUE,,,,,FEW,1000,,,,,,,VFR,,,,,,,,,,,,METAR,23
FDPP 050100Z AUTO 34006KT //// // ////// 18/11 Q1024,FDPP,2024-05-05T01:00:00Z,-25.966,31.249,18,11,340,6,,,30.24,,,TRUE,,,,,,,,,,,,,,,,,,,,,,,,,,,,METAR,1023
FDMY 050100Z AUTO 04003KT //// // ////// 17/15 Q1030,FDMY,2024-05-05T01:00:00Z,-25.893,31.51,17,15,40,3,,,30.41,,,TRUE,,,,,,,,,,,,,,,,,,,,,,,,,,,,METAR,401
FDBB 050100Z AUTO 00000KT //// // ////// 13/12 Q1017,FDBB,2024-05-05T01:00:00Z,-26.815,31.934,13,12,0,0,,,30.03,,,TRUE,,,,,,,,,,,,,,,,,,,,,,,,,,,,METAR,106
FBSK 050100Z 26002KT CAVOK 11/08 Q1022 NOSIG,FBSK,2024-05-05T01:00:00Z,-24.555,25.918,11,8,260,2,,6+,30.18,,,,,,TRUE,,,,,CAVOK,,,,,,,,VFR,,,,,,,,,,,,METAR,1007
FAWB 050100Z AUTO 00000KT //// // ////// 10/06 Q1023,FAWB,2024-05-05T01:00:00Z,-25.654,28.224,10,6,0,0,,,30.21,,,TRUE,,,,,,,,,,,,,,,,,,,,,,,,,,,,METAR,1245
FAVV 050100Z AUTO 29001KT //// // ////// 07/03 Q1027,FAVV,2024-05-05T01:00:00Z,-26.566,27.961,7,3,290,1,,,30.32,,,TRUE,,,,,,,,,,,,,,,,,,,,,,,,,,,,METAR,1480
FAUT 050100Z AUTO 22014KT //// // ////// 15/14 Q1017,FAUT,2024-05-05T01:00:00Z,-31.546,28.673,15,14,220,14,,,30.03,,,TRUE,,,,,,,,,,,,,,,,,,,,,,,,,,,,METAR,735
FAUP 050100Z 34001KT CAVOK 13/04 Q1020 NOSIG,FAUP,2024-05-05T01:00:00Z,-28.399,21.26,13,4,340,1,,6+,30.12,,,,,,TRUE,,,,,CAVOK,,,,,,,,VFR,,,,,,,,,,,,METAR,845
FAPP 050100Z AUTO 21005KT //// // ////// 09/07 Q1026,FAPP,2024-05-05T01:00:00Z,-23.845,29.459,9,7,210,5,,,30.30,,,TRUE,,,,,,,,,,,,,,,,,,,,,,,,,,,,METAR,1238
FAPE 050100Z VRB02KT CAVOK 15/12 Q1017 NOSIG,FAPE,2024-05-05T01:00:00Z,-33.985,25.617,15,12,VRB,2,,6+,30.03,,,,,,TRUE,,,,,CAVOK,,,,,,,,VFR,,,,,,,,,,,,METAR,58
FAOR 050100Z 28004KT CAVOK 15/02 Q1026 NOSIG,FAOR,2024-05-05T01:00:00Z,-26.139,28.246,15,2,280,4,,6+,30.30,,,,,,TRUE,,,,,CAVOK,,,,,,,,VFR,,,,,,,,,,,,METAR,1684
FAMM 050100Z AUTO 06005KT //// // ////// 12/04 Q1024,FAMM,2024-05-05T01:00:00Z,-25.798,25.548,12,4,60,5,,,30.24,,,TRUE,,,,,,,,,,,,,,,,,,,,,,,,,,,,METAR,1280
FALW 050100Z AUTO 01004KT //// // ////// 14/14 Q1017,FALW,2024-05-05T01:00:00Z,-32.972,18.158,14,14,10,4,,,30.03,,,TRUE,,,,,,,,,,,,,,,,,,,,,,,,,,,,METAR,31
FALE 050100Z VRB02KT CAVOK 16/15 Q1013 NOSIG,FALE,2024-05-05T01:00:00Z,-29.602,31.13,16,15,VRB,2,,6+,29.91,,,,,,TRUE,,,,,CAVOK,,,,,,,,VFR,,,,,,,,,,,,METAR,109
FALA 050100Z AUTO 00000KT //// ///////// 10/04 Q1026 NOSIG,FALA,2024-05-05T01:00:00Z,-25.939,27.926,10,4,0,0,,,30.30,,,TRUE,,,TRUE,,,,,,,,,,,,,,,,,,,,,,,,,METAR,1365
FAKN 050100Z AUTO 26003KT //// // ////// 16/13 Q1023,FAKN,2024-05-05T01:00:00Z,-25.383,31.106,16,13,260,3,,,30.21,,,TRUE,,,,,,,,,,,,,,,,,,,,,,,,,,,,METAR,864
FAKM 050100Z AUTO 33003KT //// // ////// 11/05 Q1022,FAKM,2024-05-05T01:00:00Z,-28.803,24.765,11,5,330,3,,,30.18,,,TRUE,,,,,,,,,,,,,,,,,,,,,,,,,,,,METAR,1203
FAJB 050100Z AUTO 00000KT //// // ////// 08/02 Q1026,FAJB,2024-05-05T01:00:00Z,-26.15,28,8,2,0,0,,,30.30,,,TRUE,,,,,,,,,,,,,,,,,,,,,,,,,,,,METAR,1626
FACT 050100Z 03011KT 9999 SCT020 15/13 Q1017 NOSIG,FACT,2024-05-05T01:00:00Z,-33.965,18.602,15,13,30,11,,6+,30.03,,,,,,TRUE,,,,,SCT,2000,,,,,,,VFR,,,,,,,,,,,,METAR,48
EPWR 050100Z VRB01KT 9999 MIFG NSC 12/11 Q1012,EPWR,2024-05-05T01:00:00Z,51.1032,16.8998,12,11,VRB,1,,6+,29.88,,,,,,,,,,MIFG,CLR,,,,,,,,VFR,,,,,,,,,,,,METAR,118
EPWA 050100Z 13003KT CAVOK 13/07 Q1012 NOSIG,EPWA,2024-05-05T01:00:00Z,52.163,20.961,13,7,130,3,,6+,29.88,,,,,,TRUE,,,,,CAVOK,,,,,,,,VFR,,,,,,,,,,,,METAR,107
EPSY 050100Z 00000KT CAVOK 08/07 Q1012,EPSY,2024-05-05T01:00:00Z,53.482,20.938,8,7,0,0,,6+,29.88,,,,,,,,,,,CAVOK,,,,,,,,VFR,,,,,,,,,,,,METAR,136
EPSC 050100Z 06007KT 5000 BR SCT001 BKN002 10/10 Q1011,EPSC,2024-05-05T01:00:00Z,53.585,14.902,10,10,60,7,,3.11,29.85,,,,,,,,,,BR,SCT,100,BKN,200,,,,,LIFR,,,,,,,,,,,,METAR,47
EPRZ 050100Z VRB01KT CAVOK 07/05 Q1014,EPRZ,2024-05-05T01:00:00Z,50.112,22.025,7,5,VRB,1,,6+,29.94,,,,,,,,,,,CAVOK,,,,,,,,VFR,,,,,,,,,,,,METAR,206
EPRA 050100Z 21008KT CAVOK 13/06 Q1013,EPRA,2024-05-05T01:00:00Z,51.39,21.211,13,6,210,8,,6+,29.91,,,,,,,,,,,CAVOK,,,,,,,,VFR,,,,,,,,,,,,METAR,182
EPPO 050100Z VRB02KT 7000 2200W NSC 11/11 Q1011,EPPO,2024-05-05T01:00:00Z,52.417,16.835,11,11,VRB,2,,4.35,29.85,,,,,,,,,,,CLR,,,,,,,,MVFR,,,,,,,,,,,,METAR,87
EPMO 050100Z 21007KT CAVOK 16/07 Q1012,EPMO,2024-05-05T01:00:00Z,52.452,20.642,16,7,210,7,,6+,29.88,,,,,,,,,,,CAVOK,,,,,,,,VFR,,,,,,,,,,,,METAR,102
EPLL 050100Z 11004KT CAVOK 12/06 Q1013,EPLL,2024-05-05T01:00:00Z,51.724,19.401,12,6,110,4,,6+,29.91,,,,,,,,,,,CAVOK,,,,,,,,VFR,,,,,,,,,,,,METAR,176
EPLB 050100Z 23005KT CAVOK 13/06 Q1013,EPLB,2024-05-05T01:00:00Z,51.239,22.714,13,6,230,5,,6+,29.91,,,,,,,,,,,CAVOK,,,,,,,,VFR,,,,,,,,,,,,METAR,206
EPKT 050100Z 04002KT CAVOK 06/04 Q1013,EPKT,2024-05-05T01:00:00Z,50.478,19.085,6,4,40,2,,6+,29.91,,,,,,,,,,,CAVOK,,,,,,,,VFR,,,,,,,,,,,,METAR,296
EPKK 050100Z 05005KT CAVOK 08/06 Q1013,EPKK,2024-05-05T01:00:00Z,50.078,19.797,8,6,50,5,,6+,29.91,,,,,,,,,,,CAVOK,,,,,,,,VFR,,,,,,,,,,,,METAR,237
EPGD 050100Z VRB02KT 4000 MIFG BR FEW000 10/09 Q1012,EPGD,2024-05-05T01:00:00Z,54.379,18.466,10,9,VRB,2,,2.49,29.88,,,,,,,,,,MIFG BR,FEW,0,,,,,,,IFR,,,,,,,,,,,,METAR,136
EPBY 050100Z 07004KT CAVOK 12/10 Q1011,EPBY,2024-05-05T01:00:00Z,53.0962,17.9949,12,10,70,4,,6+,29.85,,,,,,,,,,,CAVOK,,,,,,,,VFR,,,,,,,,,,,,METAR,66
EINN 050100Z 02003KT 9999 BCFG FEW001 06/05 Q1008 NOSIG,EINN,2024-05-05T01:00:00Z,52.702,-8.925,6,5,20,3,,6+,29.76,,,,,,TRUE,,,,BCFG,FEW,100,,,,,,,VFR,,,,,,,,,,,,METAR,20
EIME 050100Z 22003KT 9999 FEW014 BKN030 10/09 Q1007,EIME,2024-05-05T01:00:00Z,53.306,-6.442,10,9,220,3,,6+,29.73,,,,,,,,,,,FEW,1400,BKN,3000,,,,,MVFR,,,,,,,,,,,,METAR,90
EIDW 050100Z VRB03KT 9999 FEW018 BKN027 10/09 Q1007 NOSIG,EIDW,2024-05-05T01:00:00Z,53.422,-6.298,10,9,VRB,3,,6+,29.73,,,,,,TRUE,,,,,FEW,1800,BKN,2700,,,,,MVFR,,,,,,,,,,,,METAR,75
EICK 050100Z 03006KT 9999 FEW030 07/06 Q1007 NOSIG,EICK,2024-05-05T01:00:00Z,51.848,-8.479,7,6,30,6,,6+,29.73,,,,,,TRUE,,,,,FEW,3000,,,,,,,VFR,,,,,,,,,,,,METAR,158
DTTZ 050100Z 09020KT 8000 NSC 20/07 Q1016,DTTZ,2024-05-05T01:00:00Z,33.94,8.111,20,7,90,20,,4.97,30.00,,,,,,,,,,,CLR,,,,,,,,MVFR,,,,,,,,,,,,METAR,87
DTTX 050100Z 26004KT 9999 FEW030 17/11 Q1019,DTTX,2024-05-05T01:00:00Z,34.718,10.691,17,11,260,4,,6+,30.09,,,,,,,,,,,FEW,3000,,,,,,,VFR,,,,,,,,,,,,METAR,17
DTTR 050100Z AUTO 08008KT NCD 20/07 Q1018,DTTR,2024-05-05T01:00:00Z,31.703,9.257,20,7,80,8,,,30.06,,,TRUE,,,,,,,,CLR,,,,,,,,,,,,,,,,,,,,METAR,253
DTTN 050100Z 22004KT 8000 FEW020 09/05 Q1018,DTTN,2024-05-05T01:00:00Z,36.483,8.8,9,5,220,4,,4.97,30.06,,,,,,,,,,,FEW,2000,,,,,,,MVFR,,,,,,,,,,,,METAR,145
DTTL 050100Z 00000KT CAVOK 13/07 Q1019,DTTL,2024-05-05T01:00:00Z,36.85,11.083,13,7,0,0,,6+,30.09,,,,,,,,,,,CAVOK,,,,,,,,VFR,,,,,,,,,,,,METAR,18
DTTK 050100Z VRB02KT CAVOK 17/05 Q1019,DTTK,2024-05-05T01:00:00Z,35.667,10.1,17,5,VRB,2,,6+,30.09,,,,,,,,,,,CAVOK,,,,,,,,VFR,,,,,,,,,,,,METAR,65
DTTJ 050100Z 15004KT CAVOK 16/11 Q1018 NOSIG,DTTJ,2024-05-05T01:00:00Z,33.875,10.775,16,11,150,4,,6+,30.06,,,,,,TRUE,,,,,CAVOK,,,,,,,,VFR,,,,,,,,,,,,METAR,3
DTTG 050100Z 08009KT CAVOK 16/08 Q1018 NOSIG,DTTG,2024-05-05T01:00:00Z,33.733,9.918,16,8,80,9,,6+,30.06,,,,,,TRUE,,,,,CAVOK,,,,,,,,VFR,,,,,,,,,,,,METAR,120
DTTF 050100Z 04007KT CAVOK 16/08 Q1019,DTTF,2024-05-05T01:00:00Z,34.422,8.822,16,8,40,7,,6+,30.09,,,,,,,,,,,CAVOK,,,,,,,,VFR,,,,,,,,,,,,METAR,314
DTTD 050100Z AUTO 06004KT 030V120 NCD 16/07 Q1019,DTTD,2024-05-05T01:00:00Z,32.312,10.386,16,7,60,4,,,30.09,,,TRUE,,,,,,,,CLR,,,,,,,,,,,,,,,,,,,,METAR,306
DTTB 050100Z 26003KT 210V300 CAVOK 09/07 Q1019,DTTB,2024-05-05T01:00:00Z,37.245,9.791,9,7,260,3,,6+,30.09,,,,,,,,,,,CAVOK,,,,,,,,VFR,,,,,,,,,,,,METAR,4
DTTA 050100Z 00000KT 9999 FEW033 12/06 Q1019,DTTA,2024-05-05T01:00:00Z,36.851,10.227,12,6,0,0,,6+,30.09,,,,,,,,,,,FEW,3300,,,,,,,VFR,,,,,,,,,,,,METAR,4
DTNH 050100Z 30003KT 250V320 CAVOK 12/09 Q1019,DTNH,2024-05-05T01:00:00Z,36.074,10.436,12,9,300,3,,6+,30.09,,,,,,,,,,,CAVOK,,,,,,,,VFR,,,,,,,,,,,,METAR,1
DTMB 050100Z 00000KT CAVOK 15/08 Q1019,DTMB,2024-05-05T01:00:00Z,35.758,10.755,15,8,0,0,,6+,30.09,,,,,,,,,,,CAVOK,,,,,,,,VFR,,,,,,,,,,,,METAR,1
DTKA 050100Z 10008KT 9999 FEW020 11/04 Q1018,DTKA,2024-05-05T01:00:00Z,36.98,8.877,11,4,100,8,,6+,30.06,,,,,,,,,,,FEW,2000,,,,,,,VFR,,,,,,,,,,,,METAR,70
DIAP 050100Z 20004KT 9999 FEW011 SCT016 29/27 Q1009 NOSIG,DIAP,2024-05-05T01:00:00Z,5.261,-3.926,29,27,200,4,,6+,29.79,,,,,,TRUE,,,,,FEW,1100,SCT,1600,,,,,VFR,,,,,,,,,,,,METAR,4
DAUZ 050100Z 05013KT 6000 NSC 24/06 Q1016,DAUZ,2024-05-05T01:00:00Z,28.052,9.643,24,6,50,13,,3.73,30.00,,,,,,,,,,,CLR,,,,,,,,MVFR,,,,,,,,,,,,METAR,567
DAUU 050100Z 12004KT CAVOK 24/02 Q1015,DAUU,2024-05-05T01:00:00Z,31.917,5.413,24,2,120,4,,6+,29.97,,,,,,,,,,,CAVOK,,,,,,,,VFR,,,,,,,,,,,,METAR,147
DAUT 050100Z 08010KT CAVOK 25/M08 Q1015,DAUT,2024-05-05T01:00:00Z,29.237,0.276,25,-8,80,10,,6+,29.97,,,,,,,,,,,CAVOK,,,,,,,,VFR,,,,,,,,,,,,METAR,307
DAUO 050100Z 11010KT CAVOK 20/10 Q1016,DAUO,2024-05-05T01:00:00Z,33.513,6.782,20,10,110,10,,6+,30.00,,,,,,,,,,,CAVOK,,,,,,,,VFR,,,,,,,,,,,,METAR,55
DAUI 050100Z 04015KT CAVOK 28/// Q1012,DAUI,2024-05-05T01:00:00Z,27.251,2.512,,,40,15,,6+,29.88,,,,,,,,,,,CAVOK,,,,,,,,VFR,,,,,,,,,,,,METAR,271
DAUH 050100Z 10003KT CAVOK 22/03 Q1015,DAUH,2024-05-05T01:00:00Z,31.673,6.14,22,3,100,3,,6+,29.97,,,,,,,,,,,CAVOK,,,,,,,,VFR,,,,,,,,,,,,METAR,141
DAUG 050100Z 07005KT CAVOK 23/01 Q1017,DAUG,2024-05-05T01:00:00Z,32.384,3.794,23,1,70,5,,6+,30.03,,,,,,,,,,,CAVOK,,,,,,,,VFR,,,,,,,,,,,,METAR,444
DAUE 050100Z 16003KT CAVOK 19/04 Q1017,DAUE,2024-05-05T01:00:00Z,30.571,2.86,19,4,160,3,,6+,30.03,,,,,,,,,,,CAVOK,,,,,,,,VFR,,,,,,,,,,,,METAR,396
DAUB 050100Z 07004KT CAVOK 21/03 Q1016,DAUB,2024-05-05T01:00:00Z,34.793,5.738,21,3,70,4,,6+,30.00,,,,,,,,,,,CAVOK,,,,,,,,VFR,,,,,,,,,,,,METAR,75
DAUA 050100Z 06013KT CAVOK 24/M11 Q1013,DAUA,2024-05-05T01:00:00Z,27.839,-0.186,24,-11,60,13,,6+,29.91,,,,,,,,,,,CAVOK,,,,,,,,VFR,,,,,,,,,,,,METAR,278
DAOY 050100Z 12004KT CAVOK 13/M05 Q1021,DAOY,2024-05-05T01:00:00Z,33.721,1.091,13,-5,120,4,,6+,30.15,,,,,,,,,,,CAVOK,,,,,,,,VFR,,,,,,,,,,,,METAR,1340
DAOV 050100Z 34003KT CAVOK 15/M06 Q1018,DAOV,2024-05-05T01:00:00Z,35.208,0.147,15,-6,340,3,,6+,30.06,,,,,,,,,,,CAVOK,,,,,,,,VFR,,,,,,,,,,,,METAR,506
DAOR 050100Z 19006KT 8000 NSC 23/// Q1018,DAOR,2024-05-05T01:00:00Z,31.65,-2.261,,,190,6,,4.97,30.06,,,,,,,,,,,CLR,,,,,,,,MVFR,,,,,,,,,,,,METAR,809
DAOO 050100Z 18003KT CAVOK 12/09 Q1017,DAOO,2024-05-05T01:00:00Z,35.623,-0.624,12,9,180,3,,6+,30.03,,,,,,,,,,,CAVOK,,,,,,,,VFR,,,,,,,,,,,,METAR,87
DAOI 050100Z 00000KT CAVOK 18/M01 Q1017,DAOI,2024-05-05T01:00:00Z,36.213,1.332,18,-1,0,0,,6+,30.03,,,,,,,,,,,CAVOK,,,,,,,,VFR,,,,,,,,,,,,METAR,141
DAOF 050100Z 33006KT CAVOK 23/01 Q1015,DAOF,2024-05-05T01:00:00Z,27.7,-8.167,23,1,330,6,,6+,29.97,,,,,,,,,,,CAVOK,,,,,,,,VFR,,,,,,,,,,,,METAR,441
DAOB 050100Z 20003KT CAVOK 10/M01 Q1021,DAOB,2024-05-05T01:00:00Z,35.345,1.476,10,-1,200,3,,6+,30.15,,,,,,,,,,,CAVOK,,,,,,,,VFR,,,,,,,,,,,,METAR,976
DABT 050100Z 10004KT CAVOK 11/04 Q1020,DABT,2024-05-05T01:00:00Z,35.752,6.309,11,4,100,4,,6+,30.12,,,,,,,,,,,CAVOK,,,,,,,,VFR,,,,,,,,,,,,METAR,813
DABS 050100Z 12003KT CAVOK 14/03 Q1020,DABS,2024-05-05T01:00:00Z,35.432,8.121,14,3,120,3,,6+,30.12,,,,,,,,,,,CAVOK,,,,,,,,VFR,,,,,,,,,,,,METAR,806
DABB 050100Z 16005KT CAVOK 09/07 Q1017,DABB,2024-05-05T01:00:00Z,36.822,7.809,9,7,160,5,,6+,30.03,,,,,,,,,,,CAVOK,,,,,,,,VFR,,,,,,,,,,,,METAR,3
DAAV 050100Z 15003KT CAVOK 12/08 Q1015,DAAV,2024-05-05T01:00:00Z,36.795,5.877,12,8,150,3,,6+,29.97,,,,,,,,,,,CAVOK,,,,,,,,VFR,,,,,,,,,,,,METAR,11
DAAT 050100Z 09010KT CAVOK 27/04 Q1020,DAAT,2024-05-05T01:00:00Z,22.824,5.452,27,4,90,10,,6+,30.12,,,,,,,,,,,CAVOK,,,,,,,,VFR,,,,,,,,,,,,METAR,1372
DAAS 050100Z VRB02KT CAVOK 12/05 Q1020,DAAS,2024-05-05T01:00:00Z,36.18,5.33,12,5,VRB,2,,6+,30.12,,,,,,,,,,,CAVOK,,,,,,,,VFR,,,,,,,,,,,,METAR,1012
DAAP 050100Z 06006KT CAVOK 26/04 Q1015,DAAP,2024-05-05T01:00:00Z,26.724,8.622,26,4,60,6,,6+,29.97,,,,,,,,,,,CAVOK,,,,,,,,VFR,,,,,,,,,,,,METAR,542
DAAJ 050100Z 34007KT 5000 NSC 28/05 Q1017,DAAJ,2024-05-05T01:00:00Z,24.286,9.464,28,5,340,7,,3.11,30.03,,,,,,,,,,,CLR,,,,,,,,MVFR,,,,,,,,,,,,METAR,962
DAAG 050100Z 18004KT CAVOK 10/08 Q1016,DAAG,2024-05-05T01:00:00Z,36.691,3.215,10,8,180,4,,6+,30.00,,,,,,,,,,,CAVOK,,,,,,,,VFR,,,,,,,,,,,,METAR,18
DAAE 050100Z 26007KT CAVOK 15/10 Q1015,DAAE,2024-05-05T01:00:00Z,36.712,5.07,15,10,260,7,,6+,29.97,,,,,,,,,,,CAVOK,,,,,,,,VFR,,,,,,,,,,,,METAR,1
CZZJ 050100Z AUTO 12008KT 13/M05 RMK AO1 SLP090 T01321049 56022,CZZJ,2024-05-05T01:00:00Z,53.583,-116.462,13.2,-4.9,120,8,,,0.00,1009,,TRUE,TRUE,,,,,,,,,,,,,,,,-0.22,,,,,,,,,,,METAR,927
CZVL 050100Z AUTO 12008KT 100V170 9SM CLR 13/M04 A2981 RMK SLP116 DENSITY ALT 2700FT,CZVL,2024-05-05T01:00:00Z,53.67,-113.863,13,-4,120,8,,9,29.81,1011.6,,TRUE,,,,,,,,CLR,,,,,,,,VFR,,,,,,,,,,,,METAR,685
CZUM 050100Z AUTO 17003KT 9SM FEW066 OVC084 06/01 A3028 RMK SLP276,CZUM,2024-05-05T01:00:00Z,53.562,-64.107,6,1,170,3,,9,30.28,1027.6,,TRUE,,,,,,,,FEW,6600,OVC,8400,,,,,VFR,,,,,,,,,,,,METAR,431
CZTB 050100Z AUTO 23003KT 08/08 RMK AO1 6PAST HR 6004 SLP138 P0002 T00800075 50006,CZTB,2024-05-05T01:00:00Z,48.369,-89.327,8,7.5,230,3,,,0.00,1013.8,,TRUE,TRUE,,,,,,,,,,,,,,,,0.06,,,,,0.02,,,,,,METAR,197
CZST 050100Z 24005KT 200V270 15SM FEW065 FEW200 22/03 A2956 RMK CU1CS1 LAST STFD OBS/NEXT 051500Z/ SLP011 DENSITY ALT 1300FT,CZST,2024-05-05T01:00:00Z,55.935,-129.984,22,3,240,5,,15,29.56,1001.1,,,,,,,,,,FEW,6500,FEW,20000,,,,,VFR,,,,,,,,,,,,METAR,10
CZSP 050100Z AUTO 02002KT 02/01 RMK AO1 SLP316 T00190013 53005,CZSP,2024-05-05T01:00:00Z,46.45,-62.576,1.9,1.3,20,2,,,0.00,1031.6,,TRUE,TRUE,,,,,,,,,,,,,,,,0.05,,,,,,,,,,,METAR,31
CZSM 050100Z AUTO 17003KT 12/M00 RMK AO1 SLP139 T01231001 56023,CZSM,2024-05-05T01:00:00Z,60.026,-111.929,12.3,-0.1,170,3,,,0.00,1013.9,,TRUE,TRUE,,,,,,,,,,,,,,,,-0.23,,,,,,,,,,,METAR,203
CZSJ 050100Z AUTO 26004KT 240V320 9SM FEW020 BKN040 OVC060 06/02 A2987 RMK SLP131,CZSJ,2024-05-05T01:00:00Z,53.063,-93.344,6,2,260,4,,9,29.87,1013.1,,TRUE,,,,,,,,FEW,2000,BKN,4000,OVC,6000,,,VFR,,,,,,,,,,,,METAR,286
CZPC 050100Z AUTO 09014KT 9SM OVC081 13/M03 A2973 RMK SLP088 DENSITY ALT 4800FT,CZPC,2024-05-05T01:00:00Z,49.522,-114.005,13,-3,90,14,,9,29.73,1008.8,,TRUE,,,,,,,,OVC,8100,,,,,,,VFR,,,,,,,,,,,,METAR,1187
CZOL 050100Z AUTO 14006KT 13/M03 RMK AO1 T01261026,CZOL,2024-05-05T01:00:00Z,53.642,-113.364,12.6,-2.6,140,6,,,0.00,,,TRUE,TRUE,,,,,,,,,,,,,,,,,,,,,,,,,,,METAR,645
CZMU 050100Z AUTO 10006KT 12/M03 RMK AO1 T01171028,CZMU,2024-05-05T01:00:00Z,53.563,-112.296,11.7,-2.8,100,6,,,0.00,,,TRUE,TRUE,,,,,,,,,,,,,,,,,,,,,,,,,,,METAR,682
CZMJ 050100Z AUTO 03003KT 14/M04 RMK AO1 SLP150 T01391040 56011,CZMJ,2024-05-05T01:00:00Z,50.332,-105.538,13.9,-4,30,3,,,0.00,1015,,TRUE,TRUE,,,,,,,,,,,,,,,,-0.11,,,,,,,,,,,METAR,571
CZMD 050100Z AUTO 25004KT 9SM FEW038 OVC055 06/02 A2985 RMK SLP123,CZMD,2024-05-05T01:00:00Z,53.439,-91.766,6,2,250,4,,9,29.85,1012.3,,TRUE,,,,,,,,FEW,3800,OVC,5500,,,,,VFR,,,,,,,,,,,,METAR,276
CZKD 050100Z AUTO 34004KT 03/02 RMK AO1 5PAST HR 3003 SLP132 P0002 T00310022 50005,CZKD,2024-05-05T01:00:00Z,56.037,-96.51,3.1,2.2,340,4,,,0.00,1013.2,,TRUE,TRUE,,,,,,,,,,,,,,,,0.05,,,,,0.02,,,,,,METAR,190
CZHY 050100Z AUTO 07009KT 05/M01 RMK AO1 SLP128 T00451009 56024,CZHY,2024-05-05T01:00:00Z,60.839,-115.781,4.5,-0.9,70,9,,,0.00,1012.8,,TRUE,TRUE,,,,,,,,,,,,,,,,-0.24,,,,,,,,,,,METAR,159
CZFS 050100Z AUTO 11011G17KT 19/M04 RMK AO1 PK WND 10021/0023 SLP062 T01921040 56027,CZFS,2024-05-05T01:00:00Z,61.76,-121.23,19.2,-4,110,11,17,,0.00,1006.2,,TRUE,TRUE,,,,,,,,,,,,,,,,-0.27,,,,,,,,,,,METAR,174
CZEV 050100Z AUTO 34013G18KT M07/M09 RMK AO1 SOG 89 3007 PK WND 34018/0038 SLP089 T10671094,CZEV,2024-05-05T01:00:00Z,68.313,-133.496,-6.7,-9.4,340,13,18,,0.00,1008.9,,TRUE,TRUE,,,,,,,,,,,,,,,,,,,,,,,,,,,METAR,92
CZEL 050100Z AUTO 11010KT 16/13 RMK AO1 SLP157 T01560131 58007,CZEL,2024-05-05T01:00:00Z,43.642,-80.412,15.6,13.1,110,10,,,0.00,1015.7,,TRUE,TRUE,,,,,,,,,,,,,,,,-0.07,,,,,,,,,,,METAR,370
CZDB 050100Z AUTO 04005KT 04/01 RMK AO1 SLP308 T00440006 53018,CZDB,2024-05-05T01:00:00Z,45.422,-63.466,4.4,0.6,40,5,,,0.00,1030.8,,TRUE,TRUE,,,,,,,,,,,,,,,,0.18,,,,,,,,,,,METAR,38
CZCR 050100Z AUTO 10008KT 03/03 RMK AO1 SLP311 T00300030 53002,CZCR,2024-05-05T01:00:00Z,47.99,-66.334,3,3,100,8,,,0.00,1031.1,,TRUE,TRUE,,,,,,,,,,,,,,,,0.02,,,,,,,,,,,METAR,39
CZBF 050100Z AUTO 33003KT 300V010 9SM OVC018 04/02 A3046 RMK SLP318,CZBF,2024-05-05T01:00:00Z,47.628,-65.746,4,2,330,3,,9,30.46,1031.8,,TRUE,,,,,,,,OVC,1800,,,,,,,MVFR,,,,,,,,,,,,METAR,60
CYZY 050100Z AUTO 06008KT 030V100 9SM BKN120 18/M11 A2964 RMK SLP049 DENSITY ALT 3500FT,CYZY,2024-05-05T01:00:00Z,55.303,-123.135,18,-11,60,8,,9,29.64,1004.9,,TRUE,,,,,,,,BKN,12000,,,,,,,VFR,,,,,,,,,,,,METAR,694
CYZX 050100Z 07007KT 15SM SCT200 07/04 A3042 RMK CI3 DENSITY ALT -1312FT SLP301,CYZX,2024-05-05T01:00:00Z,44.985,-64.912,7,4,70,7,,15,30.42,1030.1,,,,,,,,,,SCT,20000,,,,,,,VFR,,,,,,,,,,,,METAR,28
CYZV 050100Z 08002KT 15SM FEW010 SCT038 BKN100 02/00 A3044 RMK SF1SC3AC4 SF TR SLP314,CYZV,2024-05-05T01:00:00Z,50.217,-66.26,2,0,80,2,,15,30.44,1031.4,,,,,,,,,,FEW,1000,SCT,3800,BKN,10000,,,VFR,,,,,,,,,,,,METAR,43
CYZT 050100Z 33010G15KT 20SM FEW050 FEW140 19/03 A2958 RMK CF1AC2 CF TR SLP018 DENSITY ALT 1000FT,CYZT,2024-05-05T01:00:00Z,50.685,-127.369,19,3,330,10,15,20,29.58,1001.8,,,,,,,,,,FEW,5000,FEW,14000,,,,,VFR,,,,,,,,,,,,METAR,13
CYZR 050100Z AUTO 16011G16KT 9SM BKN071 OVC091 19/16 A2991 RMK SLP132 DENSITY ALT 1300FT,CYZR,2024-05-05T01:00:00Z,42.995,-82.307,19,16,160,11,16,9,29.91,1013.2,,TRUE,,,,,,,,BKN,7100,OVC,9100,,,,,VFR,,,,,,,,,,,,METAR,181
CYZP 050100Z AUTO 30009KT 9SM BKN120 16/08 A2959 RMK SLP022 DENSITY ALT 500FT,CYZP,2024-05-05T01:00:00Z,53.254,-131.814,16,8,300,9,,9,29.59,1002.2,,TRUE,,,,,,,,BKN,12000,,,,,,,VFR,,,,,,,,,,,,METAR,7
CYZH 050100Z AUTO 14009KT 090V150 9SM CLR 14/M05 A2979 RMK SLP109 DENSITY ALT 2400FT,CYZH,2024-05-05T01:00:00Z,55.293,-114.773,14,-5,140,9,,9,29.79,1010.9,,TRUE,,,,,,,,CLR,,,,,,,,VFR,,,,,,,,,,,,METAR,583
CYZF 050100Z 17006KT 15SM SKC 07/M02 A2994 RMK SLP154,CYZF,2024-05-05T01:00:00Z,62.475,-114.448,7,-2,170,6,,15,29.94,1015.4,,,,,,,,,,SKC,,,,,,,,VFR,,,,,,,,,,,,METAR,202
CYZE 050100Z AUTO 17004KT 9SM SCT044 BKN060 17/13 A2988 RMK SLP124 DENSITY ALT 1100FT,CYZE,2024-05-05T01:00:00Z,45.885,-82.57,17,13,170,4,,9,29.88,1012.4,,TRUE,,,,,,,,SCT,4400,BKN,6000,,,,,VFR,,,,,,,,,,,,METAR,189
CYYZ 050100Z 10010KT 15SM BKN037 BKN095 BKN220 17/11 A2999 RMK SC5AC1CI1 SLP160 DENSITY ALT 900FT,CYYZ,2024-05-05T01:00:00Z,43.679,-79.629,17,11,100,10,,15,29.99,1016,,,,,,,,,,BKN,3700,BKN,9500,BKN,22000,,,VFR,,,,,,,,,,,,METAR,171
CYYY 050100Z 06009KT 15SM BKN100 02/01 A3038 RMK AC7 SLP294,CYYY,2024-05-05T01:00:00Z,48.609,-68.208,2,1,60,9,,15,30.38,1029.4,,,,,,,,,,BKN,10000,,,,,,,VFR,,,,,,,,,,,,METAR,43
CYYW 050100Z AUTO 09003KT 070V140 9SM -RA FEW041 OVC050 08/08 A2988 RMK PCPN 0.8MM PAST HR SLP125,CYYW,2024-05-05T01:00:00Z,50.296,-88.912,8,8,90,3,,9,29.88,1012.5,,TRUE,,,,,,,-RA,FEW,4100,OVC,5000,,,,,VFR,,,,,,,,,,,,METAR,320
CYYU 050100Z 11003KT 060V150 15SM BKN160 BKN170 OVC260 16/05 A2986 RMK AC6AC1CI1 RAG CIG SLP119 DENSITY ALT 1100FT,CYYU,2024-05-05T01:00:00Z,49.416,-82.47,16,5,110,3,,15,29.86,1011.9,,,,,,,,,,BKN,16000,BKN,17000,OVC,26000,,,VFR,,,,,,,,,,,,METAR,228
CYYT 050100Z 05014G//KT 3SM BR OVC003 01/01 A3033 RMK SF8 WIND EST SLP279,CYYT,2024-05-05T01:00:00Z,47.627,-52.748,1,1,,,,3,30.33,1027.9,,,,,,,,,BR,OVC,300,,,,,,,LIFR,,,,,,,,,,,,METAR,128
CYYR 050100Z 05005KT 15SM OVC095 03/M01 A3039 RMK AC8 DENSITY ALT -1696FT SLP294,CYYR,2024-05-05T01:00:00Z,53.32,-60.417,3,-1,50,5,,15,30.39,1029.4,,,,,,,,,,OVC,9500,,,,,,,VFR,,,,,,,,,,,,METAR,42
CYYQ 050100Z 35011KT 4SM -SN BR OVC007 M01/M01 A2984 RMK SC8 SLP109,CYYQ,2024-05-05T01:00:00Z,58.745,-94.074,-1,-1,350,11,,4,29.84,1010.9,,,,,,,,,-SN BR,OVC,700,,,,,,,IFR,,,,,,,,,,,,METAR,20
CYYN 050100Z AUTO 18007KT 9SM OVC086 14/M03 A2984 RMK SLP121 DENSITY ALT 3300FT,CYYN,2024-05-05T01:00:00Z,50.292,-107.691,14,-3,180,7,,9,29.84,1012.1,,TRUE,,,,,,,,OVC,8600,,,,,,,VFR,,,,,,,,,,,,METAR,814
CYYL 050100Z AUTO 33006KT 300V010 9SM OVC071 06/M01 A2992 RMK SLP153,CYYL,2024-05-05T01:00:00Z,56.863,-101.073,6,-1,330,6,,9,29.92,1015.3,,TRUE,,,,,,,,OVC,7100,,,,,,,VFR,,,,,,,,,,,,METAR,351
CYYJ 050100Z 19004KT 130V220 30SM BKN082 OVC110 16/08 A2954 RMK AC5AC3 SLP006 DENSITY ALT 700FT,CYYJ,2024-05-05T01:00:00Z,48.642,-123.433,16,8,190,4,,30,29.54,1000.6,,,,,,,,,,BKN,8200,OVC,11000,,,,,VFR,,,,,,,,,,,,METAR,16
CYYH 050100Z 12003KT 15SM FEW090 FEW210 M06/M08 A3026 RMK AC1CI1 AC TR CI TR SLP251,CYYH,2024-05-05T01:00:00Z,69.543,-93.568,-6,-8,120,3,,15,30.26,1025.1,,,,,,,,,,FEW,9000,FEW,21000,,,,,VFR,,,,,,,,,,,,METAR,19
CYYG 050100Z 02005KT 12SM OVC005 02/01 A3044 RMK ST8 SLP312,CYYG,2024-05-05T01:00:00Z,46.289,-63.128,2,1,20,5,,12,30.44,1031.2,,,,,,,,,,OVC,500,,,,,,,IFR,,,,,,,,,,,,METAR,48
CYYF 050100Z 26003KT 15SM OVC098 18/01 A2954 RMK AC8 SLP004 DENSITY ALT 2200FT,CYYF,2024-05-05T01:00:00Z,49.46,-119.606,18,1,260,3,,15,29.54,1000.4,,,,,,,,,,OVC,9800,,,,,,,VFR,,,,,,,,,,,,METAR,342
CYYE 050100Z 12007KT 070V170 30SM FEW075 20/M07 A2968 RMK CU1 SLP064 DENSITY ALT 2400FT,CYYE,2024-05-05T01:00:00Z,58.839,-122.59,20,-7,120,7,,30,29.68,1006.4,,,,,,,,,,FEW,7500,,,,,,,VFR,,,,,,,,,,,,METAR,379
CYYD 050100Z 10011G18KT 070V150 25SM SCT060TCU 15/02 A2965 RMK TCU4 SLP051 DENSITY ALT 2500FT,CYYD,2024-05-05T01:00:00Z,54.823,-127.185,15,2,100,11,18,25,29.65,1005.1,,,,,,,,,,SCT,6000,,,,,,,VFR,,,,,,,,,,,,METAR,527
CYYC 050100Z 14009KT 20SM BKN087 BKN200 13/M05 A2975 RMK AC6CC1 SLP102 DENSITY ALT 4500FT,CYYC,2024-05-05T01:00:00Z,51.116,-114.011,13,-5,140,9,,20,29.75,1010.2,,,,,,,,,,BKN,8700,BKN,20000,,,,,VFR,,,,,,,,,,,,METAR,1085
CYYB 050100Z 13008KT 30SM SCT060 BKN090 BKN280 19/12 A2998 RMK SC4AC2CI1 SLP158 DENSITY ALT 1900FT,CYYB,2024-05-05T01:00:00Z,46.365,-79.423,19,12,130,8,,30,29.98,1015.8,,,,,,,,,,SCT,6000,BKN,9000,BKN,28000,,,VFR,,,,,,,,,,,,METAR,360
CYXX 050100Z 18007KT 25SM SCT090 SCT100 OVC250 14/09 A2954 RMK AC3AC1CS4 SLP004 DENSITY ALT 600FT,CYXX,2024-05-05T01:00:00Z,49.027,-122.377,14,9,180,7,,25,29.54,1000.4,,,,,,,,,,SCT,9000,SCT,10000,OVC,25000,,,VFR,,,,,,,,,,,,METAR,54
CYXU 050100Z 15015G21KT 15SM BKN042 18/13 A2997 RMK SC7 SLP150 DENSITY ALT 1500FT,CYXU,2024-05-05T01:00:00Z,43.039,-81.162,18,13,150,15,21,15,29.97,1015,,,,,,,,,,BKN,4200,,,,,,,VFR,,,,,,,,,,,,METAR,278
CYXT 050100Z 05009KT 020V100 20SM BKN085 BKN210 20/01 A2957 RMK CU6CI1 SLP017 DENSITY ALT 1900FT,CYXT,2024-05-05T01:00:00Z,54.471,-128.577,20,1,50,9,,20,29.57,1001.7,,,,,,,,,,BKN,8500,BKN,21000,,,,,VFR,,,,,,,,,,,,METAR,213
CYXS 050100Z AUTO 06004KT 9SM SCT110 17/M05 A2961 RMK SLP040 DENSITY ALT 3400FT,CYXS,2024-05-05T01:00:00Z,53.884,-122.677,17,-5,60,4,,9,29.61,1004,,TRUE,,,,,,,,SCT,11000,,,,,,,VFR,,,,,,,,,,,,METAR,685
CYXR 050100Z AUTO 12007KT 9SM FEW071 17/10 A2993 RMK SLP143 DENSITY ALT 1200FT,CYXR,2024-05-05T01:00:00Z,47.698,-79.852,17,10,120,7,,9,29.93,1014.3,,TRUE,,,,,,,,FEW,7100,,,,,,,VFR,,,,,,,,,,,,METAR,244
CYXL 050100Z 29006KT 15SM FEW026 SCT045 BKN250 08/03 A2993 RMK CU1SC3CI2 SLP150,CYXL,2024-05-05T01:00:00Z,50.114,-91.905,8,3,290,6,,15,29.93,1015,,,,,,,,,,FEW,2600,SCT,4500,BKN,25000,,,VFR,,,,,,,,,,,,METAR,381
CYXJ 050100Z 10014KT 60SM FEW092 SCT170 BKN220 16/M07 A2972 RMK CU1AC2CI4 SLP083 DENSITY ALT 3200FT,CYXJ,2024-05-05T01:00:00Z,56.247,-120.737,16,-7,100,14,,60,29.72,1008.3,,,,,,,,,,FEW,9200,SCT,17000,BKN,22000,,,VFR,,,,,,,,,,,,METAR,700
CYXH 050100Z 09011KT 30SM FEW100 BKN270 16/M05 A2979 RMK AC1CI6 SLP102 DENSITY ALT 3200FT,CYXH,2024-05-05T01:00:00Z,50.018,-110.717,16,-5,90,11,,30,29.79,1010.2,,,,,,,,,,FEW,10000,BKN,27000,,,,,VFR,,,,,,,,,,,,METAR,717
CYXE 050100Z 00000KT 15SM BKN032TCU 09/01 A2991 RMK TCU5 SLP150,CYXE,2024-05-05T01:00:00Z,52.172,-106.695,9,1,0,0,,15,29.91,1015,,,,,,,,,,BKN,3200,,,,,,,VFR,,,,,,,,,,,,METAR,504
CYXC 050100Z 11007KT 25SM SCT120 BKN210 16/M06 A2964 RMK AC3CI4 SLP047 DENSITY ALT 4300FT,CYXC,2024-05-05T01:00:00Z,49.614,-115.784,16,-6,110,7,,25,29.64,1004.7,,,,,,,,,,SCT,12000,BKN,21000,,,,,VFR,,,,,,,,,,,,METAR,928
CYWK 050100Z 17005KT 15SM FEW048 OVC075 05/00 A3026 RMK SC2AC6 SLP271,CYWK,2024-05-05T01:00:00Z,52.927,-66.874,5,0,170,5,,15,30.26,1027.1,,,,,,,,,,FEW,4800,OVC,7500,,,,,VFR,,,,,,,,,,,,METAR,547
CYWH 050100Z 23005KT 15SM -RA FEW040 OVC070 12/08 A2957 RMK SC1AC7 SLP014,CYWH,2024-05-05T01:00:00Z,48.423,-123.387,12,8,230,5,,15,29.57,1001.4,,,,,,,,,-RA,FEW,4000,OVC,7000,,,,,VFR,,,,,,,,,,,,METAR,4
CYWG 050100Z 33008KT 15SM FEW045 FEW250 10/01 A2999 RMK SC2CI1 CI TR SLP167,CYWG,2024-05-05T01:00:00Z,49.916,-97.249,10,1,330,8,,15,29.99,1016.7,,,,,,,,,,FEW,4500,FEW,25000,,,,,VFR,,,,,,,,,,,,METAR,238
CYWE 050100Z AUTO 12007KT 9SM CLR 04/M01 A2994 RMK SLP170,CYWE,2024-05-05T01:00:00Z,64.192,-114.078,4,-1,120,7,,9,29.94,1017,,TRUE,,,,,,,,CLR,,,,,,,,VFR,,,,,,,,,,,,METAR,374
CYVV 050100Z 15006KT 15SM BKN030 BKN250 18/14 A2993 RMK SC5CI1 SLP140 DENSITY ALT 1300FT,CYVV,2024-05-05T01:00:00Z,44.745,-81.107,18,14,150,6,,15,29.93,1014,,,,,,,,,,BKN,3000,BKN,25000,,,,,MVFR,,,,,,,,,,,,METAR,221
CYVT 050100Z AUTO 04009KT 9SM CLR 08/M01 A2988 RMK SLP141,CYVT,2024-05-05T01:00:00Z,55.842,-108.418,8,-1,40,9,,9,29.88,1014.1,,TRUE,,,,,,,,CLR,,,,,,,,VFR,,,,,,,,,,,,METAR,438
CYVR 050100Z 31011KT 20SM FEW065 FEW090 OVC100 14/11 A2952 RMK SC1AC1AC8 SC TR AC TR SLP999 DENSITY ALT 400FT,CYVR,2024-05-05T01:00:00Z,49.183,-123.168,14,11,310,11,,20,29.52,999.9,,,,,,,,,,FEW,6500,FEW,9000,OVC,10000,,,VFR,,,,,,,,,,,,METAR,2
CYVQ 050100Z 24009KT 30SM FEW050 FEW100 BKN240 12/01 A2948 RMK SC1AC1CI5 SC TR AC TR SLP989 DENSITY ALT 500FT,CYVQ,2024-05-05T01:00:00Z,65.278,-126.796,12,1,240,9,,30,29.48,998.9,,,,,,,,,,FEW,5000,FEW,10000,BKN,24000,,,VFR,,,,,,,,,,,,METAR,63
CYVP 050100Z 17005KT 120V250 15SM BKN019 OVC026 04/03 A3008 RMK SC7SC1 SLP192,CYVP,2024-05-05T01:00:00Z,58.1,-68.415,4,3,170,5,,15,30.08,1019.2,,,,,,,,,,BKN,1900,OVC,2600,,,,,MVFR,,,,,,,,,,,,METAR,28
CYVO 050100Z 14009KT 15SM SCT030 BKN250 16/12 A3003 RMK SC3CI2 SLP180 DENSITY ALT 1400FT,CYVO,2024-05-05T01:00:00Z,48.056,-77.779,16,12,140,9,,15,30.03,1018,,,,,,,,,,SCT,3000,BKN,25000,,,,,VFR,,,,,,,,,,,,METAR,329
CYVM 050100Z AUTO VRB02KT 9SM CLR M11/M13 A3038 RMK SLP290,CYVM,2024-05-05T01:00:00Z,67.552,-64.026,-11,-13,VRB,2,,9,30.38,1029,,TRUE,,,,,,,,CLR,,,,,,,,VFR,,,,,,,,,,,,METAR,3
CYVL 050100Z AUTO 32005KT 9SM CLR 10/00 A2952 RMK SLP016,CYVL,2024-05-05T01:00:00Z,67.021,-126.129,10,0,320,5,,9,29.52,1001.6,,TRUE,,,,,,,,CLR,,,,,,,,VFR,,,,,,,,,,,,METAR,261
CYVC 050100Z 16004KT 15SM BKN080 11/M02 A2990 RMK AC6 SLP142,CYVC,2024-05-05T01:00:00Z,55.15,-105.264,11,-2,160,4,,15,29.90,1014.2,,,,,,,,,,BKN,8000,,,,,,,VFR,,,,,,,,,,,,METAR,378
CYUY 050100Z 13008KT 15SM FEW030 SCT240 18/09 A2997 RMK SC1CI3 SLP156 DENSITY ALT 1600FT,CYUY,2024-05-05T01:00:00Z,48.209,-78.83,18,9,130,8,,15,29.97,1015.6,,,,,,,,,,FEW,3000,SCT,24000,,,,,VFR,,,,,,,,,,,,METAR,304
CYUX 050100Z AUTO 12007KT 9SM CLR M09/M10 A3039 RMK SLP295,CYUX,2024-05-05T01:00:00Z,68.772,-81.233,-9,-10,120,7,,9,30.39,1029.5,,TRUE,,,,,,,,CLR,,,,,,,,VFR,,,,,,,,,,,,METAR,8
CYUL 050100Z 06008KT 15SM BKN082 16/11 A3017 RMK AC7 SLP220,CYUL,2024-05-05T01:00:00Z,45.468,-73.742,16,11,60,8,,15,30.17,1022,,,,,,,,,,BKN,8200,,,,,,,VFR,,,,,,,,,,,,METAR,31
CYUB 050100Z 02012KT 10SM -SN OVC008 M07/M09 A2977 RMK SC8 SLP085,CYUB,2024-05-05T01:00:00Z,69.434,-133.026,-7,-9,20,12,,10+,29.77,1008.5,,,,,,,,,-SN,OVC,800,,,,,,,IFR,,,,,,,,,,,,METAR,5
CYTZ 050100Z AUTO 07015G20KT 9SM BKN049 BKN210 14/09 A3000 RMK SLP161,CYTZ,2024-05-05T01:00:00Z,43.627,-79.397,14,9,70,15,20,9,30.00,1016.1,,TRUE,,,,,,,,BKN,4900,BKN,21000,,,,,VFR,,,,,,,,,,,,METAR,76
CYTS 050100Z 12006KT 15SM BKN160 BKN210 18/04 A2991 RMK AC5CI1 SLP134 DENSITY ALT 1600FT,CYTS,2024-05-05T01:00:00Z,48.568,-81.378,18,4,120,6,,15,29.91,1013.4,,,,,,,,,,BKN,16000,BKN,21000,,,,,VFR,,,,,,,,,,,,METAR,290
CYTR 050100Z 10004KT 030V130 15SM BKN050 OVC100 17/09 A3009 RMK SC5AC3 DENSITY ALT 499FT SLP189,CYTR,2024-05-05T01:00:00Z,44.115,-77.531,17,9,100,4,,15,30.09,1018.9,,,,,,,,,,BKN,5000,OVC,10000,,,,,VFR,,,,,,,,,,,,METAR,80
CYTL 050100Z AUTO 29004KT 9SM SCT029 OVC035 05/02 A2984 RMK SLP119,CYTL,2024-05-05T01:00:00Z,53.816,-89.892,5,2,290,4,,9,29.84,1011.9,,TRUE,,,,,,,,SCT,2900,OVC,3500,,,,,VFR,,,,,,,,,,,,METAR,218
CYTH 050100Z 32007KT 15SM -SHRA SCT028 OVC056 05/02 A2989 RMK SC3SC5 SLP136,CYTH,2024-05-05T01:00:00Z,55.803,-97.846,5,2,320,7,,15,29.89,1013.6,,,,,,,,,-SHRA,SCT,2800,OVC,5600,,,,,VFR,,,,,,,,,,,,METAR,212
CYTE 050100Z AUTO 07018G23KT 9SM OVC007 M04/M05 A3019 RMK SLP232,CYTE,2024-05-05T01:00:00Z,64.23,-76.528,-4,-5,70,18,23,9,30.19,1023.2,,TRUE,,,,,,,,OVC,700,,,,,,,IFR,,,,,,,,,,,,METAR,49
CYSN 050100Z 31003KT 270V340 15SM BKN110 11/09 A3000 RMK AC6 LAST STFD OBS/NXT 051100Z SLP163,CYSN,2024-05-05T01:00:00Z,43.192,-79.176,11,9,310,3,,15,30.00,1016.3,,,,,,,,,,BKN,11000,,,,,,,VFR,,,,,,,,,,,,METAR,96
CYSM 050100Z 17003KT 130V230 15SM BKN053 12/M00 A2990 RMK SC5 LAST STFD OBS/NXT 051300Z SLP136,CYSM,2024-05-05T01:00:00Z,60.026,-111.929,12,0,170,3,,15,29.90,1013.6,,,,,,,,,,BKN,5300,,,,,,,VFR,,,,,,,,,,,,METAR,203
CYSJ 050100Z 05004KT 15SM FEW030 BKN170 07/04 A3040 RMK SC1AC6 SLP300,CYSJ,2024-05-05T01:00:00Z,45.309,-65.886,7,4,50,4,,15,30.40,1030,,,,,,,,,,FEW,3000,BKN,17000,,,,,VFR,,,,,,,,,,,,METAR,89
CYSF 050100Z AUTO 05005KT 020V090 9SM OVC040 06/M02 A2997 RMK SLP165,CYSF,2024-05-05T01:00:00Z,59.252,-105.837,6,-2,50,5,,9,29.97,1016.5,,TRUE,,,,,,,,OVC,4000,,,,,,,VFR,,,,,,,,,,,,METAR,238
CYSC 050100Z AUTO 13007KT 9SM BKN055 BKN240 14/06 A3026 RMK SLP251,CYSC,2024-05-05T01:00:00Z,45.44,-71.692,14,6,130,7,,9,30.26,1025.1,,TRUE,,,,,,,,BKN,5500,BKN,24000,,,,,VFR,,,,,,,,,,,,METAR,236
CYSB 050100Z 17005KT 15SM SCT063 BKN110 BKN200 19/12 A2995 RMK SC3AC3CI1 SLP149 DENSITY ALT 1900FT,CYSB,2024-05-05T01:00:00Z,46.622,-80.799,19,12,170,5,,15,29.95,1014.9,,,,,,,,,,SCT,6300,BKN,11000,BKN,20000,,,VFR,,,,,,,,,,,,METAR,349
CYRV 050100Z AUTO VRB07KT 9SM OVC110 20/M05 A2956 RMK SLP017 DENSITY ALT 2800FT,CYRV,2024-05-05T01:00:00Z,50.958,-118.176,20,-5,VRB,7,,9,29.56,1001.7,,TRUE,,,,,,,,OVC,11000,,,,,,,VFR,,,,,,,,,,,,METAR,456
CYRT 050100Z 05014G20KT 10SM SCT008 OVC039 M02/M04 A3001 RMK SC3SC5 SLP168,CYRT,2024-05-05T01:00:00Z,62.811,-92.1,-2,-4,50,14,20,10+,30.01,1016.8,,,,,,,,,,SCT,800,OVC,3900,,,,,VFR,,,,,,,,,,,,METAR,29
CYRQ 050100Z AUTO 06009KT 9SM OVC076 14/08 A3022 RMK SLP238,CYRQ,2024-05-05T01:00:00Z,46.358,-72.68,14,8,60,9,,9,30.22,1023.8,,TRUE,,,,,,,,OVC,7600,,,,,,,VFR,,,,,,,,,,,,METAR,58
CYRL 050100Z 27007KT 15SM FEW026 SCT038 BKN064 06/01 A2991 RMK CU1SC2SC3 SLP147,CYRL,2024-05-05T01:00:00Z,51.067,-93.799,6,1,270,7,,15,29.91,1014.7,,,,,,,,,,FEW,2600,SCT,3800,BKN,6400,,,VFR,,,,,,,,,,,,METAR,370
CYRJ 050100Z 10004KT 25SM BKN055 11/06 A3021 RMK SC7 SLP240,CYRJ,2024-05-05T01:00:00Z,48.523,-72.266,11,6,100,4,,25,30.21,1024,,,,,,,,,,BKN,5500,,,,,,,VFR,,,,,,,,,,,,METAR,173
CYRB 050100Z 12008KT 2 1/2SM -SN BKN005 OVC018 M09/M10 A3013 RMK ST5SC3 SLP213,CYRB,2024-05-05T01:00:00Z,74.713,-94.982,-9,-10,120,8,,2.5,30.13,1021.3,,,,,,,,,-SN,BKN,500,OVC,1800,,,,,IFR,,,,,,,,,,,,METAR,59
CYQZ 050100Z AUTO 01004KT 310V030 9SM SCT091 BKN120 19/M02 A2958 RMK SLP030 DENSITY ALT 3000FT,CYQZ,2024-05-05T01:00:00Z,53.027,-122.506,19,-2,10,4,,9,29.58,1003,,TRUE,,,,,,,,SCT,9100,BKN,12000,,,,,VFR,,,,,,,,,,,,METAR,548
CYQY 050100Z 05004KT 15SM SKC 02/01 A3042 RMK SLP304,CYQY,2024-05-05T01:00:00Z,46.166,-60.049,2,1,50,4,,15,30.42,1030.4,,,,,,,,,,SKC,,,,,,,,VFR,,,,,,,,,,,,METAR,58
CYQX 050100Z 02008KT 15SM BKN013 OVC016 01/M02 A3042 RMK SC6SC2 SLP312,CYQX,2024-05-05T01:00:00Z,48.946,-54.576,1,-2,20,8,,15,30.42,1031.2,,,,,,,,,,BKN,1300,OVC,1600,,,,,MVFR,,,,,,,,,,,,METAR,144
CYQW 050100Z AUTO VRB03KT 9SM CLR 11/M02 A2991 RMK SLP149,CYQW,2024-05-05T01:00:00Z,52.769,-108.251,11,-2,VRB,3,,9,29.91,1014.9,,TRUE,,,,,,,,CLR,,,,,,,,VFR,,,,,,,,,,,,METAR,545
CYQV 050100Z AUTO 36004KT 9SM FEW066 09/03 A2996 RMK SLP164,CYQV,2024-05-05T01:00:00Z,51.26,-102.461,9,3,360,4,,9,29.96,1016.4,,TRUE,,,,,,,,FEW,6600,,,,,,,VFR,,,,,,,,,,,,METAR,493
CYQU 050100Z 03007KT 020V090 25SM FEW090 SCT200 16/M07 A2970 RMK AC1CI4 AC TR SLP079 DENSITY ALT 3200FT,CYQU,2024-05-05T01:00:00Z,55.182,-118.882,16,-7,30,7,,25,29.70,1007.9,,,,,,,,,,FEW,9000,SCT,20000,,,,,VFR,,,,,,,,,,,,METAR,668
CYQR 050100Z 11005KT 15SM FEW055 FEW095 BKN270 10/02 A2993 RMK CU1AC1CI3 TCU ASOCTD NE SH NE SLP158,CYQR,2024-05-05T01:00:00Z,50.427,-104.67,10,2,110,5,,15,29.93,1015.8,,,,,,,,,,FEW,5500,FEW,9500,BKN,27000,,,VFR,,,,,,,,,,,,METAR,576
CYQQ 050100Z 18003KT 20SM OVC095 16/08 A2955 RMK AC8 DENSITY ALT 798FT SLP005,CYQQ,2024-05-05T01:00:00Z,49.712,-124.895,16,8,180,3,,20,29.55,1000.5,,,,,,,,,,OVC,9500,,,,,,,VFR,,,,,,,,,,,,METAR,24
CYQM 050100Z 04006KT 10SM BKN004 OVC020 04/02 A3042 RMK SF7SC1 SLP308,CYQM,2024-05-05T01:00:00Z,46.107,-64.682,4,2,40,6,,10+,30.42,1030.8,,,,,,,,,,BKN,400,OVC,2000,,,,,LIFR,,,,,,,,,,,,METAR,67
CYQL 050100Z 12007KT 080V140 60SM FEW070 FEW170 BKN270 14/M03 A2975 RMK AC1AC1CI7 AC TR AC TR SLP090 DENSITY ALT 3900FT,CYQL,2024-05-05T01:00:00Z,49.627,-112.792,14,-3,120,7,,60,29.75,1009,,,,,,,,,,FEW,7000,FEW,17000,BKN,27000,,,VFR,,,,,,,,,,,,METAR,923
CYQK 050100Z 29006KT 260V320 15SM -SHRA SCT037 BKN120 07/04 A2996 RMK SC4AC2 SLP161,CYQK,2024-05-05T01:00:00Z,49.791,-94.361,7,4,290,6,,15,29.96,1016.1,,,,,,,,,-SHRA,SCT,3700,BKN,12000,,,,,VFR,,,,,,,,,,,,METAR,413
CYQI 050100Z 19008KT 15SM FEW042 07/06 A3038 RMK SC1 SLP289,CYQI,2024-05-05T01:00:00Z,43.831,-66.088,7,6,190,8,,15,30.38,1028.9,,,,,,,,,,FEW,4200,,,,,,,VFR,,,,,,,,,,,,METAR,37
CYQH 050100Z 11007KT 080V140 40SM BKN090 BKN120 17/M05 A2958 RMK AC6AC1 CU EMBD/VIRGA ALQDS SLP030 DENSITY ALT 3500FT,CYQH,2024-05-05T01:00:00Z,60.116,-128.832,17,-5,110,7,,40,29.58,1003,,,,,,,,,,BKN,9000,BKN,12000,,,,,VFR,,,,,,,,,,,,METAR,692
CYQG 050100Z AUTO 13006KT 9SM SCT055 BKN066 BKN081 BKN110 19/17 A2992 RMK SLP133 DENSITY ALT 1300FT,CYQG,2024-05-05T01:00:00Z,42.269,-82.963,19,17,130,6,,9,29.92,1013.3,,TRUE,,,,,,,,SCT,5500,BKN,6600,BKN,8100,BKN,11000,VFR,,,,,,,,,,,,METAR,189
CYQF 050100Z AUTO 12010G16KT 9SM BKN240 13/M04 A2978 RMK SLP111 DENSITY ALT 3600FT,CYQF,2024-05-05T01:00:00Z,52.179,-113.903,13,-4,120,10,16,9,29.78,1011.1,,TRUE,,,,,,,,BKN,24000,,,,,,,VFR,,,,,,,,,,,,METAR,912
CYQD 050100Z AUTO 35004KT 320V030 9SM BKN066 12/M01 A2990 RMK SLP137,CYQD,2024-05-05T01:00:00Z,53.975,-101.089,12,-1,350,4,,9,29.90,1013.7,,TRUE,,,,,,,,BKN,6600,,,,,,,VFR,,,,,,,,,,,,METAR,268
CYQB 050100Z 08010KT 15SM FEW012 FEW080 SCT250 08/05 A3031 RMK SF1AC1CI2 SF TR SLP270,CYQB,2024-05-05T01:00:00Z,46.791,-71.396,8,5,80,10,,15,30.31,1027,,,,,,,,,,FEW,1200,FEW,8000,SCT,25000,,,VFR,,,,,,,,,,,,METAR,73
CYQA 050100Z AUTO 13010G15KT 9SM OVC081 17/11 A3003 RMK SLP171 DENSITY ALT 1300FT,CYQA,2024-05-05T01:00:00Z,44.971,-79.303,17,11,130,10,15,9,30.03,1017.1,,TRUE,,,,,,,,OVC,8100,,,,,,,VFR,,,,,,,,,,,,METAR,277
CYPY 050100Z AUTO 07007KT 9SM CLR 08/M01 A2992 RMK SLP145,CYPY,2024-05-05T01:00:00Z,58.766,-111.117,8,-1,70,7,,9,29.92,1014.5,,TRUE,,,,,,,,CLR,,,,,,,,VFR,,,,,,,,,,,,METAR,225
CYPW 050100Z 00000KT 30SM BKN093 OVC110 16/09 A2955 RMK AC7AC1 SLP011 DENSITY ALT 1100FT,CYPW,2024-05-05T01:00:00Z,49.835,-124.499,16,9,0,0,,30,29.55,1001.1,,,,,,,,,,BKN,9300,OVC,11000,,,,,VFR,,,,,,,,,,,,METAR,122
CYPR 050100Z AUTO 29006KT 9SM CLR 15/08 A2958 RMK SLP018 DENSITY ALT 600FT,CYPR,2024-05-05T01:00:00Z,54.291,-130.451,15,8,290,6,,9,29.58,1001.8,,TRUE,,,,,,,,CLR,,,,,,,,VFR,,,,,,,,,,,,METAR,30
CYPQ 050100Z AUTO 10006KT 080V150 9SM SCT055 OVC079 16/09 A3007 RMK SLP184,CYPQ,2024-05-05T01:00:00Z,44.232,-78.36,16,9,100,6,,9,30.07,1018.4,,TRUE,,,,,,,,SCT,5500,OVC,7900,,,,,VFR,,,,,,,,,,,,METAR,190
CYPO 050100Z AUTO 22011KT 9SM BKN028 OVC035 05/01 A2980 RMK SLP095,CYPO,2024-05-05T01:00:00Z,54.988,-85.439,5,1,220,11,,9,29.80,1009.5,,TRUE,,,,,,,,BKN,2800,OVC,3500,,,,,MVFR,,,,,,,,,,,,METAR,49
CYPL 050100Z AUTO 26004KT 9SM BKN038 07/03 A2988 RMK SLP137,CYPL,2024-05-05T01:00:00Z,51.449,-90.218,7,3,260,4,,9,29.88,1013.7,,TRUE,,,,,,,,BKN,3800,,,,,,,VFR,,,,,,,,,,,,METAR,390
CYPE 050100Z 09008KT 15SM BKN093 14/M04 A2976 RMK AC7 SLP098 DENSITY ALT 2500FT,CYPE,2024-05-05T01:00:00Z,56.228,-117.453,14,-4,90,8,,15,29.76,1009.8,,,,,,,,,,BKN,9300,,,,,,,VFR,,,,,,,,,,,,METAR,572
CYPD 050100Z AUTO 28004KT 9SM OVC006 04/03 A3040 RMK SLP300,CYPD,2024-05-05T01:00:00Z,45.657,-61.374,4,3,280,4,,9,30.40,1030,,TRUE,,,,,,,,OVC,600,,,,,,,IFR,,,,,,,,,,,,METAR,106
CYPA 050100Z 20010KT 15SM SCT044 SCT075 10/03 A2992 RMK SC3AC1 AC TR SLP152,CYPA,2024-05-05T01:00:00Z,53.217,-105.679,10,3,200,10,,15,29.92,1015.2,,,,,,,,,,SCT,4400,SCT,7500,,,,,VFR,,,,,,,,,,,,METAR,428
CYOW 050100Z 10007KT 15SM FEW084 BKN120 17/12 A3014 RMK AC2AC4 SLP209,CYOW,2024-05-05T01:00:00Z,45.307,-75.66,17,12,100,7,,15,30.14,1020.9,,,,,,,,,,FEW,8400,BKN,12000,,,,,VFR,,,,,,,,,,,,METAR,111
CYOO 050100Z AUTO 09013G19KT 9SM FEW047 OVC081 16/10 A3001 RMK SLP166,CYOO,2024-05-05T01:00:00Z,43.921,-78.899,16,10,90,13,19,9,30.01,1016.6,,TRUE,,,,,,,,FEW,4700,OVC,8100,,,,,VFR,,,,,,,,,,,,METAR,136
CYOJ 050100Z 13006KT 15SM FEW060 17/M08 A2978 RMK CU1 CU TR LAST STFD OBS/NXT 051400Z SLP099 DENSITY ALT 1800FT,CYOJ,2024-05-05T01:00:00Z,58.628,-117.174,17,-8,130,6,,15,29.78,1009.9,,,,,,,,,,FEW,6000,,,,,,,VFR,,,,,,,,,,,,METAR,339
CYOD 050100Z 14005KT 15SM FEW055 FEW250 12/M02 A2989 RMK CU1CI1 DENSITY ALT 1893FT SLP140,CYOD,2024-05-05T01:00:00Z,54.41,-110.287,12,-2,140,5,,15,29.89,1014,,,,,,,,,,FEW,5500,FEW,25000,,,,,VFR,,,,,,,,,,,,METAR,540
CYNM 050100Z AUTO 13002KT 9SM CLR 13/08 A3000 RMK SLP168,CYNM,2024-05-05T01:00:00Z,49.759,-77.793,13,8,130,2,,9,30.00,1016.8,,TRUE,,,,,,,,CLR,,,,,,,,VFR,,,,,,,,,,,,METAR,276
CYNE 050100Z AUTO 31004KT 290V350 9SM OVC050 07/00 A2991 RMK SLP142,CYNE,2024-05-05T01:00:00Z,53.958,-97.845,7,0,310,4,,9,29.91,1014.2,,TRUE,,,,,,,,OVC,5000,,,,,,,VFR,,,,,,,,,,,,METAR,220
CYND 050100Z 09007KT 15SM FEW053 FEW072 BKN250 17/11 A3014 RMK SC1AC1CI3 SLP208,CYND,2024-05-05T01:00:00Z,45.52,-75.563,17,11,90,7,,15,30.14,1020.8,,,,,,,,,,FEW,5300,FEW,7200,BKN,25000,,,VFR,,,,,,,,,,,,METAR,57
CYNA 050100Z AUTO 33004KT 9SM BKN200 BKN220 OVC240 00/M01 A3045 RMK SLP315,CYNA,2024-05-05T01:00:00Z,50.19,-61.789,0,-1,330,4,,9,30.45,1031.5,,TRUE,,,,,,,,BKN,20000,BKN,22000,OVC,24000,,,VFR,,,,,,,,,,,,METAR,9
CYMX 050100Z 07005KT 030V090 25SM BKN082 BKN250 15/10 A3018 RMK AC7CI1 CI TR SLP224,CYMX,2024-05-05T01:00:00Z,45.68,-74.038,15,10,70,5,,25,30.18,1022.4,,,,,,,,,,BKN,8200,BKN,25000,,,,,VFR,,,,,,,,,,,,METAR,78
CYMU 050100Z 16013KT 12SM VCSH SCT032 BKN047 OVC060 06/03 A2991 RMK SC4SC3SC1 SLP135,CYMU,2024-05-05T01:00:00Z,56.538,-76.52,6,3,160,13,,12,29.91,1013.5,,,,,,,,,VCSH,SCT,3200,BKN,4700,OVC,6000,,,VFR,,,,,,,,,,,,METAR,69
CYMT 050100Z AUTO 11006KT 9SM CLR 12/09 A3013 RMK SLP217,CYMT,2024-05-05T01:00:00Z,49.779,-74.527,12,9,110,6,,9,30.13,1021.7,,TRUE,,,,,,,,CLR,,,,,,,,VFR,,,,,,,,,,,,METAR,388
CYMO 050100Z AUTO 02003KT 9SM OVC140 14/07 A2994 RMK SLP140,CYMO,2024-05-05T01:00:00Z,51.292,-80.607,14,7,20,3,,9,29.94,1014,,TRUE,,,,,,,,OVC,14000,,,,,,,VFR,,,,,,,,,,,,METAR,8
CYMM 050100Z AUTO 05004KT 030V110 9SM CLR 14/M01 A2985 RMK SLP127 DENSITY ALT 1500FT,CYMM,2024-05-05T01:00:00Z,56.65,-111.221,14,-1,50,4,,9,29.85,1012.7,,TRUE,,,,,,,,CLR,,,,,,,,VFR,,,,,,,,,,,,METAR,371
CYMH 050100Z AUTO 16003KT 9SM OVC110 M00/M03 A3049 RMK SLP326,CYMH,2024-05-05T01:00:00Z,52.304,-55.833,0,-3,160,3,,9,30.49,1032.6,,TRUE,,,,,,,,OVC,11000,,,,,,,VFR,,,,,,,,,,,,METAR,18
CYMA 050100Z 00000KT 20SM BKN065TCU OVC088 14/M04 A2942 RMK TCU6AS2 SLP980 DENSITY ALT 2600FT,CYMA,2024-05-05T01:00:00Z,63.616,-135.88,14,-4,0,0,,20,29.42,998,,,,,,,,,,BKN,6500,OVC,8800,,,,,VFR,,,,,,,,,,,,METAR,519
CYLW 050100Z AUTO 30013G18KT 9SM FEW110 BKN130 BKN190 19/M01 A2953 RMK SLP003 DENSITY ALT 2700FT,CYLW,2024-05-05T01:00:00Z,49.953,-119.375,19,-1,300,13,18,9,29.53,1000.3,,TRUE,,,,,,,,FEW,11000,BKN,13000,BKN,19000,,,VFR,,,,,,,,,,,,METAR,420
CYLL 050100Z 11005KT 070V150 15SM FEW050 10/M02 A2988 RMK SC2 SLP146,CYLL,2024-05-05T01:00:00Z,53.312,-110.074,10,-2,110,5,,15,29.88,1014.6,,,,,,,,,,FEW,5000,,,,,,,VFR,,,,,,,,,,,,METAR,664
CYLH 050100Z AUTO 22004KT 9SM FEW036 07/02 A2988 RMK SLP131,CYLH,2024-05-05T01:00:00Z,52.196,-87.936,7,2,220,4,,9,29.88,1013.1,,TRUE,,,,,,,,FEW,3600,,,,,,,VFR,,,,,,,,,,,,METAR,245
CYLD 050100Z 15005KT 120V180 15SM FEW043 OVC140 18/04 A2985 RMK SC2AS6 LAST STFD OBS NEXT 05 1000 UTC SLP118 DENSITY ALT 2300FT,CYLD,2024-05-05T01:00:00Z,47.818,-83.358,18,4,150,5,,15,29.85,1011.8,,,,,,,,,,FEW,4300,OVC,14000,,,,,VFR,,,,,,,,,,,,METAR,449
CYKY 050100Z 03008KT 15SM FEW040 FEW240 10/M00 A2987 RMK CU1CI1 CU TR CI TR SLP135,CYKY,2024-05-05T01:00:00Z,51.517,-109.175,10,0,30,8,,15,29.87,1013.5,,,,,,,,,,FEW,4000,FEW,24000,,,,,VFR,,,,,,,,,,,,METAR,692
CYKP 050100Z AUTO VRB02KT 9SM OVC110 09/07 A2987 RMK SLP120,CYKP,2024-05-05T01:00:00Z,51.659,-85.901,9,7,VRB,2,,9,29.87,1012,,TRUE,,,,,,,,OVC,11000,,,,,,,VFR,,,,,,,,,,,,METAR,181
CYKL 050100Z AUTO 13004KT 110V190 9SM OVC018 05/02 A3018 RMK SLP249,CYKL,2024-05-05T01:00:00Z,54.803,-66.804,5,2,130,4,,9,30.18,1024.9,,TRUE,,,,,,,,OVC,1800,,,,,,,MVFR,,,,,,,,,,,,METAR,507
CYKJ 050100Z AUTO 02003KT 9SM FEW035 OVC066 05/M01 A2992 RMK SLP160,CYKJ,2024-05-05T01:00:00Z,57.256,-105.618,5,-1,20,3,,9,29.92,1016,,TRUE,,,,,,,,FEW,3500,OVC,6600,,,,,VFR,,,,,,,,,,,,METAR,519
CYKF 050100Z AUTO 09009KT 9SM FEW044 OVC130 16/13 A2999 RMK SLP158 DENSITY ALT 1300FT,CYKF,2024-05-05T01:00:00Z,43.462,-80.386,16,13,90,9,,9,29.99,1015.8,,TRUE,,,,,,,,FEW,4400,OVC,13000,,,,,VFR,,,,,,,,,,,,METAR,312
CYKA 050100Z 12006KT 020V140 40SM SCT100 OVC240 20/M01 A2956 RMK AC4CI4 SLP012 DENSITY ALT 2500FT,CYKA,2024-05-05T01:00:00Z,50.704,-120.444,20,-1,120,6,,40,29.56,1001.2,,,,,,,,,,SCT,10000,OVC,24000,,,,,VFR,,,,,,,,,,,,METAR,344
CYJT 050100Z 06011KT 15SM SKC 05/M00 A3042 RMK SLP303,CYJT,2024-05-05T01:00:00Z,48.545,-58.564,5,0,60,11,,15,30.42,1030.3,,,,,,,,,,SKC,,,,,,,,VFR,,,,,,,,,,,,METAR,7
CYIV 050100Z AUTO 27004KT 9SM BKN050 OVC071 04/02 A2986 RMK SLP127,CYIV,2024-05-05T01:00:00Z,53.857,-94.655,4,2,270,4,,9,29.86,1012.7,,TRUE,,,,,,,,BKN,5000,OVC,7100,,,,,VFR,,,,,,,,,,,,METAR,234
CYIN 050100Z AUTO 14005KT 090V180 9SM CLR 13/M02 A2962 RMK SLP040 DENSITY ALT 4700FT,CYIN,2024-05-05T01:00:00Z,51.265,-121.681,13,-2,140,5,,9,29.62,1004,,TRUE,,,,,,,,CLR,,,,,,,,VFR,,,,,,,,,,,,METAR,1127
CYHZ 050100Z 16003KT 15SM OVC024 06/04 A3041 RMK SC8 SLP305,CYHZ,2024-05-05T01:00:00Z,44.8781,-63.5136,6,4,160,3,,15,30.41,1030.5,,,,,,,,,,OVC,2400,,,,,,,MVFR,,,,,,,,,,,,METAR,136
CYHY 050100Z 07011KT 15SM FEW040 05/M02 A2988 RMK SC1 SC TR SLP131,CYHY,2024-05-05T01:00:00Z,60.839,-115.781,5,-2,70,11,,15,29.88,1013.1,,,,,,,,,,FEW,4000,,,,,,,VFR,,,,,,,,,,,,METAR,159
CYHU 050100Z AUTO 03005KT 9SM BKN081 15/12 A3018 RMK SLP222,CYHU,2024-05-05T01:00:00Z,45.516,-73.415,15,12,30,5,,9,30.18,1022.2,,TRUE,,,,,,,,BKN,8100,,,,,,,VFR,,,,,,,,,,,,METAR,26
CYHM 050100Z 04006KT 15SM FEW040 BKN120 BKN210 BKN250 11/10 A3001 RMK SC1AC5CC1CI1 SC TR CI TR SLP168,CYHM,2024-05-05T01:00:00Z,43.173,-79.936,11,10,40,6,,15,30.01,1016.8,,,,,,,,,,FEW,4000,BKN,12000,BKN,21000,BKN,25000,VFR,,,,,,,,,,,,METAR,237
CYHK 050100Z AUTO 12005KT 9SM CLR M04/M06 A3023 RMK SLP245,CYHK,2024-05-05T01:00:00Z,68.633,-95.851,-4,-6,120,5,,9,30.23,1024.5,,TRUE,,,,,,,,CLR,,,,,,,,VFR,,,,,,,,,,,,METAR,36
CYHE 050100Z AUTO 08004KT 030V140 9SM CLR 21/03 A2950 RMK SLP993 DENSITY ALT 1400FT,CYHE,2024-05-05T01:00:00Z,49.37,-121.493,21,3,80,4,,9,29.50,999.3,,TRUE,,,,,,,,CLR,,,,,,,,VFR,,,,,,,,,,,,METAR,43
CYHD 050100Z AUTO 26005KT 9SM FEW040 OVC060 08/02 A2993 RMK SLP152,CYHD,2024-05-05T01:00:00Z,49.83,-92.74,8,2,260,5,,9,29.93,1015.2,,TRUE,,,,,,,,FEW,4000,OVC,6000,,,,,VFR,,,,,,,,,,,,METAR,414
CYGW 050100Z AUTO 17006KT 9SM OVC066 10/04 A2992 RMK SLP133,CYGW,2024-05-05T01:00:00Z,55.283,-77.76,10,4,170,6,,9,29.92,1013.3,,TRUE,,,,,,,,OVC,6600,,,,,,,VFR,,,,,,,,,,,,METAR,13
CYGV 050100Z AUTO 14004KT 9SM SCT170 BKN190 OVC210 01/M01 A3044 RMK SLP314,CYGV,2024-05-05T01:00:00Z,50.286,-63.606,1,-1,140,4,,9,30.44,1031.4,,TRUE,,,,,,,,SCT,17000,BKN,19000,OVC,21000,,,VFR,,,,,,,,,,,,METAR,32
CYGR 050100Z 04007KT 15SM BKN010 01/M00 A3043 RMK SC5 SLP308,CYGR,2024-05-05T01:00:00Z,47.425,-61.775,1,0,40,7,,15,30.43,1030.8,,,,,,,,,,BKN,1000,,,,,,,MVFR,,,,,,,,,,,,METAR,4
CYGP 050100Z 00000KT 12SM SCT094 SCT160 OVC220 01/M00 A3044 RMK AC4AC1CS4 AC TR SLP311,CYGP,2024-05-05T01:00:00Z,48.777,-64.478,1,0,0,0,,12,30.44,1031.1,,,,,,,,,,SCT,9400,SCT,16000,OVC,22000,,,VFR,,,,,,,,,,,,METAR,31
CYGL 050100Z 19007KT 15SM -RA SCT055 OVC088 11/06 A2999 RMK SC4AC4 SLP164,CYGL,2024-05-05T01:00:00Z,53.625,-77.7,11,6,190,7,,15,29.99,1016.4,,,,,,,,,-RA,SCT,5500,OVC,8800,,,,,VFR,,,,,,,,,,,,METAR,192
CYGK 050100Z 10006KT 15SM SCT082 SCT100 BKN140 17/10 A3011 RMK AC3AC1AC3 SLP200,CYGK,2024-05-05T01:00:00Z,44.223,-76.599,17,10,100,6,,15,30.11,1020,,,,,,,,,,SCT,8200,SCT,10000,BKN,14000,,,VFR,,,,,,,,,,,,METAR,91
CYFC 050100Z AUTO 06007KT 9SM OVC140 08/04 A3041 RMK SLP301,CYFC,2024-05-05T01:00:00Z,45.873,-66.539,8,4,60,7,,9,30.41,1030.1,,TRUE,,,,,,,,OVC,14000,,,,,,,VFR,,,,,,,,,,,,METAR,16
CYFB 050100Z 13012KT 30SM OVC012 M05/M08 A3034 RMK SC8 SLP279,CYFB,2024-05-05T01:00:00Z,63.75,-68.544,-5,-8,130,12,,30,30.34,1027.9,,,,,,,,,,OVC,1200,,,,,,,MVFR,,,,,,,,,,,,METAR,23
CYEV 050100Z 34010G16KT 15SM OVC012 M06/M09 A2976 RMK SC8 SLP087,CYEV,2024-05-05T01:00:00Z,68.309,-133.5,-6,-9,340,10,16,15,29.76,1008.7,,,,,,,,,,OVC,1200,,,,,,,MVFR,,,,,,,,,,,,METAR,74
CYET 050100Z AUTO 13008KT 9SM CLR 13/M05 A2972 RMK SLP090 DENSITY ALT 3800FT,CYET,2024-05-05T01:00:00Z,53.58,-116.455,13,-5,130,8,,9,29.72,1009,,TRUE,,,,,,,,CLR,,,,,,,,VFR,,,,,,,,,,,,METAR,925
CYEN 050100Z AUTO 10004KT 080V160 9SM CLR 12/01 A2996 RMK SLP162,CYEN,2024-05-05T01:00:00Z,49.207,-102.963,12,1,100,4,,9,29.96,1016.2,,TRUE,,,,,,,,CLR,,,,,,,,VFR,,,,,,,,,,,,METAR,580
CYEK 050100Z AUTO 04015KT 9SM OVC008 M01/M02 A2993 RMK SLP139,CYEK,2024-05-05T01:00:00Z,61.098,-94.072,-1,-2,40,15,,9,29.93,1013.9,,TRUE,,,,,,,,OVC,800,,,,,,,IFR,,,,,,,,,,,,METAR,7
CYEG 050100Z 14009KT 20SM FEW060 BKN200 13/M04 A2981 RMK SC1CS7 SC TR SLP121 DENSITY ALT 2800FT,CYEG,2024-05-05T01:00:00Z,53.308,-113.592,13,-4,140,9,,20,29.81,1012.1,,,,,,,,,,FEW,6000,BKN,20000,,,,,VFR,,,,,,,,,,,,METAR,710
CYDQ 050100Z AUTO 03009KT 9SM CLR 16/M05 A2970 RMK SLP081 DENSITY ALT 3000FT,CYDQ,2024-05-05T01:00:00Z,55.741,-120.188,16,-5,30,9,,9,29.70,1008.1,,TRUE,,,,,,,,CLR,,,,,,,,VFR,,,,,,,,,,,,METAR,658
CYDN 050100Z AUTO 29004KT 9SM OVC081 11/02 A2995 RMK SLP152,CYDN,2024-05-05T01:00:00Z,51.1,-100.057,11,2,290,4,,9,29.95,1015.2,,TRUE,,,,,,,,OVC,8100,,,,,,,VFR,,,,,,,,,,,,METAR,302
CYDL 050100Z AUTO 20009G15KT 170V230 9SM BKN091 BKN110 17/M05 A2959 RMK SLP030 DENSITY ALT 3900FT,CYDL,2024-05-05T01:00:00Z,58.426,-130.025,17,-5,200,9,15,9,29.59,1003,,TRUE,,,,,,,,BKN,9100,BKN,11000,,,,,VFR,,,,,,,,,,,,METAR,804
CYDF 050100Z 04008KT 15SM OVC021 01/M02 A3047 RMK SC8 SLP322,CYDF,2024-05-05T01:00:00Z,49.212,-57.394,1,-2,40,8,,15,30.47,1032.2,,,,,,,,,,OVC,2100,,,,,,,MVFR,,,,,,,,,,,,METAR,15
CYDC 050100Z 11007G16KT 340V130 15SM FEW061 SCT068 BKN078 OVC098 15/M01 A2957 RMK SC1AC2AS3AS2 LAST STFD OBS/NEXT 05 1300Z SLP016 DENSITY ALT 3300FT,CYDC,2024-05-05T01:00:00Z,49.468,-120.514,15,-1,110,7,16,15,29.57,1001.6,,,,,,,,,,FEW,6100,SCT,6800,BKN,7800,OVC,9800,VFR,,,,,,,,,,,,METAR,703
CYDB 050100Z AUTO 13020G31KT 9SM CLR 11/M02 A2933 RMK SLP958 DENSITY ALT 3500FT,CYDB,2024-05-05T01:00:00Z,61.37,-139.032,11,-2,130,20,31,9,29.33,995.8,,TRUE,,,,,,,,CLR,,,,,,,,VFR,,,,,,,,,,,,METAR,807
CYCY 050100Z AUTO 31007KT 9SM SCT060 M09/M12 A3038 RMK SLP293,CYCY,2024-05-05T01:00:00Z,70.484,-68.515,-9,-12,310,7,,9,30.38,1029.3,,TRUE,,,,,,,,SCT,6000,,,,,,,VFR,,,,,,,,,,,,METAR,73
CYCQ 050100Z 07012KT 35SM FEW045TCU SCT110 BKN180 OVC220 17/M08 A2967 RMK TCU2AC2AS1CI3 VIRGA S-NW FU DIST MT W LAST STFD OBS/NXT 051300Z SLP068 DENSITY ALT 3100FT,CYCQ,2024-05-05T01:00:00Z,55.689,-121.62,17,-8,70,12,,35,29.67,1006.8,,,,,,,,,,FEW,4500,SCT,11000,BKN,18000,OVC,22000,VFR,,,,,,,,,,,,METAR,614
CYCP 050100Z 10005KT 050V130 15SM SCT110 OVC280 17/M05 A2961 RMK AC3CS5 LAST STFD OBS/NXT 051300Z SLP042 DENSITY ALT 3500FT,CYCP,2024-05-05T01:00:00Z,52.129,-119.29,17,-5,100,5,,15,29.61,1004.2,,,,,,,,,,SCT,11000,OVC,28000,,,,,VFR,,,,,,,,,,,,METAR,677
CYCO 050100Z 20023G29KT 15SM SCT100 OVC260 04/M03 A2978 RMK AC4CS4 SLP089,CYCO,2024-05-05T01:00:00Z,67.817,-115.135,4,-3,200,23,29,15,29.78,1008.9,,,,,,,,,,SCT,10000,OVC,26000,,,,,VFR,,,,,,,,,,,,METAR,20
CYCK 050100Z AUTO 13008KT 9SM FEW029 OVC060 16/14 A2993 RMK SLP139 DENSITY ALT 900FT,CYCK,2024-05-05T01:00:00Z,42.307,-82.085,16,14,130,8,,9,29.93,1013.9,,TRUE,,,,,,,,FEW,2900,OVC,6000,,,,,VFR,,,,,,,,,,,,METAR,196
CYCG 050100Z 35009KT 15SM SCT100 BKN230 18/00 A2954 RMK AC4CS3 SLP006 DENSITY ALT 2800FT,CYCG,2024-05-05T01:00:00Z,49.295,-117.634,18,0,350,9,,15,29.54,1000.6,,,,,,,,,,SCT,10000,BKN,23000,,,,,VFR,,,,,,,,,,,,METAR,487
CYCD 050100Z 04003KT 30SM BKN095 OVC230 17/07 A2954 RMK AC6CI2 SLP004 DENSITY ALT 800FT,CYCD,2024-05-05T01:00:00Z,49.052,-123.874,17,7,40,3,,30,29.54,1000.4,,,,,,,,,,BKN,9500,OVC,23000,,,,,VFR,,,,,,,,,,,,METAR,30
CYCB 050100Z 16014KT 15SM FEW080 FEW140 SCT230 M03/M05 A3008 RMK AC1AC1CS2 SLP192,CYCB,2024-05-05T01:00:00Z,69.106,-105.116,-3,-5,160,14,,15,30.08,1019.2,,,,,,,,,,FEW,8000,FEW,14000,SCT,23000,,,VFR,,,,,,,,,,,,METAR,19
CYCA 050100Z AUTO VRB02KT 9SM OVC140 00/M03 A3043 RMK SLP309,CYCA,2024-05-05T01:00:00Z,53.683,-57.042,0,-3,VRB,2,,9,30.43,1030.9,,TRUE,,,,,,,,OVC,14000,,,,,,,VFR,,,,,,,,,,,,METAR,12
CYBX 050100Z 05008KT 15SM SCT083 BKN110 00/M03 A3048 RMK AC4AC2 SLP325,CYBX,2024-05-05T01:00:00Z,51.442,-57.188,0,-3,50,8,,15,30.48,1032.5,,,,,,,,,,SCT,8300,BKN,11000,,,,,VFR,,,,,,,,,,,,METAR,32
CYBW 050100Z AUTO 18012G23KT 130V200 9SM OVC081 13/M04 A2975 RMK PCPN 0.8MM PAST HR SLP101 DENSITY ALT 4900FT,CYBW,2024-05-05T01:00:00Z,51.108,-114.382,13,-4,180,12,23,9,29.75,1010.1,,TRUE,,,,,,,,OVC,8100,,,,,,,VFR,,,,,,,,,,,,METAR,1197
CYBU 050100Z AUTO 21007KT 9SM FEW071 BKN099 13/00 A2992 RMK SLP146,CYBU,2024-05-05T01:00:00Z,53.333,-104.005,13,0,210,7,,9,29.92,1014.6,,TRUE,,,,,,,,FEW,7100,BKN,9900,,,,,VFR,,,,,,,,,,,,METAR,369
CYBR 050100Z 29007KT 15SM BKN073 12/01 A2997 RMK AC6 SLP163,CYBR,2024-05-05T01:00:00Z,49.91,-99.945,12,1,290,7,,15,29.97,1016.3,,,,,,,,,,BKN,7300,,,,,,,VFR,,,,,,,,,,,,METAR,405
CYBL 050100Z VRB02KT 30SM BKN090 BKN200 19/06 A2954 RMK AC6CI1 SLP006 DENSITY ALT 1400FT,CYBL,2024-05-05T01:00:00Z,49.951,-125.269,19,6,VRB,2,,30,29.54,1000.6,,,,,,,,,,BKN,9000,BKN,20000,,,,,VFR,,,,,,,,,,,,METAR,94
CYBK 050100Z 05010G16KT 20SM FEW012 FEW073 BKN160 M02/M04 A3014 RMK SC1AC1AC5 SC TR AC TR SLP209,CYBK,2024-05-05T01:00:00Z,64.306,-96.078,-2,-4,50,10,16,20,30.14,1020.9,,,,,,,,,,FEW,1200,FEW,7300,BKN,16000,,,VFR,,,,,,,,,,,,METAR,14
CYBG 050100Z 09017KT 25SM BKN070 BKN220 08/04 A3027 RMK AC5CI1 DENSITY ALT -455FT SLP258,CYBG,2024-05-05T01:00:00Z,48.331,-70.989,8,4,90,17,,25,30.27,1025.8,,,,,,,,,,BKN,7000,BKN,22000,,,,,VFR,,,,,,,,,,,,METAR,151
CYBD 050100Z 24009G15KT 15SM BKN110 23/00 A2950 RMK AC7 LAST STFD OBS/NXT 051300Z/ SLP991 DENSITY ALT 1600FT,CYBD,2024-05-05T01:00:00Z,52.388,-126.589,23,0,240,9,15,15,29.50,999.1,,,,,,,,,,BKN,11000,,,,,,,VFR,,,,,,,,,,,,METAR,40
CYBC 050100Z AUTO 09011KT 9SM OVC100 04/01 A3041 RMK SLP301,CYBC,2024-05-05T01:00:00Z,49.135,-68.202,4,1,90,11,,9,30.41,1030.1,,TRUE,,,,,,,,OVC,10000,,,,,,,VFR,,,,,,,,,,,,METAR,20
CYBB 050100Z 34003KT 250V350 15SM BKN100 M03/M06 A3028 RMK AC6 WX CALLOUT SLP257,CYBB,2024-05-05T01:00:00Z,68.536,-89.792,-3,-6,340,3,,15,30.28,1025.7,,,,,,,,,,BKN,10000,,,,,,,VFR,,,,,,,,,,,,METAR,13
CYAZ 050100Z 32004KT 15SM OVC080 12/10 A2958 RMK AC8 LAST STFD OBS/NXT 051300Z SLP018,CYAZ,2024-05-05T01:00:00Z,49.08,-125.767,12,10,320,4,,15,29.58,1001.8,,,,,,,,,,OVC,8000,,,,,,,VFR,,,,,,,,,,,,METAR,26
CYAY 050100Z AUTO 12008KT 9SM OVC110 M01/M03 A3048 RMK SLP326,CYAY,2024-05-05T01:00:00Z,51.39,-56.081,-1,-3,120,8,,9,30.48,1032.6,,TRUE,,,,,,,,OVC,11000,,,,,,,VFR,,,,,,,,,,,,METAR,23
CYAT 050100Z AUTO 21005KT 9SM BKN110 OVC130 13/06 A2988 RMK SLP122,CYAT,2024-05-05T01:00:00Z,52.927,-82.432,13,6,210,5,,9,29.88,1012.2,,TRUE,,,,,,,,BKN,11000,OVC,13000,,,,,VFR,,,,,,,,,,,,METAR,4
CYAM 050100Z 10005KT 20SM FEW057 SCT150 BKN170 BKN200 BKN230 15/11 A2983 RMK SC1ACC3AC2CC1CI1 SC TR ACC E-SE W-NW MOV NE SLP109 DENSITY ALT 900FT,CYAM,2024-05-05T01:00:00Z,46.484,-84.504,15,11,100,5,,20,29.83,1010.9,,,,,,,,,,FEW,5700,SCT,15000,BKN,17000,BKN,20000,VFR,,,,,,,,,,,,METAR,186
CYAH 050100Z AUTO 15003KT 120V290 9SM FEW060 SCT083 BKN100 OVC180 09/06 A3007 RMK SLP199,CYAH,2024-05-05T01:00:00Z,53.757,-73.676,9,6,150,3,,9,30.07,1019.9,,TRUE,,,,,,,,FEW,6000,SCT,8300,BKN,10000,OVC,18000,VFR,,,,,,,,,,,,METAR,298
CXZV 050100Z AUTO 04001KT 01/M01 RMK AO1 SLP310 T00131007 58008,CXZV,2024-05-05T01:00:00Z,50.217,-66.26,1.3,-0.7,40,1,,,0.00,1031,,TRUE,TRUE,,,,,,,,,,,,,,,,-0.08,,,,,,,,,,,METAR,43
CXZC 050100Z AUTO 01002KT 14/06 RMK AO1 SOG 01 6017 SLP144 T01410061,CXZC,2024-05-05T01:00:00Z,51.292,-80.618,14.1,6.1,10,2,,,0.00,1014.4,,TRUE,TRUE,,,,,,,,,,,,,,,,,,,,,,,,,,,METAR,8
CXWN 050100Z AUTO 33004KT 10/M00 RMK AO1 SLP165 T01031004 55001,CXWN,2024-05-05T01:00:00Z,49.889,-97.13,10.3,-0.4,330,4,,,0.00,1016.5,,TRUE,TRUE,,,,,,,,,,,,,,,,-0.01,,,,,,,,,,,METAR,232
CXWM 050100Z AUTO 10010KT 15/M04 RMK AO1 PK WND 12017/0054 T01451041,CXWM,2024-05-05T01:00:00Z,49.495,-112.113,14.5,-4.1,100,10,,,0.00,,,TRUE,TRUE,,,,,,,,,,,,,,,,,,,,,,,,,,,METAR,947
CXVN 050100Z AUTO 29005KT 09/08 RMK AO1 SLP168 T00890077 56001,CXVN,2024-05-05T01:00:00Z,43.183,-79.4,8.9,7.7,290,5,,,0.00,1016.8,,TRUE,TRUE,,,,,,,,,,,,,,,,-0.01,,,,,,,,,,,METAR,86
CXVM 050100Z AUTO 10005KT 11/M00 RMK AO1 T01071003,CXVM,2024-05-05T01:00:00Z,53.344,-110.882,10.7,-0.3,100,5,,,0.00,,,TRUE,TRUE,,,,,,,,,,,,,,,,,,,,,,,,,,,METAR,622
CXTP 050100Z AUTO 01005KT 01/M01 RMK AO1 SLP293 T00071014 50003,CXTP,2024-05-05T01:00:00Z,48.557,-53.975,0.7,-1.4,10,5,,,0.00,1029.3,,TRUE,TRUE,,,,,,,,,,,,,,,,0.03,,,,,,,,,,,METAR,104
CXTO 050100Z AUTO 16/09 RMK AO1 SLP161 T01570091 57007,CXTO,2024-05-05T01:00:00Z,43.667,-79.4,15.7,9.1,,,,,0.00,1016.1,,TRUE,TRUE,,,,,,,,,,,,,,,,-0.07,,,,,,,,,,,METAR,115
CXTH 050100Z AUTO 08007KT 11/M02 RMK AO1 T01101021,CXTH,2024-05-05T01:00:00Z,53.625,-111.678,11,-2.1,80,7,,,0.00,,,TRUE,TRUE,,,,,,,,,,,,,,,,,,,,,,,,,,,METAR,679
CXTD 050100Z AUTO 33004KT 04/03 RMK AO1 SLP304 T00370028 53007,CXTD,2024-05-05T01:00:00Z,45.608,-61.68,3.7,2.8,330,4,,,0.00,1030.4,,TRUE,TRUE,,,,,,,,,,,,,,,,0.07,,,,,,,,,,,METAR,58
CXSL 050100Z AUTO 17005KT 12/M04 RMK AO1 T01221039,CXSL,2024-05-05T01:00:00Z,54.278,-112.499,12.2,-3.9,170,5,,,0.00,,,TRUE,TRUE,,,,,,,,,,,,,,,,,,,,,,,,,,,METAR,680
CXSH 050100Z AUTO 06006KT 13/06 RMK AO1 SLP245 T01260063 55001,CXSH,2024-05-05T01:00:00Z,46.564,-72.733,12.6,6.3,60,6,,,0.00,1024.5,,TRUE,TRUE,,,,,,,,,,,,,,,,-0.01,,,,,,,,,,,METAR,106
CXSE 050100Z AUTO 11007KT RMK AO1 SOG 46 8016,CXSE,2024-05-05T01:00:00Z,73.766,-105.296,,,110,7,,,0.00,,,TRUE,TRUE,,,,,,,,,,,,,,,,,,,,,,,,,,,METAR,11
CXRL 050100Z AUTO 11006KT 12/M02 RMK AO1 T01191022,CXRL,2024-05-05T01:00:00Z,54.503,-111.691,11.9,-2.2,110,6,,,0.00,,,TRUE,TRUE,,,,,,,,,,,,,,,,,,,,,,,,,,,METAR,585
CXRH 050100Z AUTO 17005KT 01/M03 RMK AO1 3PAST HR 0008 SLP318 P0001 T00101026 50003,CXRH,2024-05-05T01:00:00Z,49.57,-57.878,1,-2.6,170,5,,,0.00,1031.8,,TRUE,TRUE,,,,,,,,,,,,,,,,0.03,,,,,0.01,,,,,,METAR,68
CXRB 050100Z AUTO 13008KT M09/M10 RMK AO1 SLP209 T10851098 58019,CXRB,2024-05-05T01:00:00Z,74.716,-94.983,-8.5,-9.8,130,8,,,0.00,1020.9,,TRUE,TRUE,,,,,,,,,,,,,,,,-0.19,,,,,,,,,,,METAR,30
CXPL 050100Z AUTO 07012KT 15/01 RMK AO1 PK WND 07019/0058 T01450013,CXPL,2024-05-05T01:00:00Z,51.128,-111.705,14.5,1.3,70,12,,,0.00,,,TRUE,TRUE,,,,,,,,,,,,,,,,,,,,,,,,,,,METAR,735
CXPC 050100Z AUTO 21/13 RMK AO1 SLP152 T02060127 56004,CXPC,2024-05-05T01:00:00Z,45.344,-80.044,20.6,12.7,,,,,0.00,1015.2,,TRUE,TRUE,,,,,,,,,,,,,,,,-0.04,,,,,,,,,,,METAR,176
CXOX 050100Z AUTO 17004KT 11/M03 RMK AO1 SLP135 T01071028 57011,CXOX,2024-05-05T01:00:00Z,55.146,-105.27,10.7,-2.8,170,4,,,0.00,1013.5,,TRUE,TRUE,,,,,,,,,,,,,,,,-0.11,,,,,,,,,,,METAR,381
CXNP 050100Z AUTO 04005KT 05/02 RMK AO1 SLP306 T00520023 50008,CXNP,2024-05-05T01:00:00Z,45.76,-64.241,5.2,2.3,40,5,,,0.00,1030.6,,TRUE,TRUE,,,,,,,,,,,,,,,,0.08,,,,,,,,,,,METAR,19
CXNM 050100Z AUTO 15002KT 01/M00 RMK AO1 T00121001,CXNM,2024-05-05T01:00:00Z,46.818,-60.673,1.2,-0.1,150,2,,,0.00,,,TRUE,TRUE,,,,,,,,,,,,,,,,,,,,,,,,,,,METAR,452
CXMY 050100Z AUTO 06/04 RMK AO1 T00630036,CXMY,2024-05-05T01:00:00Z,44.984,-62.484,6.3,3.6,,,,,0.00,,,TRUE,TRUE,,,,,,,,,,,,,,,,,,,,,,,,,,,METAR,37
CXMM 050100Z AUTO 07004KT 14/M01 RMK AO1 SLP127 T01361014 56018,CXMM,2024-05-05T01:00:00Z,56.649,-111.221,13.6,-1.4,70,4,,,0.00,1012.7,,TRUE,TRUE,,,,,,,,,,,,,,,,-0.18,,,,,,,,,,,METAR,372
CXMI 050100Z AUTO 09007KT 06/04 RMK AO1 SLP301 T00600038 53018,CXMI,2024-05-05T01:00:00Z,44.602,-63.534,6,3.8,90,7,,,0.00,1030.1,,TRUE,TRUE,,,,,,,,,,,,,,,,0.18,,,,,,,,,,,METAR,15
CXMG 050100Z AUTO 13003KT 17/M06 RMK AO1 T01681058,CXMG,2024-05-05T01:00:00Z,56.974,-117.451,16.8,-5.8,130,3,,,0.00,,,TRUE,TRUE,,,,,,,,,,,,,,,,,,,,,,,,,,,METAR,467
CXMD 050100Z AUTO 03004KT 11/04 RMK AO1 SLP166 T01090043 56001,CXMD,2024-05-05T01:00:00Z,49.188,-98.084,10.9,4.3,30,4,,,0.00,1016.6,,TRUE,TRUE,,,,,,,,,,,,,,,,-0.01,,,,,,,,,,,METAR,297
CXLB 050100Z AUTO 05005KT 06/05 RMK AO1 SLP294 T00640048 51017,CXLB,2024-05-05T01:00:00Z,44.36,-64.296,6.4,4.8,50,5,,,0.00,1029.4,,TRUE,TRUE,,,,,,,,,,,,,,,,0.17,,,,,,,,,,,METAR,4
CXKT 050100Z AUTO 05004KT 07/03 RMK AO1 SLP302 T00670031 51017,CXKT,2024-05-05T01:00:00Z,45.067,-64.478,6.7,3.1,50,4,,,0.00,1030.2,,TRUE,TRUE,,,,,,,,,,,,,,,,0.17,,,,,,,,,,,METAR,48
CXKM 050100Z AUTO 11003KT 12/M04 RMK AO1 T01211039,CXKM,2024-05-05T01:00:00Z,52.849,-111.873,12.1,-3.9,110,3,,,0.00,,,TRUE,TRUE,,,,,,,,,,,,,,,,,,,,,,,,,,,METAR,679
CXKI 050100Z AUTO 00000KT 14/06 RMK AO1 SLP133 T01380063 56023,CXKI,2024-05-05T01:00:00Z,48.15,-80,13.8,6.3,0,0,,,0.00,1013.3,,TRUE,TRUE,,,,,,,,,,,,,,,,-0.23,,,,,,,,,,,METAR,328
CXKE 050100Z AUTO 12001KT 15/10 RMK AO1 SLP205 T01520099 55001,CXKE,2024-05-05T01:00:00Z,45.005,-75.637,15.2,9.9,120,1,,,0.00,1020.5,,TRUE,TRUE,,,,,,,,,,,,,,,,-0.01,,,,,,,,,,,METAR,99
CXKA 050100Z AUTO 10003KT 17/05 RMK AO1 SLP119 T01680048 58020,CXKA,2024-05-05T01:00:00Z,49.405,-82.443,16.8,4.8,100,3,,,0.00,1011.9,,TRUE,TRUE,,,,,,,,,,,,,,,,-0.2,,,,,,,,,,,METAR,221
CXIB 050100Z AUTO 26001KT 01/01 RMK AO1 SLP296 T00140006 51007,CXIB,2024-05-05T01:00:00Z,46.663,-60.406,1.4,0.6,260,1,,,0.00,1029.6,,TRUE,TRUE,,,,,,,,,,,,,,,,0.07,,,,,,,,,,,METAR,6
CXHR 050100Z AUTO 08010KT 13/M03 RMK AO1 PK WND 10018/0030 T01291029,CXHR,2024-05-05T01:00:00Z,51.191,-112.503,12.9,-2.9,80,10,,,0.00,,,TRUE,TRUE,,,,,,,,,,,,,,,,,,,,,,,,,,,METAR,975
CXHP 050100Z AUTO 08014KT 14/M05 RMK AO1 PK WND 07019/0001 T01401050,CXHP,2024-05-05T01:00:00Z,55.396,-116.48,14,-5,80,14,,,0.00,,,TRUE,TRUE,,,,,,,,,,,,,,,,,,,,,,,,,,,METAR,601
CXHM 050100Z AUTO 10002KT 11/08 RMK AO1 SLP169 T01140084 55002,CXHM,2024-05-05T01:00:00Z,43.286,-79.905,11.4,8.4,100,2,,,0.00,1016.9,,TRUE,TRUE,,,,,,,,,,,,,,,,-0.02,,,,,,,,,,,METAR,105
CXHD 050100Z AUTO 13005KT 11/M02 RMK AO1 T01141021,CXHD,2024-05-05T01:00:00Z,53.185,-112.246,11.4,-2.1,130,5,,,0.00,,,TRUE,TRUE,,,,,,,,,,,,,,,,,,,,,,,,,,,METAR,688
CXHA 050100Z AUTO 12004KT 17/16 RMK AO1 SLP130 T01700156 56006,CXHA,2024-05-05T01:00:00Z,42.033,-82.896,17,15.6,120,4,,,0.00,1013,,TRUE,TRUE,,,,,,,,,,,,,,,,-0.06,,,,,,,,,,,METAR,193
CXGH 050100Z AUTO 15003KT 04/02 RMK AO1 SLP162 T00440022 55002,CXGH,2024-05-05T01:00:00Z,50.631,-96.984,4.4,2.2,150,3,,,0.00,1016.2,,TRUE,TRUE,,,,,,,,,,,,,,,,-0.02,,,,,,,,,,,METAR,217
CXFR 050100Z AUTO 12008KT 15/M07 RMK AO1 PK WND 13018/0037 T01501070,CXFR,2024-05-05T01:00:00Z,56.081,-118.44,15,-7,120,8,,,0.00,,,TRUE,TRUE,,,,,,,,,,,,,,,,,,,,,,,,,,,METAR,657
CXET 050100Z AUTO 13006KT 17/12 RMK AO1 SLP165 T01680124 50000,CXET,2024-05-05T01:00:00Z,44.234,-79.779,16.8,12.4,130,6,,,0.00,1016.5,,TRUE,TRUE,,,,,,,,,,,,,,,,,,,,,,,,,,,METAR,250
CXEG 050100Z AUTO 13009KT 12/M04 RMK AO1 SLP118 T01151043 56020,CXEG,2024-05-05T01:00:00Z,53.307,-113.606,11.5,-4.3,130,9,,,0.00,1011.8,,TRUE,TRUE,,,,,,,,,,,,,,,,-0.2,,,,,,,,,,,METAR,706
CXEC 050100Z AUTO 16006KT 13/M03 RMK AO1 SLP112 T01301031 56019,CXEC,2024-05-05T01:00:00Z,53.573,-113.517,13,-3.1,160,6,,,0.00,1011.2,,TRUE,TRUE,,,,,,,,,,,,,,,,-0.19,,,,,,,,,,,METAR,666
CXEA 050100Z AUTO 31005KT 08/03 RMK AO1 SLP149 T00770026 55001,CXEA,2024-05-05T01:00:00Z,50.631,-93.221,7.7,2.6,310,5,,,0.00,1014.9,,TRUE,TRUE,,,,,,,,,,,,,,,,-0.01,,,,,,,,,,,METAR,351
CXDW 050100Z AUTO 26003KT 11/03 RMK AO1 SLP164 T01120027 56003,CXDW,2024-05-05T01:00:00Z,49.4,-98.319,11.2,2.7,260,3,,,0.00,1016.4,,TRUE,TRUE,,,,,,,,,,,,,,,,-0.03,,,,,,,,,,,METAR,341
CXDI 050100Z AUTO 18009KT 17/12 RMK AO1 SLP158 T01650122 53002,CXDI,2024-05-05T01:00:00Z,42.864,-80.545,16.5,12.2,180,9,,,0.00,1015.8,,TRUE,TRUE,,,,,,,,,,,,,,,,0.02,,,,,,,,,,,METAR,234
CXDE 050100Z AUTO 16006KT 18/M02 RMK AO1 SLP016 T01751017 56021,CXDE,2024-05-05T01:00:00Z,65.209,-123.434,17.5,-1.7,160,6,,,0.00,1001.6,,TRUE,TRUE,,,,,,,,,,,,,,,,-0.21,,,,,,,,,,,METAR,208
CXDB 050100Z AUTO 12016KT 12/M03 RMK AO1 PK WND 12023/0036 T01201027,CXDB,2024-05-05T01:00:00Z,49.048,-112.808,12,-2.7,120,16,,,0.00,,,TRUE,TRUE,,,,,,,,,,,,,,,,,,,,,,,,,,,METAR,1311
CXCS 050100Z AUTO 11006KT 11/M02 RMK AO1 T01121021,CXCS,2024-05-05T01:00:00Z,51.942,-110.708,11.2,-2.1,110,6,,,0.00,,,TRUE,TRUE,,,,,,,,,,,,,,,,,,,,,,,,,,,METAR,771
CXCP 050100Z AUTO 11010KT 14/M04 RMK AO1 PK WND 14019/0018 T01351037,CXCP,2024-05-05T01:00:00Z,50.281,-113.35,13.5,-3.7,110,10,,,0.00,,,TRUE,TRUE,,,,,,,,,,,,,,,,,,,,,,,,,,,METAR,999
CXCK 050100Z AUTO 16015G24KT 13/M03 RMK AO1 PK WND 17024/0057 SLP990 T01331032 56008,CXCK,2024-05-05T01:00:00Z,62.115,-136.192,13.3,-3.2,160,15,24,,0.00,999,,TRUE,TRUE,,,,,,,,,,,,,,,,-0.08,,,,,,,,,,,METAR,526
CXCD 050100Z AUTO 09008KT 16/M06 RMK AO1 T01561063,CXCD,2024-05-05T01:00:00Z,56.314,-119.745,15.6,-6.3,90,8,,,0.00,,,TRUE,TRUE,,,,,,,,,,,,,,,,,,,,,,,,,,,METAR,628
CXCA 050100Z AUTO 28001KT 08/07 RMK AO1 6PAST HR 6010 SLP133 P0002 T00760073 50006,CXCA,2024-05-05T01:00:00Z,49.154,-88.344,7.6,7.3,280,1,,,0.00,1013.3,,TRUE,TRUE,,,,,,,,,,,,,,,,0.06,,,,,0.02,,,,,,METAR,228
CXBR 050100Z AUTO 09011KT 14/M03 RMK AO1 PK WND 07019/0015 T01371033,CXBR,2024-05-05T01:00:00Z,49.62,-113.819,13.7,-3.3,90,11,,,0.00,,,TRUE,TRUE,,,,,,,,,,,,,,,,,,,,,,,,,,,METAR,1137
CXBO 050100Z AUTO 09014KT 09/06 RMK AO1 PK WND 07017/0013 T00850056,CXBO,2024-05-05T01:00:00Z,46.837,-71.197,8.5,5.6,90,14,,,0.00,,,TRUE,TRUE,,,,,,,,,,,,,,,,,,,,,,,,,,,METAR,8
CXBK 050100Z AUTO 13008KT 11/02 RMK AO1 SLP151 T01050016 58012,CXBK,2024-05-05T01:00:00Z,50.201,-104.71,10.5,1.6,130,8,,,0.00,1015.1,,TRUE,TRUE,,,,,,,,,,,,,,,,-0.12,,,,,,,,,,,METAR,585
CXBI 050100Z AUTO 12007KT 15/11 RMK AO1 SLP177 T01540109 51002,CXBI,2024-05-05T01:00:00Z,44.484,-79.546,15.4,10.9,120,7,,,0.00,1017.7,,TRUE,TRUE,,,,,,,,,,,,,,,,0.02,,,,,,,,,,,METAR,287
CXBA 050100Z AUTO 07005KT 11/M02 RMK AO1 T01111015,CXBA,2024-05-05T01:00:00Z,52.124,-110.101,11.1,-1.5,70,5,,,0.00,,,TRUE,TRUE,,,,,,,,,,,,,,,,,,,,,,,,,,,METAR,696
CXAT 050100Z AUTO 14001KT M06/M10 RMK AO1 SOG 10 6016 SLP269 T10551097,CXAT,2024-05-05T01:00:00Z,73.006,-85.033,-5.5,-9.7,140,1,,,0.00,1026.9,,TRUE,TRUE,,,,,,,,,,,,,,,,,,,,,,,,,,,METAR,10
CXAK 050100Z AUTO 10007KT 13/M03 RMK AO1 T01321027,CXAK,2024-05-05T01:00:00Z,52.349,-112.591,13.2,-2.7,100,7,,,0.00,,,TRUE,TRUE,,,,,,,,,,,,,,,,,,,,,,,,,,,METAR,799
CXAJ 050100Z AUTO 03004KT 13/M03 RMK AO1 T01281028,CXAJ,2024-05-05T01:00:00Z,54.785,-112.819,12.8,-2.8,30,4,,,0.00,,,TRUE,TRUE,,,,,,,,,,,,,,,,,,,,,,,,,,,METAR,586
CXAG 050100Z AUTO 13007KT 12/M03 RMK AO1 T01181030,CXAG,2024-05-05T01:00:00Z,53.917,-112.279,11.8,-3,130,7,,,0.00,,,TRUE,TRUE,,,,,,,,,,,,,,,,,,,,,,,,,,,METAR,632
CXAF 050100Z AUTO 14006KT 12/M03 RMK AO1 T01181034,CXAF,2024-05-05T01:00:00Z,54.278,-112.971,11.8,-3.4,140,6,,,0.00,,,TRUE,TRUE,,,,,,,,,,,,,,,,,,,,,,,,,,,METAR,667
CWZW 050100Z AUTO 22010KT 15/M06 RMK AO1 PK WND 21017/0019 SLP030 T01471057 56023,CWZW,2024-05-05T01:00:00Z,60.167,-132.733,14.7,-5.7,220,10,,,0.00,1003,,TRUE,TRUE,,,,,,,,,,,,,,,,-0.23,,,,,,,,,,,METAR,683
CWZQ 050100Z AUTO 20003KT 03/02 RMK AO1 SLP304 T00340023 53010,CWZQ,2024-05-05T01:00:00Z,46.547,-61.049,3.4,2.3,200,3,,,0.00,1030.4,,TRUE,TRUE,,,,,,,,,,,,,,,,0.1,,,,,,,,,,,METAR,13
CWZO 050100Z AUTO 24012KT RMK AO1,CWZO,2024-05-05T01:00:00Z,48.568,-123.265,,,240,12,,,0.00,,,TRUE,TRUE,,,,,,,,,,,,,,,,,,,,,,,,,,,METAR,5
CWZN 050100Z AUTO 02018KT 04/M00 RMK AO1 PK WND 02021/0042 SLP293 T00411001 53011,CWZN,2024-05-05T01:00:00Z,47.368,-55.795,4.1,-0.1,20,18,,,0.00,1029.3,,TRUE,TRUE,,,,,,,,,,,,,,,,0.11,,,,,,,,,,,METAR,63
CWZG 050100Z AUTO 03006KT 10/M06 RMK AO1 SLP087 T00971060 56017,CWZG,2024-05-05T01:00:00Z,51.194,-115.552,9.7,-6,30,6,,,0.00,1008.7,,TRUE,TRUE,,,,,,,,,,,,,,,,-0.17,,,,,,,,,,,METAR,1402
CWZA 050100Z AUTO 33008G16KT 20/03 RMK AO1 PK WND 32017/0026 SLP993 T01970034 53003,CWZA,2024-05-05T01:00:00Z,49.244,-121.759,19.7,3.4,330,8,16,,0.00,999.3,,TRUE,TRUE,,,,,,,,,,,,,,,,0.03,,,,,,,,,,,METAR,18
CWYY 050100Z AUTO 13005KT 19/02 RMK AO1 SLP008 T01870021 53003,CWYY,2024-05-05T01:00:00Z,49.028,-119.441,18.7,2.1,130,5,,,0.00,1000.8,,TRUE,TRUE,,,,,,,,,,,,,,,,0.03,,,,,,,,,,,METAR,284
CWYL 050100Z AUTO 07007KT 07/M03 RMK AO1 SOG 10 6016 SLP082 T00671027,CWYL,2024-05-05T01:00:00Z,51.443,-116.345,6.7,-2.7,70,7,,,0.00,1008.2,,TRUE,TRUE,,,,,,,,,,,,,,,,,,,,,,,,,,,METAR,1602
CWYJ 050100Z AUTO 25003KT 13/08 RMK AO1 SLP011 T01340082 52007,CWYJ,2024-05-05T01:00:00Z,48.457,-123.305,13.4,8.2,250,3,,,0.00,1001.1,,TRUE,TRUE,,,,,,,,,,,,,,,,0.07,,,,,,,,,,,METAR,59
CWXL 050100Z AUTO 13010KT 16/M05 RMK AO1 SLP100 T01581053 56019,CWXL,2024-05-05T01:00:00Z,49.734,-111.45,15.8,-5.3,130,10,,,0.00,1010,,TRUE,TRUE,,,,,,,,,,,,,,,,-0.19,,,,,,,,,,,METAR,815
CWXI 050100Z AUTO 10008KT 02/M01 RMK AO1 SLP314 T00171014 50004,CWXI,2024-05-05T01:00:00Z,51.022,-57.096,1.7,-1.4,100,8,,,0.00,1031.4,,TRUE,TRUE,,,,,,,,,,,,,,,,0.04,,,,,,,,,,,METAR,15
CWXA 050100Z AUTO 11007KT 11/M06 RMK AO1 SLP118 T01081061 56016,CWXA,2024-05-05T01:00:00Z,51.083,-115.066,10.8,-6.1,110,7,,,0.00,1011.8,,TRUE,TRUE,,,,,,,,,,,,,,,,-0.16,,,,,,,,,,,METAR,1303
CWWZ 050100Z AUTO 24003KT 09/08 RMK AO1 SLP164 T00930081 54000,CWWZ,2024-05-05T01:00:00Z,43.244,-79.218,9.3,8.1,240,3,,,0.00,1016.4,,TRUE,TRUE,,,,,,,,,,,,,,,,,,,,,,,,,,,METAR,75
CWWK 050100Z AUTO 28002KT 14/09 RMK AO1 SLP007 T01370090 51011,CWWK,2024-05-05T01:00:00Z,49.018,-122.784,13.7,9,280,2,,,0.00,1000.7,,TRUE,TRUE,,,,,,,,,,,,,,,,0.11,,,,,,,,,,,METAR,10
CWWF 050100Z AUTO 20005KT 12/M01 RMK AO1 SLP156 T01151014 56013,CWWF,2024-05-05T01:00:00Z,49.695,-103.801,11.5,-1.4,200,5,,,0.00,1015.6,,TRUE,TRUE,,,,,,,,,,,,,,,,-0.13,,,,,,,,,,,METAR,583
CWWE 050100Z AUTO 04005KT 06/04 RMK AO1 SLP295 T00590035 52014,CWWE,2024-05-05T01:00:00Z,43.989,-64.662,5.9,3.5,40,5,,,0.00,1029.5,,TRUE,TRUE,,,,,,,,,,,,,,,,0.14,,,,,,,,,,,METAR,4
CWWB 050100Z AUTO 05008KT 09/08 RMK AO1 SLP168 T00940075 56003,CWWB,2024-05-05T01:00:00Z,43.302,-79.791,9.4,7.5,50,8,,,0.00,1016.8,,TRUE,TRUE,,,,,,,,,,,,,,,,-0.03,,,,,,,,,,,METAR,77
CWWA 050100Z AUTO 07001KT 18/06 RMK AO1 SLP001 T01780060 55000,CWWA,2024-05-05T01:00:00Z,49.347,-123.193,17.8,6,70,1,,,0.00,1000.1,,TRUE,TRUE,,,,,,,,,,,,,,,,,,,,,,,,,,,METAR,172
CWVU 050100Z AUTO 02011KT 08/05 RMK AO1 SLP283 T00840048 52006,CWVU,2024-05-05T01:00:00Z,44.287,-66.342,8.4,4.8,20,11,,,0.00,1028.3,,TRUE,TRUE,,,,,,,,,,,,,,,,0.06,,,,,,,,,,,METAR,4
CWVT 050100Z AUTO 03008KT 08/M01 RMK AO1 SLP155 T00751010 58010,CWVT,2024-05-05T01:00:00Z,55.841,-108.421,7.5,-1,30,8,,,0.00,1015.5,,TRUE,TRUE,,,,,,,,,,,,,,,,-0.1,,,,,,,,,,,METAR,431
CWVQ 050100Z AUTO 04005KT 16/10 RMK AO1 SLP217 T01610095 56006,CWVQ,2024-05-05T01:00:00Z,45.427,-73.929,16.1,9.5,40,5,,,0.00,1021.7,,TRUE,TRUE,,,,,,,,,,,,,,,,-0.06,,,,,,,,,,,METAR,38
CWVP 050100Z AUTO 14008KT 09/M06 RMK AO1 SOG 05 8013 SLP122 T00891059,CWVP,2024-05-05T01:00:00Z,49.64,-109.514,8.9,-5.9,140,8,,,0.00,1012.2,,TRUE,TRUE,,,,,,,,,,,,,,,,,,,,,,,,,,,METAR,1269
CWVN 050100Z AUTO 10006KT 12/M06 RMK AO1 SLP137 T01241064 58014,CWVN,2024-05-05T01:00:00Z,49.058,-107.586,12.4,-6.4,100,6,,,0.00,1013.7,,TRUE,TRUE,,,,,,,,,,,,,,,,-0.14,,,,,,,,,,,METAR,792
CWVI 050100Z AUTO 12005KT 12/M03 RMK AO1 SLP129 T01191028 56019,CWVI,2024-05-05T01:00:00Z,53.505,-112.098,11.9,-2.8,120,5,,,0.00,1012.9,,TRUE,TRUE,,,,,,,,,,,,,,,,-0.19,,,,,,,,,,,METAR,640
CWVH 050100Z AUTO 33017G23KT ////SM ////// M09/M10 A2972,CWVH,2024-05-05T01:00:00Z,68.894,-133.943,-9,-10,330,17,23,,29.72,,,TRUE,,,,,,,,,,,,,,,,,,,,,,,,,,,,METAR,246
CWVF 050100Z AUTO 31015KT 14/08 RMK AO1 PK WND 31018/0015 T01430078,CWVF,2024-05-05T01:00:00Z,49.106,-123.303,14.3,7.8,310,15,,,0.00,,,TRUE,TRUE,,,,,,,,,,,,,,,,,,,,,,,,,,,METAR,13
CWUS 050100Z AUTO 13002KT 16/03 RMK AO1 SLP002 T01560028 56015,CWUS,2024-05-05T01:00:00Z,49.563,-119.649,15.6,2.8,130,2,,,0.00,1000.2,,TRUE,TRUE,,,,,,,,,,,,,,,,-0.15,,,,,,,,,,,METAR,455
CWTY 050100Z AUTO 04006KT 13/08 RMK AO1 SLP241 T01340077 55001,CWTY,2024-05-05T01:00:00Z,46.354,-72.516,13.4,7.7,40,6,,,0.00,1024.1,,TRUE,TRUE,,,,,,,,,,,,,,,,-0.01,,,,,,,,,,,METAR,8
CWTT 050100Z AUTO 13005KT 16/08 RMK AO1 T01570084,CWTT,2024-05-05T01:00:00Z,45.27,-72.17,15.7,8.4,130,5,,,0.00,,,TRUE,TRUE,,,,,,,,,,,,,,,,,,,,,,,,,,,METAR,210
CWTN 050100Z AUTO 13001KT 08/06 RMK AO1 SLP269 T00800055 53006,CWTN,2024-05-05T01:00:00Z,47.079,-70.781,8,5.5,130,1,,,0.00,1026.9,,TRUE,TRUE,,,,,,,,,,,,,,,,0.06,,,,,,,,,,,METAR,5
CWTG 050100Z AUTO 04008KT 03/M00 RMK AO1 SLP305 T00261003 56004,CWTG,2024-05-05T01:00:00Z,49.317,-67.381,2.6,-0.3,40,8,,,0.00,1030.5,,TRUE,TRUE,,,,,,,,,,,,,,,,-0.04,,,,,,,,,,,METAR,6
CWTA 050100Z AUTO 34002KT 16/11 RMK AO1 SLP223 T01570110 56007,CWTA,2024-05-05T01:00:00Z,45.506,-73.579,15.7,11,340,2,,,0.00,1022.3,,TRUE,TRUE,,,,,,,,,,,,,,,,-0.07,,,,,,,,,,,METAR,71
CWSW 050100Z 08006G15KT 050V140 20SM SCT075 BKN280 14/M03 A2970 RMK AC3CS4 LAST STFD OBS/NXT 051300Z SLP079 DENSITY ALT 4800FT,CWSW,2024-05-05T01:00:00Z,49.834,-114.881,14,-3,80,6,15,20,29.70,1007.9,,,,,,,,,,SCT,7500,BKN,28000,,,,,VFR,,,,,,,,,,,,METAR,1173
CWST 050100Z AUTO 04010KT 04/03 RMK AO1 SLP277 T00350031 52002,CWST,2024-05-05T01:00:00Z,47.354,-70.03,3.5,3.1,40,10,,,0.00,1027.7,,TRUE,TRUE,,,,,,,,,,,,,,,,0.02,,,,,,,,,,,METAR,31
CWSS 050100Z AUTO 00000KT 08/06 RMK AO1 SLP298 T00840058 53009,CWSS,2024-05-05T01:00:00Z,45.21,-67.253,8.4,5.8,0,0,,,0.00,1029.8,,TRUE,TRUE,,,,,,,,,,,,,,,,0.09,,,,,,,,,,,METAR,27
CWSR 050100Z AUTO 01003KT 10/M05 RMK AO1 SLP143 T01011046 56012,CWSR,2024-05-05T01:00:00Z,53.368,-107.553,10.1,-4.6,10,3,,,0.00,1014.3,,TRUE,TRUE,,,,,,,,,,,,,,,,-0.12,,,,,,,,,,,METAR,589
CWSP 050100Z AUTO 29009KT 10/09 RMK AO1 SLP025 T01040091 53008,CWSP,2024-05-05T01:00:00Z,48.377,-123.921,10.4,9.1,290,9,,,0.00,1002.5,,TRUE,TRUE,,,,,,,,,,,,,,,,0.08,,,,,,,,,,,METAR,2
CWSL 050100Z AUTO 15007KT 20/M01 RMK AO1 SLP017 T01971009 55006,CWSL,2024-05-05T01:00:00Z,50.703,-119.291,19.7,-0.9,150,7,,,0.00,1001.7,,TRUE,TRUE,,,,,,,,,,,,,,,,-0.06,,,,,,,,,,,METAR,353
CWSK 050100Z AUTO 20006KT 21/03 RMK AO1 SLP994 T02080027 53004,CWSK,2024-05-05T01:00:00Z,49.783,-123.161,20.8,2.7,200,6,,,0.00,999.4,,TRUE,TRUE,,,,,,,,,,,,,,,,0.04,,,,,,,,,,,METAR,59
CWSG 050100Z AUTO 07005KT 03/02 RMK AO1 SLP306 T00270016 58002,CWSG,2024-05-05T01:00:00Z,49.109,-66.655,2.7,1.6,70,5,,,0.00,1030.6,,TRUE,TRUE,,,,,,,,,,,,,,,,-0.02,,,,,,,,,,,METAR,5
CWSF 050100Z AUTO 00027KT 02/01 RMK AO1 SLP298 T00150012 55008,CWSF,2024-05-05T01:00:00Z,49.251,-65.325,1.5,1.2,VRB,27,,,0.00,1029.8,,TRUE,TRUE,,,,,,,,,,,,,,,,-0.08,,,,,,,,,,,METAR,15
CWSD 050100Z AUTO 08007KT 03/03 RMK AO1 SLP313 T00320032 50004,CWSD,2024-05-05T01:00:00Z,46.441,-63.837,3.2,3.2,80,7,,,0.00,1031.3,,TRUE,TRUE,,,,,,,,,,,,,,,,0.04,,,,,,,,,,,METAR,12
CWRZ 050100Z AUTO 01/00 RMK AO1 SLP311 T00120000 58008,CWRZ,2024-05-05T01:00:00Z,48.419,-64.317,1.2,0,,,,,0.00,1031.1,,TRUE,TRUE,,,,,,,,,,,,,,,,-0.08,,,,,,,,,,,METAR,16
CWRY 050100Z AUTO 13013G18KT 14/M03 RMK AO1 PK WND 11020/0049 SLP094 T01431028 56016,CWRY,2024-05-05T01:00:00Z,49.133,-112.051,14.3,-2.8,130,13,18,,0.00,1009.4,,TRUE,TRUE,,,,,,,,,,,,,,,,-0.16,,,,,,,,,,,METAR,1048
CWRT 050100Z AUTO 12011G17KT 12/M03 RMK AO1 PK WND 14020/0026 SLP092 T01171026 56015,CWRT,2024-05-05T01:00:00Z,49.628,-114.482,11.7,-2.6,120,11,17,,0.00,1009.2,,TRUE,TRUE,,,,,,,,,,,,,,,,-0.15,,,,,,,,,,,METAR,1311
CWRO 050100Z AUTO 28009KT 12/08 RMK AO1 SLP026 T01180080 58015,CWRO,2024-05-05T01:00:00Z,54.161,-131.66,11.8,8,280,9,,,0.00,1002.6,,TRUE,TRUE,,,,,,,,,,,,,,,,-0.15,,,,,,,,,,,METAR,7
CWRN 050100Z AUTO 08006KT 05/02 RMK AO1 SLP299 T00520022 51012,CWRN,2024-05-05T01:00:00Z,45.347,-60.98,5.2,2.2,80,6,,,0.00,1029.9,,TRUE,TRUE,,,,,,,,,,,,,,,,0.12,,,,,,,,,,,METAR,8
CWRM 050100Z AUTO 12009KT 12/M04 RMK AO1 SOG 01 6023 SLP079 T01241035,CWRM,2024-05-05T01:00:00Z,52.431,-114.907,12.4,-3.5,120,9,,,0.00,1007.9,,TRUE,TRUE,,,,,,,,,,,,,,,,,,,,,,,,,,,METAR,986
CWRK 050100Z AUTO 14003KT 16/08 RMK AO1 SLP193 T01610084 53001,CWRK,2024-05-05T01:00:00Z,45.072,-77.879,16.1,8.4,140,3,,,0.00,1019.3,,TRUE,TRUE,,,,,,,,,,,,,,,,0.01,,,,,,,,,,,METAR,328
CWRJ 050100Z AUTO 10007KT 10/02 RMK AO1 SLP140 T01020015 56013,CWRJ,2024-05-05T01:00:00Z,51.565,-107.924,10.2,1.5,100,7,,,0.00,1014,,TRUE,TRUE,,,,,,,,,,,,,,,,-0.13,,,,,,,,,,,METAR,586
CWRA 050100Z AUTO 03019G25KT 02/01 RMK AO1 PK WND 02026/0047 SLP263 T00240010 50007,CWRA,2024-05-05T01:00:00Z,46.659,-53.073,2.4,1,30,19,25,,0.00,1026.3,,TRUE,TRUE,,,,,,,,,,,,,,,,0.07,,,,,,,,,,,METAR,4
CWQV 050100Z AUTO 08013KT 08/ RMK AO1 PK WND 09018/0014 T0076,CWQV,2024-05-05T01:00:00Z,48.26,-70.116,7.6,,80,13,,,0.00,,,TRUE,TRUE,,,,,,,,,,,,,,,,,,,,,,,,,,,METAR,4
CWQR 050100Z AUTO 13007KT 02/M01 RMK AO1 T00171009,CWQR,2024-05-05T01:00:00Z,50.221,-64.207,1.7,-0.9,130,7,,,0.00,,,TRUE,TRUE,,,,,,,,,,,,,,,,,,,,,,,,,,,METAR,9
CWQP 050100Z AUTO 14010KT 12/08 RMK AO1 SLP195 T01150082 55003,CWQP,2024-05-05T01:00:00Z,43.84,-77.153,11.5,8.2,140,10,,,0.00,1019.5,,TRUE,TRUE,,,,,,,,,,,,,,,,-0.03,,,,,,,,,,,METAR,77
CWQO 050100Z AUTO 05013KT 03/03 RMK AO1 PK WND 02019/0025 T00300030,CWQO,2024-05-05T01:00:00Z,48.416,-68.893,3,3,50,13,,,0.00,,,TRUE,TRUE,,,,,,,,,,,,,,,,,,,,,,,,,,,METAR,7
CWQK 050100Z AUTO 27012KT 10/08 RMK AO1 SLP016 T00980075 53008,CWQK,2024-05-05T01:00:00Z,48.298,-123.531,9.8,7.5,270,12,,,0.00,1001.6,,TRUE,TRUE,,,,,,,,,,,,,,,,0.08,,,,,,,,,,,METAR,5
CWQH 050100Z AUTO 13004KT 14/07 RMK AO1 SLP248 T01380073 52004,CWQH,2024-05-05T01:00:00Z,45.369,-71.824,13.8,7.3,130,4,,,0.00,1024.8,,TRUE,TRUE,,,,,,,,,,,,,,,,0.04,,,,,,,,,,,METAR,181
CWPZ 050100Z AUTO 11007KT 15/M01 RMK AO1 SLP050 T01501006 56012,CWPZ,2024-05-05T01:00:00Z,54.383,-125.959,15,-0.6,110,7,,,0.00,1005,,TRUE,TRUE,,,,,,,,,,,,,,,,-0.12,,,,,,,,,,,METAR,715
CWPR 050100Z AUTO 02008G18KT 15/M01 RMK AO1 PK WND 00019/0016 SLP014 T01541006 55005,CWPR,2024-05-05T01:00:00Z,49.468,-120.514,15.4,-0.6,20,8,18,,0.00,1001.4,,TRUE,TRUE,,,,,,,,,,,,,,,,-0.05,,,,,,,,,,,METAR,703
CWPO 050100Z AUTO 28002KT 10/02 RMK AO1 SLP176 T01030020 56003,CWPO,2024-05-05T01:00:00Z,49.191,-98.905,10.3,2,280,2,,,0.00,1017.6,,TRUE,TRUE,,,,,,,,,,,,,,,,-0.03,,,,,,,,,,,METAR,471
CWPK 050100Z AUTO 21004KT 14/09 RMK AO1 SLP226 T01360091 53006,CWPK,2024-05-05T01:00:00Z,47.922,-74.624,13.6,9.1,210,4,,,0.00,1022.6,,TRUE,TRUE,,,,,,,,,,,,,,,,0.06,,,,,,,,,,,METAR,443
CWPF 050100Z AUTO 19008KT 13/08 RMK AO1 SLP011 T01300076 53009,CWPF,2024-05-05T01:00:00Z,48.432,-123.439,13,7.6,190,8,,,0.00,1001.1,,TRUE,TRUE,,,,,,,,,,,,,,,,0.09,,,,,,,,,,,METAR,5
CWPE 050100Z AUTO 01002KT 09/04 RMK AO1 SLP296 T00870035 53003,CWPE,2024-05-05T01:00:00Z,45.058,-66.459,8.7,3.5,10,2,,,0.00,1029.6,,TRUE,TRUE,,,,,,,,,,,,,,,,0.03,,,,,,,,,,,METAR,9
CWPD 050100Z AUTO 20003KT 05/02 RMK AO1 SLP250 T00510017 53001,CWPD,2024-05-05T01:00:00Z,47.562,-71.229,5.1,1.7,200,3,,,0.00,1025,,TRUE,TRUE,,,,,,,,,,,,,,,,0.01,,,,,,,,,,,METAR,795
CWPC 050100Z AUTO 17013G18KT 14/10 RMK AO1 PK WND 17018/0054 SLP177 T01400097 53003,CWPC,2024-05-05T01:00:00Z,42.868,-79.253,14,9.7,170,13,18,,0.00,1017.7,,TRUE,TRUE,,,,,,,,,,,,,,,,0.03,,,,,,,,,,,METAR,174
CWOY 050100Z AUTO 22006KT 08/02 RMK AO1 SLP165 T00820021 58002,CWOY,2024-05-05T01:00:00Z,51.767,-104.2,8.2,2.1,220,6,,,0.00,1016.5,,TRUE,TRUE,,,,,,,,,,,,,,,,-0.02,,,,,,,,,,,METAR,557
CWOE 050100Z AUTO 15012KT 14/M06 RMK AO1 PK WND 10020/0047 SLP104 T01411061 56016,CWOE,2024-05-05T01:00:00Z,49.123,-110.469,14.1,-6.1,150,12,,,0.00,1010.4,,TRUE,TRUE,,,,,,,,,,,,,,,,-0.16,,,,,,,,,,,METAR,931
CWOD 050100Z AUTO 14007KT 12/06 RMK AO1 SLP245 T01190056 55001,CWOD,2024-05-05T01:00:00Z,48.842,-72.546,11.9,5.6,140,7,,,0.00,1024.5,,TRUE,TRUE,,,,,,,,,,,,,,,,-0.01,,,,,,,,,,,METAR,150
CWOC 050100Z AUTO 08003KT 02/01 RMK AO1 SLP316 T00150006 55000,CWOC,2024-05-05T01:00:00Z,48.012,-65.332,1.5,0.6,80,3,,,0.00,1031.6,,TRUE,TRUE,,,,,,,,,,,,,,,,,,,,,,,,,,,METAR,42
CWNZ 050100Z AUTO 33005KT 14/05 RMK AO1 SOG 01 6027 SLP117 T01360046,CWNZ,2024-05-05T01:00:00Z,49.747,-84.164,13.6,4.6,330,5,,,0.00,1011.7,,TRUE,TRUE,,,,,,,,,,,,,,,,,,,,,,,,,,,METAR,261
CWNQ 050100Z AUTO 05006KT 14/08 RMK AO1 SLP234 T01380075 56003,CWNQ,2024-05-05T01:00:00Z,46.226,-72.657,13.8,7.5,50,6,,,0.00,1023.4,,TRUE,TRUE,,,,,,,,,,,,,,,,-0.03,,,,,,,,,,,METAR,9
CWNP 050100Z AUTO 29001KT 17/02 RMK AO1 SLP018 T01700018 57018,CWNP,2024-05-05T01:00:00Z,50.269,-117.817,17,1.8,290,1,,,0.00,1001.8,,TRUE,TRUE,,,,,,,,,,,,,,,,-0.18,,,,,,,,,,,METAR,517
CWNM 050100Z AUTO 08005KT 20/M03 RMK AO1 SLP008 T01961030 57015,CWNM,2024-05-05T01:00:00Z,49.491,-117.305,19.6,-3,80,5,,,0.00,1000.8,,TRUE,TRUE,,,,,,,,,,,,,,,,-0.15,,,,,,,,,,,METAR,533
CWNK 050100Z AUTO 04005KT 11/02 RMK AO1 SLP167 T01090015 55001,CWNK,2024-05-05T01:00:00Z,49.498,-98.03,10.9,1.5,40,5,,,0.00,1016.7,,TRUE,TRUE,,,,,,,,,,,,,,,,-0.01,,,,,,,,,,,METAR,271
CWNH 050100Z AUTO 01007KT 03/02 RMK AO1 SLP291 T00270019 51003,CWNH,2024-05-05T01:00:00Z,47.806,-69.548,2.7,1.9,10,7,,,0.00,1029.1,,TRUE,TRUE,,,,,,,,,,,,,,,,0.03,,,,,,,,,,,METAR,147
CWNE 050100Z AUTO 07006KT 02/01 RMK AO1 SLP313 T00210009 58001,CWNE,2024-05-05T01:00:00Z,47.058,-63.997,2.1,0.9,70,6,,,0.00,1031.3,,TRUE,TRUE,,,,,,,,,,,,,,,,-0.01,,,,,,,,,,,METAR,5
CWMT 050100Z AUTO 12009G15KT 09/M01 RMK AO1 PK WND 14017/0011 SLP128 T00901011 56020,CWMT,2024-05-05T01:00:00Z,63.134,-117.245,9,-1.1,120,9,15,,0.00,1012.8,,TRUE,TRUE,,,,,,,,,,,,,,,,-0.2,,,,,,,,,,,METAR,274
CWMQ 050100Z AUTO 17006KT 14/M07 RMK AO1 SLP113 T01351066 58014,CWMQ,2024-05-05T01:00:00Z,49.903,-109.466,13.5,-6.6,170,6,,,0.00,1011.3,,TRUE,TRUE,,,,,,,,,,,,,,,,-0.14,,,,,,,,,,,METAR,767
CWMM 050100Z AUTO 15003KT 19/06 RMK AO1 SLP999 T01850062 53005,CWMM,2024-05-05T01:00:00Z,49.208,-122.69,18.5,6.2,150,3,,,0.00,999.9,,TRUE,TRUE,,,,,,,,,,,,,,,,0.05,,,,,,,,,,,METAR,2
CWMJ 050100Z AUTO 13006KT 19/11 RMK AO1 SLP199 T01860110 55000,CWMJ,2024-05-05T01:00:00Z,46.275,-75.992,18.6,11,130,6,,,0.00,1019.9,,TRUE,TRUE,,,,,,,,,,,,,,,,,,,,,,,,,,,METAR,198
CWLY 050100Z AUTO 02006G15KT 260V040 9SM BKN050 OVC060 18/04 A2958 RMK SLP019 DENSITY ALT 1700FT,CWLY,2024-05-05T01:00:00Z,50.224,-121.582,18,4,20,6,15,9,29.58,1001.9,,TRUE,,,,,,,,BKN,5000,OVC,6000,,,,,VFR,,,,,,,,,,,,METAR,228
CWLS 050100Z AUTO 14005KT 17/13 RMK AO1 SLP153 T01720133 56006,CWLS,2024-05-05T01:00:00Z,43.983,-80.74,17.2,13.3,140,5,,,0.00,1015.3,,TRUE,TRUE,,,,,,,,,,,,,,,,-0.06,,,,,,,,,,,METAR,413
CWLP 050100Z AUTO 29018KT 11/09 RMK AO1 PK WND 29023/0046 SLP027 T01120086 55002,CWLP,2024-05-05T01:00:00Z,50.94,-127.632,11.2,8.6,290,18,,,0.00,1002.7,,TRUE,TRUE,,,,,,,,,,,,,,,,-0.02,,,,,,,,,,,METAR,15
CWLM 050100Z AUTO 26009KT 13/09 RMK AO1 SLP006 T01270086 52005,CWLM,2024-05-05T01:00:00Z,48.413,-123.325,12.7,8.6,260,9,,,0.00,1000.6,,TRUE,TRUE,,,,,,,,,,,,,,,,0.05,,,,,,,,,,,METAR,62
CWLE 050100Z AUTO 07014KT 09/03 RMK AO1 PK WND 06017/0006 SLP143 T00910034 56011,CWLE,2024-05-05T01:00:00Z,50.951,-107.143,9.1,3.4,70,14,,,0.00,1014.3,,TRUE,TRUE,,,,,,,,,,,,,,,,-0.11,,,,,,,,,,,METAR,666
CWLC 050100Z AUTO 27019KT 14/05 RMK AO1 PK WND 27021/0055 T01430046,CWLC,2024-05-05T01:00:00Z,54.296,-130.609,14.3,4.6,270,19,,,0.00,,,TRUE,TRUE,,,,,,,,,,,,,,,,,,,,,,,,,,,METAR,27
CWLB 050100Z AUTO 07004KT 12/M08 RMK AO1 SLP131 T01241083 56019,CWLB,2024-05-05T01:00:00Z,54.769,-112.024,12.4,-8.3,70,4,,,0.00,1013.1,,TRUE,TRUE,,,,,,,,,,,,,,,,-0.19,,,,,,,,,,,METAR,561
CWKX 050100Z AUTO 20008KT 16/M06 RMK AO1 SLP044 T01641055 56020,CWKX,2024-05-05T01:00:00Z,58.429,-130.011,16.4,-5.5,200,8,,,0.00,1004.4,,TRUE,TRUE,,,,,,,,,,,,,,,,-0.2,,,,,,,,,,,METAR,807
CWKO 050100Z AUTO 12003KT 12/M05 RMK AO1 SLP149 T01161050 56014,CWKO,2024-05-05T01:00:00Z,49.168,-105.979,11.6,-5,120,3,,,0.00,1014.9,,TRUE,TRUE,,,,,,,,,,,,,,,,-0.14,,,,,,,,,,,METAR,914
CWKM 050100Z AUTO 01008KT ////SM ////// M11/M13 A2995,CWKM,2024-05-05T01:00:00Z,69.595,-140.174,-11,-13,10,8,,,29.95,,,TRUE,,,,,,,,,,,,,,,,,,,,,,,,,,,,METAR,8
CWKK 050100Z AUTO 16004KT 05/04 RMK AO1 2PAST HR 6013 SLP138 P0001 T00470035 50002,CWKK,2024-05-05T01:00:00Z,49.713,-88.332,4.7,3.5,160,4,,,0.00,1013.8,,TRUE,TRUE,,,,,,,,,,,,,,,,0.02,,,,,0.01,,,,,,METAR,259
CWKG 050100Z AUTO 12005KT 08/03 RMK AO1 SLP295 T00840028 52023,CWKG,2024-05-05T01:00:00Z,44.432,-65.203,8.4,2.8,120,5,,,0.00,1029.5,,TRUE,TRUE,,,,,,,,,,,,,,,,0.23,,,,,,,,,,,METAR,154
CWJX 050100Z AUTO 06013KT 14/00 RMK AO1 SOG 02 6010 PK WND 05023/0023 SLP115 T01370000,CWJX,2024-05-05T01:00:00Z,50.876,-109.501,13.7,0,60,13,,,0.00,1011.5,,TRUE,TRUE,,,,,,,,,,,,,,,,,,,,,,,,,,,METAR,671
CWJW 050100Z AUTO 03005KT 14/M04 RMK AO1 SLP059 T01361043 58017,CWJW,2024-05-05T01:00:00Z,52.926,-118.03,13.6,-4.3,30,5,,,0.00,1005.9,,TRUE,TRUE,,,,,,,,,,,,,,,,-0.17,,,,,,,,,,,METAR,1022
CWJV 050100Z AUTO 06002KT 19/M02 RMK AO1 SLP006 T01891018 58016,CWJV,2024-05-05T01:00:00Z,50.223,-119.194,18.9,-1.8,60,2,,,0.00,1000.6,,TRUE,TRUE,,,,,,,,,,,,,,,,-0.16,,,,,,,,,,,METAR,487
CWJU 050100Z AUTO 22005KT 12/07 RMK AO1 SLP033 T01210066 58024,CWJU,2024-05-05T01:00:00Z,54.255,-133.058,12.1,6.6,220,5,,,0.00,1003.3,,TRUE,TRUE,,,,,,,,,,,,,,,,-0.24,,,,,,,,,,,METAR,47
CWJT 050100Z AUTO 09002KT 15/10 RMK AO1 SLP224 T01520096 58002,CWJT,2024-05-05T01:00:00Z,46.08,-74.556,15.2,9.6,90,2,,,0.00,1022.4,,TRUE,TRUE,,,,,,,,,,,,,,,,-0.02,,,,,,,,,,,METAR,236
CWJR 050100Z AUTO 28003KT 16/01 RMK AO1 SLP021 T01640008 57013,CWJR,2024-05-05T01:00:00Z,49.04,-116.483,16.4,0.8,280,3,,,0.00,1002.1,,TRUE,TRUE,,,,,,,,,,,,,,,,-0.13,,,,,,,,,,,METAR,642
CWJI 050100Z AUTO 22006KT 13/M05 RMK AO1 SLP140 T01321047 57013,CWJI,2024-05-05T01:00:00Z,49.729,-105.946,13.2,-4.7,220,6,,,0.00,1014,,TRUE,TRUE,,,,,,,,,,,,,,,,-0.13,,,,,,,,,,,METAR,724
CWJH 050100Z AUTO 06002KT 05/M01 RMK AO1 SLP153 T00521012 57008,CWJH,2024-05-05T01:00:00Z,56.333,-103.283,5.2,-1.2,60,2,,,0.00,1015.3,,TRUE,TRUE,,,,,,,,,,,,,,,,-0.08,,,,,,,,,,,METAR,345
CWJD 050100Z AUTO 15002KT 08/01 RMK AO1 SLP142 T00750008 56002,CWJD,2024-05-05T01:00:00Z,53.187,-99.268,7.5,0.8,150,2,,,0.00,1014.2,,TRUE,TRUE,,,,,,,,,,,,,,,,-0.02,,,,,,,,,,,METAR,222
CWJC 050100Z AUTO 04013KT M02/M02 RMK AO1 SOG 01 8007 SLP189 T10161019,CWJC,2024-05-05T01:00:00Z,61.132,-100.884,-1.6,-1.9,40,13,,,0.00,1018.9,,TRUE,TRUE,,,,,,,,,,,,,,,,,,,,,,,,,,,METAR,340
CWJB 050100Z AUTO 06010G15KT 08/05 RMK AO1 PK WND 05018/0013 T00780047,CWJB,2024-05-05T01:00:00Z,46.781,-71.288,7.8,4.7,60,10,15,,0.00,,,TRUE,TRUE,,,,,,,,,,,,,,,,,,,,,,,,,,,METAR,90
CWIZ 050100Z AUTO 11002KT 16/10 RMK AO1 T01620104,CWIZ,2024-05-05T01:00:00Z,45.294,-73.35,16.2,10.4,110,2,,,0.00,,,TRUE,TRUE,,,,,,,,,,,,,,,,,,,,,,,,,,,METAR,45
CWIW 050100Z AUTO 10007KT 08/06 RMK AO1 SLP157 T00750055 58012,CWIW,2024-05-05T01:00:00Z,51.667,-105.4,7.5,5.5,100,7,,,0.00,1015.7,,TRUE,TRUE,,,,,,,,,,,,,,,,-0.12,,,,,,,,,,,METAR,524
CWIT 050100Z AUTO 11004KT 17/10 RMK AO1 SLP214 T01690098 57005,CWIT,2024-05-05T01:00:00Z,45.167,-73.678,16.9,9.8,110,4,,,0.00,1021.4,,TRUE,TRUE,,,,,,,,,,,,,,,,-0.05,,,,,,,,,,,METAR,53
CWIS 050100Z AUTO 08002KT 04/02 RMK AO1 SLP282 T00430023 54000,CWIS,2024-05-05T01:00:00Z,47.284,-70.637,4.3,2.3,80,2,,,0.00,1028.2,,TRUE,TRUE,,,,,,,,,,,,,,,,,,,,,,,,,,,METAR,720
CWIP 050100Z AUTO 07002KT 03/02 RMK AO1 T00260015,CWIP,2024-05-05T01:00:00Z,50.162,-66.434,2.6,1.5,70,2,,,0.00,,,TRUE,TRUE,,,,,,,,,,,,,,,,,,,,,,,,,,,METAR,27
CWIK 050100Z AUTO 18004KT 10/01 RMK AO1 SLP164 T01010014 57006,CWIK,2024-05-05T01:00:00Z,50.366,-102.567,10.1,1.4,180,4,,,0.00,1016.4,,TRUE,TRUE,,,,,,,,,,,,,,,,-0.06,,,,,,,,,,,METAR,597
CWIJ 050100Z AUTO 16011KT M05/M06 RMK AO1 SOG 72 7017 SLP206 T10461055,CWIJ,2024-05-05T01:00:00Z,65.756,-111.246,-4.6,-5.5,160,11,,,0.00,1020.6,,TRUE,TRUE,,,,,,,,,,,,,,,,,,,,,,,,,,,METAR,490
CWII 050100Z AUTO 18002KT 09/03 RMK AO1 SLP162 T00890029 58005,CWII,2024-05-05T01:00:00Z,50.695,-96.562,8.9,2.9,180,2,,,0.00,1016.2,,TRUE,TRUE,,,,,,,,,,,,,,,,-0.05,,,,,,,,,,,METAR,216
CWIG 050100Z AUTO 02015KT RMK AO1 PK WND 02021/0037,CWIG,2024-05-05T01:00:00Z,47.074,-70.533,,,20,15,,,0.00,,,TRUE,TRUE,,,,,,,,,,,,,,,,,,,,,,,,,,,METAR,12
CWID 050100Z AUTO 14005KT 11/M00 RMK AO1 SLP117 T01121004 56023,CWID,2024-05-05T01:00:00Z,61.317,-117.605,11.2,-0.4,140,5,,,0.00,1011.7,,TRUE,TRUE,,,,,,,,,,,,,,,,-0.23,,,,,,,,,,,METAR,160
CWHV 050100Z AUTO 17003KT 13/07 RMK AO1 SLP258 T01310068 51005,CWHV,2024-05-05T01:00:00Z,46.205,-70.785,13.1,6.8,170,3,,,0.00,1025.8,,TRUE,TRUE,,,,,,,,,,,,,,,,0.05,,,,,,,,,,,METAR,227
CWHT 050100Z AUTO 28007G16KT 10/M01 RMK AO1 SOG 01 7020 SLP004 T01021008,CWHT,2024-05-05T01:00:00Z,60.773,-137.581,10.2,-0.8,280,7,16,,0.00,1000.4,,TRUE,TRUE,,,,,,,,,,,,,,,,,,,,,,,,,,,METAR,601
CWHQ 050100Z AUTO 10005KT 09/06 RMK AO1 T00910055,CWHQ,2024-05-05T01:00:00Z,46.691,-71.972,9.1,5.5,100,5,,,0.00,,,TRUE,TRUE,,,,,,,,,,,,,,,,,,,,,,,,,,,METAR,56
CWHO 050100Z AUTO 00013KT M00/M02 RMK AO1 SLP285 T10031021 58022,CWHO,2024-05-05T01:00:00Z,55.448,-60.23,-0.3,-2.1,VRB,13,,,0.00,1028.5,,TRUE,TRUE,,,,,,,,,,,,,,,,-0.22,,,,,,,,,,,METAR,16
CWHL 050100Z AUTO 28008KT 11/08 RMK AO1 SLP021 T01130076 56012,CWHL,2024-05-05T01:00:00Z,54.172,-130.361,11.3,7.6,280,8,,,0.00,1002.1,,TRUE,TRUE,,,,,,,,,,,,,,,,-0.12,,,,,,,,,,,METAR,5
CWHI 050100Z AUTO 11012KT 14/M03 RMK AO1 T01371031,CWHI,2024-05-05T01:00:00Z,51.697,-113.217,13.7,-3.1,110,12,,,0.00,,,TRUE,TRUE,,,,,,,,,,,,,,,,,,,,,,,,,,,METAR,906
CWGY 050100Z AUTO 07007KT 12/M01 RMK AO1 SLP129 T01171007 57015,CWGY,2024-05-05T01:00:00Z,51.67,-110.206,11.7,-0.7,70,7,,,0.00,1012.9,,TRUE,TRUE,,,,,,,,,,,,,,,,-0.15,,,,,,,,,,,METAR,709
CWGW 050100Z AUTO 11009KT 14/M03 RMK AO1 SLP076 T01361032 58013,CWGW,2024-05-05T01:00:00Z,49.745,-114.884,13.6,-3.2,110,9,,,0.00,1007.6,,TRUE,TRUE,,,,,,,,,,,,,,,,-0.13,,,,,,,,,,,METAR,1137
CWGT 050100Z AUTO 26008KT 15/05 RMK AO1 SLP005 T01510049 56004,CWGT,2024-05-05T01:00:00Z,49.487,-124.435,15.1,4.9,260,8,,,0.00,1000.5,,TRUE,TRUE,,,,,,,,,,,,,,,,-0.04,,,,,,,,,,,METAR,5
CWGR 050100Z AUTO 03007KT 01/M00 RMK AO1 SLP308 T00051003 50003,CWGR,2024-05-05T01:00:00Z,47.425,-61.775,0.5,-0.3,30,7,,,0.00,1030.8,,TRUE,TRUE,,,,,,,,,,,,,,,,0.03,,,,,,,,,,,METAR,4
CWGM 050100Z AUTO 10010G16KT 13/M04 RMK AO1 PK WND 10020/0020 SLP073 T01251035 56016,CWGM,2024-05-05T01:00:00Z,49.133,-113.806,12.5,-3.5,100,10,16,,0.00,1007.3,,TRUE,TRUE,,,,,,,,,,,,,,,,-0.16,,,,,,,,,,,METAR,1292
CWGL 050100Z AUTO 12009KT 17/10 RMK AO1 PK WND 11017/0040 SLP157 T01660102 51002,CWGL,2024-05-05T01:00:00Z,44.55,-79.218,16.6,10.2,120,9,,,0.00,1015.7,,TRUE,TRUE,,,,,,,,,,,,,,,,0.02,,,,,,,,,,,METAR,220
CWGD 050100Z AUTO 12010G16KT 21/16 RMK AO1 SLP133 T02100159 57007,CWGD,2024-05-05T01:00:00Z,43.765,-81.712,21,15.9,120,10,16,,0.00,1013.3,,TRUE,TRUE,,,,,,,,,,,,,,,,-0.07,,,,,,,,,,,METAR,214
CWGB 050100Z AUTO 24008KT 15/06 RMK AO1 SLP004 T01470055 55000,CWGB,2024-05-05T01:00:00Z,49.336,-124.149,14.7,5.5,240,8,,,0.00,1000.4,,TRUE,TRUE,,,,,,,,,,,,,,,,,,,,,,,,,,,METAR,6
CWFQ 050100Z AUTO 15004KT 15/07 RMK AO1 SLP230 T01530074 51001,CWFQ,2024-05-05T01:00:00Z,45.05,-72.861,15.3,7.4,150,4,,,0.00,1023,,TRUE,TRUE,,,,,,,,,,,,,,,,0.01,,,,,,,,,,,METAR,190
CWFJ 050100Z AUTO 12011G16KT 14/M03 RMK AO1 PK WND 12018/0012 SLP072 T01371028 56017,CWFJ,2024-05-05T01:00:00Z,49.2,-113.278,13.7,-2.8,120,11,16,,0.00,1007.2,,TRUE,TRUE,,,,,,,,,,,,,,,,-0.17,,,,,,,,,,,METAR,1142
CWFF 050100Z AUTO 26006KT 10/02 RMK AO1 SLP151 T01000018 58009,CWFF,2024-05-05T01:00:00Z,52.817,-104.601,10,1.8,260,6,,,0.00,1015.1,,TRUE,TRUE,,,,,,,,,,,,,,,,-0.09,,,,,,,,,,,METAR,482
CWEZ 050100Z AUTO 20009KT 14/08 RMK AO1 SLP003 T01360081 51003,CWEZ,2024-05-05T01:00:00Z,48.783,-123.046,13.6,8.1,200,9,,,0.00,1000.3,,TRUE,TRUE,,,,,,,,,,,,,,,,0.03,,,,,,,,,,,METAR,23
CWEW 050100Z AUTO 03002KT 16/10 RMK AO1 SLP227 T01580095 56010,CWEW,2024-05-05T01:00:00Z,45.809,-73.435,15.8,9.5,30,2,,,0.00,1022.7,,TRUE,TRUE,,,,,,,,,,,,,,,,-0.1,,,,,,,,,,,METAR,17
CWEU 050100Z 12015KT 15SM BKN066 BKN120 M11/M15 A3019 RMK AC7AC1 AC TR VIS LWR NE SLP238,CWEU,2024-05-05T01:00:00Z,79.989,-85.934,-11,-15,120,15,,15,30.19,1023.8,,,,,,,,,,BKN,6600,BKN,12000,,,,,VFR,,,,,,,,,,,,METAR,2
CWER 050100Z AUTO 04024KT RMK AO1 PK WND 04031/0020,CWER,2024-05-05T01:00:00Z,46.997,-70.808,,,40,24,,,0.00,,,TRUE,TRUE,,,,,,,,,,,,,,,,,,,,,,,,,,,METAR,4
CWEQ 050100Z AUTO 27004KT 11/03 RMK AO1 SLP149 T01130028 58002,CWEQ,2024-05-05T01:00:00Z,52.115,-101.233,11.3,2.8,270,4,,,0.00,1014.9,,TRUE,TRUE,,,,,,,,,,,,,,,,-0.02,,,,,,,,,,,METAR,331
CWEP 050100Z AUTO 05009KT 03/01 RMK AO1 SLP307 T00270013 53005,CWEP,2024-05-05T01:00:00Z,46.46,-61.988,2.7,1.3,50,9,,,0.00,1030.7,,TRUE,TRUE,,,,,,,,,,,,,,,,0.05,,,,,,,,,,,METAR,9
CWEL 050100Z AUTO 30006KT 13/09 RMK AO1 SLP002 T01330086 53002,CWEL,2024-05-05T01:00:00Z,49.209,-123.808,13.3,8.6,300,6,,,0.00,1000.2,,TRUE,TRUE,,,,,,,,,,,,,,,,0.02,,,,,,,,,,,METAR,
CWEK 050100Z AUTO 31009KT 16/06 RMK AO1 SLP018 T01570063 56016,CWEK,2024-05-05T01:00:00Z,54.58,-130.698,15.7,6.3,310,9,,,0.00,1001.8,,TRUE,TRUE,,,,,,,,,,,,,,,,-0.16,,,,,,,,,,,METAR,8
CWEH 050100Z AUTO 14011KT 11/M05 RMK AO1 SLP125 T01111052 58011,CWEH,2024-05-05T01:00:00Z,49.438,-108.989,11.1,-5.2,140,11,,,0.00,1012.5,,TRUE,TRUE,,,,,,,,,,,,,,,,-0.11,,,,,,,,,,,METAR,1077
CWEF 050100Z AUTO 36002KT 03/01 RMK AO1 SLP292 T00250013 51005,CWEF,2024-05-05T01:00:00Z,47.226,-60.141,2.5,1.3,360,2,,,0.00,1029.2,,TRUE,TRUE,,,,,,,,,,,,,,,,0.05,,,,,,,,,,,METAR,27
CWEB 050100Z AUTO 32011KT 11/09 RMK AO1 SLP027 T01140093 55000,CWEB,2024-05-05T01:00:00Z,49.383,-126.543,11.4,9.3,320,11,,,0.00,1002.7,,TRUE,TRUE,,,,,,,,,,,,,,,,,,,,,,,,,,,METAR,1
CWDZ 050100Z AUTO 08007KT 16/M02 RMK AO1 SLP096 T01571024 56019,CWDZ,2024-05-05T01:00:00Z,51.445,-112.677,15.7,-2.4,80,7,,,0.00,1009.6,,TRUE,TRUE,,,,,,,,,,,,,,,,-0.19,,,,,,,,,,,METAR,689
CWDV 050100Z AUTO 25003KT 07/06 RMK AO1 SLP141 T00740061 55002,CWDV,2024-05-05T01:00:00Z,49.033,-90.467,7.4,6.1,250,3,,,0.00,1014.1,,TRUE,TRUE,,,,,,,,,,,,,,,,-0.02,,,,,,,,,,,METAR,487
CWDQ 050100Z AUTO 13003KT 16/07 RMK AO1 SLP241 T01620073 55002,CWDQ,2024-05-05T01:00:00Z,47.415,-72.788,16.2,7.3,130,3,,,0.00,1024.1,,TRUE,TRUE,,,,,,,,,,,,,,,,-0.02,,,,,,,,,,,METAR,174
CWDO 050100Z AUTO 05009KT M00/M00 RMK AO1 SLP303 T10031003 53003,CWDO,2024-05-05T01:00:00Z,49.688,-54.8,-0.3,-0.3,50,9,,,0.00,1030.3,,TRUE,TRUE,,,,,,,,,,,,,,,,0.03,,,,,,,,,,,METAR,89
CWDM 050100Z AUTO 34003KT M01/M02 RMK AO1 SLP311 T10141021 58005,CWDM,2024-05-05T01:00:00Z,50.465,-59.64,-1.4,-2.1,340,3,,,0.00,1031.1,,TRUE,TRUE,,,,,,,,,,,,,,,,-0.05,,,,,,,,,,,METAR,2
CWDK 050100Z AUTO 12010KT 14/M04 RMK AO1 PK WND 13019/0011 SLP094 T01371037 57016,CWDK,2024-05-05T01:00:00Z,50.006,-113.631,13.7,-3.7,120,10,,,0.00,1009.4,,TRUE,TRUE,,,,,,,,,,,,,,,,-0.16,,,,,,,,,,,METAR,1014
CWDJ 050100Z AUTO 12004KT 10/02 RMK AO1 SLP152 T01030020 56016,CWDJ,2024-05-05T01:00:00Z,50.408,-104.58,10.3,2,120,4,,,0.00,1015.2,,TRUE,TRUE,,,,,,,,,,,,,,,,-0.16,,,,,,,,,,,METAR,576
CWDC 050100Z AUTO 20003KT 06/M03 RMK AO1 SOG 01 7012 SLP162 T00631028,CWDC,2024-05-05T01:00:00Z,59.56,-108.487,6.3,-2.8,200,3,,,0.00,1016.2,,TRUE,TRUE,,,,,,,,,,,,,,,,,,,,,,,,,,,METAR,311
CWDA 050100Z AUTO 10003KT M00/M02 RMK AO1 SLP337 T10031017 50000,CWDA,2024-05-05T01:00:00Z,50.721,-56.113,-0.3,-1.7,100,3,,,0.00,1033.7,,TRUE,TRUE,,,,,,,,,,,,,,,,,,,,,,,,,,,METAR,30
CWCT 050100Z AUTO 09006KT 12/M04 RMK AO1 SLP129 T01241039 56017,CWCT,2024-05-05T01:00:00Z,52.074,-111.448,12.4,-3.9,90,6,,,0.00,1012.9,,TRUE,TRUE,,,,,,,,,,,,,,,,-0.17,,,,,,,,,,,METAR,793
CWCJ 050100Z AUTO 27003KT 11/04 RMK AO1 SLP114 T01080040 58012,CWCJ,2024-05-05T01:00:00Z,48.588,-86.295,10.8,4,270,3,,,0.00,1011.4,,TRUE,TRUE,,,,,,,,,,,,,,,,-0.12,,,,,,,,,,,METAR,207
CWCF 050100Z AUTO 27003KT 05/01 RMK AO1 SLP153 T00500008 57005,CWCF,2024-05-05T01:00:00Z,52.36,-97.022,5,0.8,270,3,,,0.00,1015.3,,TRUE,TRUE,,,,,,,,,,,,,,,,-0.05,,,,,,,,,,,METAR,219
CWBZ 050100Z AUTO 05006KT 16/11 RMK AO1 SLP206 T01640106 55000,CWBZ,2024-05-05T01:00:00Z,45.121,-74.289,16.4,10.6,50,6,,,0.00,1020.6,,TRUE,TRUE,,,,,,,,,,,,,,,,,,,,,,,,,,,METAR,49
CWBY 050100Z AUTO 11004KT 02/M00 RMK AO1 SLP310 T00211002 58007,CWBY,2024-05-05T01:00:00Z,49.839,-64.293,2.1,-0.2,110,4,,,0.00,1031,,TRUE,TRUE,,,,,,,,,,,,,,,,-0.07,,,,,,,,,,,METAR,56
CWBV 050100Z AUTO 08010KT 04/03 RMK AO1 SLP286 T00440034 53011,CWBV,2024-05-05T01:00:00Z,44.825,-62.338,4.4,3.4,80,10,,,0.00,1028.6,,TRUE,TRUE,,,,,,,,,,,,,,,,0.11,,,,,,,,,,,METAR,16
CWBU 050100Z AUTO 24007KT 13/M00 RMK AO1 SLP141 T01301001 56010,CWBU,2024-05-05T01:00:00Z,53.333,-104.005,13,-0.1,240,7,,,0.00,1014.1,,TRUE,TRUE,,,,,,,,,,,,,,,,-0.1,,,,,,,,,,,METAR,369
CWBT 050100Z AUTO 23001KT 01/M01 RMK AO1 SLP317 T00081007 55002,CWBT,2024-05-05T01:00:00Z,50.271,-64.226,0.8,-0.7,230,1,,,0.00,1031.7,,TRUE,TRUE,,,,,,,,,,,,,,,,-0.02,,,,,,,,,,,METAR,12
CWBS 050100Z AUTO 06012KT 14/09 RMK AO1 T01360090,CWBS,2024-05-05T01:00:00Z,46.189,-72.916,13.6,9,60,12,,,0.00,,,TRUE,TRUE,,,,,,,,,,,,,,,,,,,,,,,,,,,METAR,3
CWBO 050100Z AUTO 12006KT 16/M03 RMK AO1 SLP101 T01551030 56016,CWBO,2024-05-05T01:00:00Z,50.55,-111.849,15.5,-3,120,6,,,0.00,1010.1,,TRUE,TRUE,,,,,,,,,,,,,,,,-0.16,,,,,,,,,,,METAR,752
CWBK 050100Z AUTO 04010KT 05/02 RMK AO1 SLP309 T00500024 53010,CWBK,2024-05-05T01:00:00Z,45.764,-62.681,5,2.4,40,10,,,0.00,1030.9,,TRUE,TRUE,,,,,,,,,,,,,,,,0.1,,,,,,,,,,,METAR,2
CWBA 050100Z AUTO 19005KT 14/09 RMK AO1 T01350089,CWBA,2024-05-05T01:00:00Z,46.71,-79.101,13.5,8.9,190,5,,,0.00,,,TRUE,TRUE,,,,,,,,,,,,,,,,,,,,,,,,,,,METAR,181
CWAV 050100Z AUTO 12009G15KT 12/M04 RMK AO1 SLP102 T01171038 57019,CWAV,2024-05-05T01:00:00Z,51.777,-114.681,11.7,-3.8,120,9,15,,0.00,1010.2,,TRUE,TRUE,,,,,,,,,,,,,,,,-0.19,,,,,,,,,,,METAR,1115
CWAR 050100Z AUTO 36017KT 03/01 RMK AO1 PK WND 00021/0044 SLP277 T00280008 50005,CWAR,2024-05-05T01:00:00Z,47.294,-53.993,2.8,0.8,360,17,,,0.00,1027.7,,TRUE,TRUE,,,,,,,,,,,,,,,,0.05,,,,,,,,,,,METAR,6
CWAQ 050100Z AUTO 17004KT 10/M02 RMK AO1 SLP147 T00951019 56013,CWAQ,2024-05-05T01:00:00Z,49.05,-105.483,9.5,-1.9,170,4,,,0.00,1014.7,,TRUE,TRUE,,,,,,,,,,,,,,,,-0.13,,,,,,,,,,,METAR,761
CWAF 050100Z AUTO 04017KT 04/04 RMK AO1 PK WND 05021/0040 T00360036,CWAF,2024-05-05T01:00:00Z,48.069,-69.556,3.6,3.6,40,17,,,0.00,,,TRUE,TRUE,,,,,,,,,,,,,,,,,,,,,,,,,,,METAR,6
CWAE 050100Z 00000KT 15SM OVC070 15/02 A2959 RMK AC8 LAST OBS/NEXT 051300UTC WIND EST SLP020 DENSITY ALT 3100FT,CWAE,2024-05-05T01:00:00Z,50.129,-122.955,15,2,0,0,,15,29.59,1002,,,,,,,,,,OVC,7000,,,,,,,VFR,,,,,,,,,,,,METAR,658
CTNK 050100Z AUTO 14004KT 17/10 RMK AO1 SLP186 T01660099 53002,CTNK,2024-05-05T01:00:00Z,45.533,-78.266,16.6,9.9,140,4,,,0.00,1018.6,,TRUE,TRUE,,,,,,,,,,,,,,,,0.02,,,,,,,,,,,METAR,405
CTCK 050100Z AUTO 10008KT 17/11 RMK AO1 SLP204 T01680106 55004,CTCK,2024-05-05T01:00:00Z,45.251,-74.963,16.8,10.6,100,8,,,0.00,1020.4,,TRUE,TRUE,,,,,,,,,,,,,,,,-0.04,,,,,,,,,,,METAR,84
CPSV 050100Z AUTO 12010KT 16/M05 RMK AO1 T01561052,CPSV,2024-05-05T01:00:00Z,49.92,-110.915,15.6,-5.2,120,10,,,0.00,,,TRUE,TRUE,,,,,,,,,,,,,,,,,,,,,,,,,,,METAR,766
CPRY 050100Z AUTO 11011KT 15/M04 RMK AO1 PK WND 10017/0009 T01461035,CPRY,2024-05-05T01:00:00Z,49.488,-112.674,14.6,-3.5,110,11,,,0.00,,,TRUE,TRUE,,,,,,,,,,,,,,,,,,,,,,,,,,,METAR,947
CPRO 050100Z AUTO 11009KT 16/M05 RMK AO1 PK WND 14020/0032 T01621050,CPRO,2024-05-05T01:00:00Z,50.826,-112.06,16.2,-5,110,9,,,0.00,,,TRUE,TRUE,,,,,,,,,,,,,,,,,,,,,,,,,,,METAR,733
CPIN 050100Z AUTO 14022KT ////SM ////// 02/M01 A2979,CPIN,2024-05-05T01:00:00Z,-99.99,-99.99,2,-1,140,22,,,29.79,,,TRUE,,,,,,,,,,,,,,,,,,,,,,,,,,,,METAR,9999
CPFI 050100Z AUTO 12013KT 15/M05 RMK AO1 PK WND 11019/0016 T01541053,CPFI,2024-05-05T01:00:00Z,49.805,-112.037,15.4,-5.3,120,13,,,0.00,,,TRUE,TRUE,,,,,,,,,,,,,,,,,,,,,,,,,,,METAR,804
CPBT 050100Z AUTO 11009KT 13/M04 RMK AO1 PK WND 12018/0045 T01341042,CPBT,2024-05-05T01:00:00Z,49.543,-113.049,13.4,-4.2,110,9,,,0.00,,,TRUE,TRUE,,,,,,,,,,,,,,,,,,,,,,,,,,,METAR,998
CMGB 050100Z AUTO 12001KT 17/10 RMK AO1 SLP232 T01730095 55003,CMGB,2024-05-05T01:00:00Z,45.373,-72.774,17.3,9.5,120,1,,,0.00,1023.2,,TRUE,TRUE,,,,,,,,,,,,,,,,-0.03,,,,,,,,,,,METAR,87
CMFM 050100Z AUTO 30002KT 03/01 RMK AO1 SLP275 T00300009 55000,CMFM,2024-05-05T01:00:00Z,47.323,-71.148,3,0.9,300,2,,,0.00,1027.5,,TRUE,TRUE,,,,,,,,,,,,,,,,,,,,,,,,,,,METAR,663
CERM 050100Z AUTO 11002KT 13/06 RMK AO1 SLP284 T01270064 53004,CERM,2024-05-05T01:00:00Z,47.417,-68.325,12.7,6.4,110,2,,,0.00,1028.4,,TRUE,TRUE,,,,,,,,,,,,,,,,0.04,,,,,,,,,,,METAR,151
CBBC 050100Z AUTO VRB05KT 9SM CLR 19/02 A2957 RMK ICE MISG SLP016 DENSITY ALT 1100FT,CBBC,2024-05-05T01:00:00Z,52.181,-128.154,19,2,VRB,5,,9,29.57,1001.6,,TRUE,,,,,,,,CLR,,,,,,,,VFR,,,,,,,,,,,,METAR,36
CAHR 050100Z AUTO 06005KT 02/01 RMK AO1 SLP313 T00220014 51008,CAHR,2024-05-05T01:00:00Z,46.344,-63.17,2.2,1.4,60,5,,,0.00,1031.3,,TRUE,TRUE,,,,,,,,,,,,,,,,0.08,,,,,,,,,,,METAR,52
BKPR 050100Z VRB02KT 9999 BKN090 08/08 Q1017 NOSIG,BKPR,2024-05-05T01:00:00Z,42.576,21.03,8,8,VRB,2,,6+,30.03,,,,,,TRUE,,,,,BKN,9000,,,,,,,VFR,,,,,,,,,,,,METAR,545
BIRK 050100Z 20007KT 150V220 9999 -RA FEW009 OVC033 05/04 Q1005,BIRK,2024-05-05T01:00:00Z,64.129,-21.941,5,4,200,7,,6+,29.68,,,,,,,,,,-RA,FEW,900,OVC,3300,,,,,VFR,,,,,,,,,,,,METAR,12
BIEG 050100Z 03004KT 9999 BKN024 05/04 Q1006,BIEG,2024-05-05T01:00:00Z,65.275,-14.409,5,4,30,4,,6+,29.70,,,,,,,,,,,BKN,2400,,,,,,,MVFR,,,,,,,,,,,,METAR,20
BIAR 050100Z 17003KT 9999 BKN023 OVC055 04/02 Q1006,BIAR,2024-05-05T01:00:00Z,65.655,-18.069,4,2,170,3,,6+,29.70,,,,,,,,,,,BKN,2300,OVC,5500,,,,,MVFR,,,,,,,,,,,,METAR,1
AYMH 050100Z 10005G10KT 9999 BKN030 22/17 Q1020,AYMH,2024-05-05T01:00:00Z,-5.831,144.3,22,17,100,5,10,6+,30.12,,,,,,,,,,,BKN,3000,,,,,,,MVFR,,,,,,,,,,,,METAR,1634
ANYN 050100Z 18004KT 9999 FEW030 SCT100 30/26 Q1007,ANYN,2024-05-05T01:00:00Z,-0.547,166.919,30,26,180,4,,6+,29.73,,,,,,,,,,,FEW,3000,SCT,10000,,,,,VFR,,,,,,,,,,,,METAR,7
MMGL 050059Z RTD 21010KT 8SM SCT300 33/00 A2999 RMK 8/001 HZY,MMGL,2024-05-05T00:59:00Z,20.523,-103.312,33,0,210,10,,8,29.99,,,,,,,,,,,SCT,30000,,,,,,,VFR,,,,,,,,,,,,METAR,1531
KSBD 050059Z 25014KT 6 SM HZ SCT025 SCT039 BKN050 19/08 A2987,KSBD,2024-05-05T00:59:00Z,34.09,-117.247,19,8,250,14,,,29.87,,,,,,,,,,HZ,SCT,2500,SCT,3900,BKN,5000,,,,,,,,,,,,,,,METAR,353
KP92 050059Z AUTO 00000KT 24/22 A2995 RMK AO1 SLP143 P0001 T02390222,KP92,2024-05-05T00:59:00Z,29.559,-91.525,23.9,22.2,0,0,,,29.95,1014.3,,TRUE,TRUE,,,,,,,,,,,,,,,,,,,,,0.01,,,,,,METAR,1
KNOZ 050059Z AUTO 17014KT CLR 32/M01 A2969 RMK AO2 SLP004 T03171006,KNOZ,2024-05-05T00:59:00Z,32.55,-114.512,31.7,-0.6,170,14,,,29.69,1000.4,,TRUE,TRUE,,,,,,,CLR,,,,,,,,,,,,,,,,,,,,METAR,78
KNGU 050059Z 08007KT 8SM SCT006 BKN027 BKN075 16/14 A3017 RMK AO2 SLP216 T01610144,KNGU,2024-05-05T00:59:00Z,36.937,-76.281,16.1,14.4,80,7,,8,30.17,1021.6,,,TRUE,,,,,,,SCT,600,BKN,2700,BKN,7500,,,MVFR,,,,,,,,,,,,METAR,3
KGSP 050059Z 20004KT 5SM RA BR SCT009 BKN017 OVC075 19/18 A3006 RMK AO2 LTG DSNT S P0003 T01940178,KGSP,2024-05-05T00:59:00Z,34.8842,-82.2209,19.4,17.8,200,4,,5,30.06,,,,TRUE,,,,,,RA BR,SCT,900,BKN,1700,OVC,7500,,,MVFR,,,,,,0.03,,,,,,SPECI,285
EHWO 050059Z AUTO 00000KT 0750 FG OVC054 09/09 Q1008 RED,EHWO,2024-05-05T00:59:00Z,51.448,4.342,9,9,0,0,,0.47,29.76,,,TRUE,,,,,,,FG,OVC,5400,,,,,,,LIFR,,,,,,,,,,,,SPECI,15
EHGR 050059Z AUTO VRB02KT 9999 -DZRA FEW008 BKN009 FEW015CB 10/10 Q1008 GRN,EHGR,2024-05-05T00:59:00Z,51.565,4.935,10,10,VRB,2,,6+,29.76,,,TRUE,,,,,,,-DZ -RA,FEW,800,BKN,900,FEW,1500,,,IFR,,,,,,,,,,,,SPECI,12
KTPL 050058Z AUTO 09011KT SCT033 OVC046 23/21 A2983 RMK AO2 LTG DSNT W TSE52 PWINO RVRNO $,KTPL,2024-05-05T00:58:00Z,31.157,-97.4094,23,21,90,11,,,29.83,,,TRUE,TRUE,TRUE,,,,TRUE,,SCT,3300,OVC,4600,,,,,,,,,,,,,,,,,SPECI,206
KROG 050058Z 01003KT 10SM CLR 19/19 A2998 RMK AO2 SLP142 T01940189,KROG,2024-05-05T00:58:00Z,36.3749,-94.1078,19.4,18.9,10,3,,10+,29.98,1014.2,,,TRUE,,,,,,,CLR,,,,,,,,VFR,,,,,,,,,,,,METAR,407
KPRN 050058Z AUTO 00000KT 10SM CLR 24/19 A2998 RMK AO2 SLP100 T02390189,KPRN,2024-05-05T00:58:00Z,31.8467,-86.6141,23.9,18.9,0,0,,10+,29.98,1010,,TRUE,TRUE,,,,,,,CLR,,,,,,,,VFR,,,,,,,,,,,,METAR,137
KOXR 050058Z 27012KT 10SM BKN018 15/12 A2990 RMK AO2 T01500117 $,KOXR,2024-05-05T00:58:00Z,34.2001,-119.204,15,11.7,270,12,,10+,29.90,,,,TRUE,TRUE,,,,,,BKN,1800,,,,,,,MVFR,,,,,,,,,,,,SPECI,12
KMRH 050058Z AUTO 12004KT 10SM CLR 23/18 A3012 RMK AO2 SLP199 T02280183,KMRH,2024-05-05T00:58:00Z,34.7326,-76.6566,22.8,18.3,120,4,,10+,30.12,1019.9,,TRUE,TRUE,,,,,,,CLR,,,,,,,,VFR,,,,,,,,,,,,METAR,2
KMEI 050058Z 00000KT 10SM CLR 24/19 A2997 RMK AO2 SLP144 T02440194 $,KMEI,2024-05-05T00:58:00Z,32.3348,-88.7507,24.4,19.4,0,0,,10+,29.97,1014.4,,,TRUE,TRUE,,,,,,CLR,,,,,,,,VFR,,,,,,,,,,,,METAR,90
KEUF 050058Z AUTO 12004KT 10SM BKN060 OVC100 26/20 A3001 RMK AO2 SLP160 T02560200,KEUF,2024-05-05T00:58:00Z,31.9516,-85.1312,25.6,20,120,4,,10+,30.01,1016,,TRUE,TRUE,,,,,,,BKN,6000,OVC,10000,,,,,VFR,,,,,,,,,,,,METAR,87
KBKF 050058Z 17010KT 10SM SCT090 SCT130 BKN190 15/M01 A2992 RMK AO2A SLP106 T01501007,KBKF,2024-05-05T00:58:00Z,39.713,-104.758,15,-0.7,170,10,,10+,29.92,1010.6,,,TRUE,,,,,,,SCT,9000,SCT,13000,BKN,19000,,,VFR,,,,,,,,,,,,METAR,1703
KBCR 050058Z AUTO 20004KT 10SM FEW065 26/19 A3000 RMK AO2 SLP118 T02610189,KBCR,2024-05-05T00:58:00Z,30.8432,-85.6043,26.1,18.9,200,4,,10+,30.00,1011.8,,TRUE,TRUE,,,,,,,FEW,6500,,,,,,,VFR,,,,,,,,,,,,METAR,26
K0J4 050058Z AUTO 22005KT 10SM CLR 26/18 A3002 RMK AO2 SLP160 T02610183,K0J4,2024-05-05T00:58:00Z,31.0447,-86.3119,26.1,18.3,220,5,,10+,30.02,1016,,TRUE,TRUE,,,,,,,CLR,,,,,,,,VFR,,,,,,,,,,,,METAR,96
PHNG 050057Z AUTO 07017G28KT 10SM FEW028 BKN065 OVC080 27/18 A3002 RMK AO2 PK WND 07029/0015 SLP161 T02670178,PHNG,2024-05-05T00:57:00Z,21.45,-157.763,26.7,17.8,70,17,28,10+,30.02,1016.1,,TRUE,TRUE,,,,,,,FEW,2800,BKN,6500,OVC,8000,,,VFR,,,,,,,,,,,,METAR,1
PASN 050057Z AUTO 33024G35KT 3SM -SN BR SCT010 OVC015 02/M01 A2946 RMK AO2 PK WND 34035/0055 P0000 T00171006 TSNO,PASN,2024-05-05T00:57:00Z,57.155,-170.223,1.7,-0.6,330,24,35,3,29.46,,,TRUE,TRUE,,,TRUE,,,-SN BR,SCT,1000,OVC,1500,,,,,MVFR,,,,,,0.005,,,,,,SPECI,8
KNYL 050057Z AUTO 19013KT 10SM CLR 32/02 A2967 RMK AO2 SLP042 T03220017 $,KNYL,2024-05-05T00:57:00Z,32.66,-114.608,32.2,1.7,190,13,,10+,29.67,1004.2,,TRUE,TRUE,TRUE,,,,,,CLR,,,,,,,,VFR,,,,,,,,,,,,METAR,58
KNJW 050057Z AUTO 00000KT 10SM CLR 24/19 A3001 RMK AO2 SLP074 T02390189 $,KNJW,2024-05-05T00:57:00Z,32.792,-88.832,23.9,18.9,0,0,,10+,30.01,1007.4,,TRUE,TRUE,TRUE,,,,,,CLR,,,,,,,,VFR,,,,,,,,,,,,METAR,165
KNJM 050057Z AUTO 12006KT 8SM FEW035 23/19 A3012 RMK AO2 SLP202 T02280194,KNJM,2024-05-05T00:57:00Z,34.694,-77.029,22.8,19.4,120,6,,8,30.12,1020.2,,TRUE,TRUE,,,,,,,FEW,3500,,,,,,,VFR,,,,,,,,,,,,METAR,5
KMNM 050057Z AUTO 33008KT 10SM SCT021 OVC029 15/12 A2985 RMK AO2 LTG DSNT E SLP126 T01500117 $,KMNM,2024-05-05T00:57:00Z,45.126,-87.639,15,11.7,330,8,,10+,29.85,1012.6,,TRUE,TRUE,TRUE,,,,,,SCT,2100,OVC,2900,,,,,MVFR,,,,,,,,,,,,METAR,188
KFLG 050057Z 21017G30KT 10SM CLR 16/M03 A2996 RMK AO2 PK WND 22030/0054 SLP081 T01611033,KFLG,2024-05-05T00:57:00Z,35.1443,-111.666,16.1,-3.3,210,17,30,10+,29.96,1008.1,,,TRUE,,,,,,,CLR,,,,,,,,VFR,,,,,,,,,,,,METAR,2134
KDUB 050057Z AUTO 13010KT 10SM CLR 09/M01 A2984 RMK AO2,KDUB,2024-05-05T00:57:00Z,43.5485,-109.684,9,-1,130,10,,10+,29.84,,,TRUE,TRUE,,,,,,,CLR,,,,,,,,VFR,,,,,,,,,,,,METAR,2205
EQYG 050057Z AUTO 32003KT 10SM OVC019 16/ A2987 RMK AO2 SLP109 T0161 PWINO $ ,EQYG,2024-05-05T00:57:00Z,35.53,24.15,16.1,,320,3,,10+,29.87,1010.9,,TRUE,TRUE,TRUE,,,,TRUE,,OVC,1900,,,,,,,MVFR,,,,,,,,,,,,METAR,142
TJSJ 050056Z 19003KT 10SM -RA FEW026 SCT060 BKN085 27/22 A2994 RMK AO2 RAB30 SLP136 P0000 T02720222,TJSJ,2024-05-05T00:56:00Z,18.4326,-66.0107,27.2,22.2,190,3,,10+,29.94,1013.6,,,TRUE,,,,,,-RA,FEW,2600,SCT,6000,BKN,8500,,,VFR,,,,,,0.005,,,,,,METAR,3
ROTM 050056Z 14211KT 9999 SCT022 27/21 A2995 RMK SLP143 T02720210,ROTM,2024-05-05T00:56:00Z,26.271,127.754,27.2,21,142,11,,6+,29.95,1014.3,,,,,,,,,,SCT,2200,,,,,,,VFR,,,,,,,,,,,,METAR,80
RJOI 050056Z 00000KT 9999 FEW030 BKN210 BKN250 21/12 A3014 RMK AO2 SLP206 T02110117,RJOI,2024-05-05T00:56:00Z,34.144,132.236,21.1,11.7,0,0,,6+,30.14,1020.6,,,TRUE,,,,,,,FEW,3000,BKN,21000,BKN,25000,,,VFR,,,,,,,,,,,,METAR,2
PMDY 050056Z AUTO 10SM BKN012 26/20 A3016 RMK AO2 SLP213 T02560200 $,PMDY,2024-05-05T00:56:00Z,28.206,-177.382,25.6,20,,,,10+,30.16,1021.3,,TRUE,TRUE,TRUE,,,,,,BKN,1200,,,,,,,MVFR,,,,,,,,,,,,METAR,6
PHNY 050056Z AUTO 02013G17KT 10SM OVC027 A3005 RMK AO2 RAE05UPB05E07 SLPNO P0000 FZRANO $,PHNY,2024-05-05T00:56:00Z,20.783,-156.955,,,20,13,17,10+,30.05,,,TRUE,TRUE,TRUE,,,TRUE,,,OVC,2700,,,,,,,MVFR,,,,,,0.005,,,,,,METAR,395
PFYU 050056Z 03011KT 10SM BKN085 04/M07 A2945 RMK AO2 SLP987 T00391067,PFYU,2024-05-05T00:56:00Z,66.572,-145.243,3.9,-6.7,30,11,,10+,29.45,998.7,,,TRUE,,,,,,,BKN,8500,,,,,,,VFR,,,,,,,,,,,,METAR,130
PFWS 050056Z AUTO 28004KT 4SM RA BR SCT015 OVC024 05/03 RMK AO2 RAB30 SLPNO T00500028 PNO $,PFWS,2024-05-05T00:56:00Z,58.704,-157.005,5,2.8,280,4,,4,0.00,,,TRUE,TRUE,TRUE,,,,,RA BR,SCT,1500,OVC,2400,,,,,MVFR,,,,,,,,,,,,METAR,40
PFTO 050056Z AUTO 23005KT 10SM OVC090 16/M07 A2927 RMK AO2 SLP563 T01561067 $,PFTO,2024-05-05T00:56:00Z,63.329,-142.954,15.6,-6.7,230,5,,10+,29.27,956.3,,TRUE,TRUE,TRUE,,,,,,OVC,9000,,,,,,,VFR,,,,,,,,,,,,METAR,500
PFSH 050056Z AUTO 36024KT 10SM BKN036 OVC048 02/M01 A2938 RMK AO2 PK WND 36029/0043 UPE08 SLP950 T00171011 FZRANO PNO $,PFSH,2024-05-05T00:56:00Z,64.367,-161.217,1.7,-1.1,360,24,,10+,29.38,995,,TRUE,TRUE,TRUE,,,TRUE,,,BKN,3600,OVC,4800,,,,,VFR,,,,,,,,,,,,METAR,6
PFKW 050056Z AUTO 36008KT 10SM -RA SCT033 BKN042 OVC050 06/02 A2928 RMK AO2 RAB13 SLP916 P0000 T00610022,PFKW,2024-05-05T00:56:00Z,60.793,-161.44,6.1,2.2,360,8,,10+,29.28,991.6,,TRUE,TRUE,,,,,,-RA,SCT,3300,BKN,4200,OVC,5000,,,VFR,,,,,,0.005,,,,,,METAR,4
PFKT 050056Z AUTO 02037G43KT 10SM SCT050 OVC080 M02/M07 A2952 RMK AO2 PK WND 02043/0056 SLP998 T10171067 FZRANO,PFKT,2024-05-05T00:56:00Z,65.33,-166.479,-1.7,-6.7,20,37,43,10+,29.52,999.8,,TRUE,TRUE,,,,TRUE,,,SCT,5000,OVC,8000,,,,,VFR,,,,,,,,,,,,METAR,8
PFEL 050056Z AUTO 02022G29KT 10SM BKN038 OVC046 02/M03 A2940 RMK AO2 PK WND 02029/0055 RAE42 SLP958 P0000 T00171033 FZRANO,PFEL,2024-05-05T00:56:00Z,64.616,-162.272,1.7,-3.3,20,22,29,10+,29.40,995.8,,TRUE,TRUE,,,,TRUE,,,BKN,3800,OVC,4600,,,,,VFR,,,,,,0.005,,,,,,METAR,50
PFCL 050056Z AUTO 36011KT 10SM SCT026 BKN033 OVC060 06/03 A2923 RMK AO2 SLP891 T00560028 TSNO,PFCL,2024-05-05T00:56:00Z,58.837,-158.526,5.6,2.8,360,11,,10+,29.23,989.1,,TRUE,TRUE,,,TRUE,,,,SCT,2600,BKN,3300,OVC,6000,,,VFR,,,,,,,,,,,,METAR,23
PAZK 050056Z AUTO 13015G19KT 10SM CLR 04/M05 A2926 RMK AO2 SLP946 T00391050 $,PAZK,2024-05-05T00:56:00Z,61.938,-147.169,3.9,-5,130,15,19,10+,29.26,994.6,,TRUE,TRUE,TRUE,,,,,,CLR,,,,,,,,VFR,,,,,,,,,,,,METAR,1002
PAWS 050056Z AUTO 11007KT 090V150 10SM OVC085 12/M03 A2931 RMK AO2 SLP928 T01221028,PAWS,2024-05-05T00:56:00Z,61.571,-149.538,12.2,-2.8,110,7,,10+,29.31,992.8,,TRUE,TRUE,,,,,,,OVC,8500,,,,,,,VFR,,,,,,,,,,,,METAR,102
PAWN 050056Z AUTO 05026G32KT 10SM CLR M02/M13 A2964 RMK AO2 PK WND 05036/0006 SLP047 T10221133 FZRANO,PAWN,2024-05-05T00:56:00Z,67.567,-162.977,-2.2,-13.3,50,26,32,10+,29.64,1004.7,,TRUE,TRUE,,,,TRUE,,,CLR,,,,,,,,VFR,,,,,,,,,,,,METAR,26
PAWM 050056Z AUTO 02009G14KT 9SM OVC039 03/M03 A2942 RMK AO2 SLP967 T00281028 PNO $,PAWM,2024-05-05T00:56:00Z,64.688,-163.41,2.8,-2.8,20,9,14,9,29.42,996.7,,TRUE,TRUE,TRUE,,,,,,OVC,3900,,,,,,,VFR,,,,,,,,,,,,METAR,80
PAWG 050056Z 33004KT 10SM FEW090 BKN200 21/07 A2958,PAWG,2024-05-05T00:56:00Z,56.486,-132.377,21,7,330,4,,10+,29.58,,,,,,,,,,,FEW,9000,BKN,20000,,,,,VFR,,,,,,,,,,,,METAR,6
PAVD 050056Z 00000KT 8SM -RA FEW019 BKN042 OVC055 05/03 A2953 RMK AO2 SLP999 P0000 T00500028 $,PAVD,2024-05-05T00:56:00Z,61.133,-146.251,5,2.8,0,0,,8,29.53,999.9,,,TRUE,TRUE,,,,,-RA,FEW,1900,BKN,4200,OVC,5500,,,VFR,,,,,,0.005,,,,,,METAR,21
PAVC 050056Z AUTO 25012KT 4SM UP BKN017 OVC023 A2935 RMK AO2 RAE37UPB07E13B37 SLPNO FZRANO PNO $,PAVC,2024-05-05T00:56:00Z,55.115,-162.271,,,250,12,,4,29.35,,,TRUE,TRUE,TRUE,,,TRUE,,UP,BKN,1700,OVC,2300,,,,,MVFR,,,,,,,,,,,,METAR,48
PAVA 050056Z AUTO 04007KT 10SM OVC016 03/00 A2935 RMK AO2 SLP942 T00330000 PNO $,PAVA,2024-05-05T00:56:00Z,61.537,-165.604,3.3,0,40,7,,10+,29.35,994.2,,TRUE,TRUE,TRUE,,,,,,OVC,1600,,,,,,,MVFR,,,,,,,,,,,,METAR,14
PAUN 050056Z AUTO 08008KT 10SM BKN031 OVC041 08/01 A2935 RMK AO2 SLP941 T00830011,PAUN,2024-05-05T00:56:00Z,63.885,-160.794,8.3,1.1,80,8,,10+,29.35,994.1,,TRUE,TRUE,,,,,,,BKN,3100,OVC,4100,,,,,VFR,,,,,,,,,,,,METAR,4
PATQ 050056Z AUTO 05020KT 1 1/2SM -SN FEW009 OVC039 M12/M15 A3008 RMK AO2 SLP191 P0000 T11221150 FZRANO TSNO,PATQ,2024-05-05T00:56:00Z,70.469,-157.428,-12.2,-15,50,20,,1.5,30.08,1019.1,,TRUE,TRUE,,,TRUE,TRUE,,-SN,FEW,900,OVC,3900,,,,,IFR,,,,,,0.005,,,,,,METAR,28
PATG 050056Z AUTO 23004KT 4SM RA BR OVC019 04/02 A2927 RMK AO2 RAB06 SLP911 T00440022 PNO $,PATG,2024-05-05T00:56:00Z,59.051,-160.398,4.4,2.2,230,4,,4,29.27,991.1,,TRUE,TRUE,TRUE,,,,,RA BR,OVC,1900,,,,,,,MVFR,,,,,,,,,,,,METAR,1
PATE 050056Z AUTO 02024G29KT 10SM FEW085 M02/M06 A2954 RMK AO2 PK WND 02032/0025 SLP010 T10171061 FZRANO,PATE,2024-05-05T00:56:00Z,65.242,-166.328,-1.7,-6.1,20,24,29,10+,29.54,1001,,TRUE,TRUE,,,,TRUE,,,FEW,8500,,,,,,,VFR,,,,,,,,,,,,METAR,93
PASY 050056Z AUTO M 7SM -RA M 04/02 A3010 RMK AO2 SLP197 FZRANO $,PASY,2024-05-05T00:56:00Z,52.711,174.107,4,2,,,,7,30.10,1019.7,,TRUE,TRUE,TRUE,,,TRUE,,-RA,,,,,,,,,VFR,,,,,,,,,,,,SPECI,6
PASX 050056Z AUTO 09009KT 10SM BKN070 BKN095 11/00 A2929 RMK AO2 SLP923 T01110000,PASX,2024-05-05T00:56:00Z,60.476,-151.053,11.1,0,90,9,,10+,29.29,992.3,,TRUE,TRUE,,,,,,,BKN,7000,BKN,9500,,,,,VFR,,,,,,,,,,,,METAR,28
PASM 050056Z AUTO 00000KT 10SM BKN022 BKN075 OVC090 05/00 A2934 RMK AO2 SLP944 T00500000,PASM,2024-05-05T00:56:00Z,62.057,-163.298,5,0,0,0,,10+,29.34,994.4,,TRUE,TRUE,,,,,,,BKN,2200,BKN,7500,OVC,9000,,,MVFR,,,,,,,,,,,,METAR,108
PASL 050056Z AUTO 00000KT 10SM FEW021 SCT025 BKN030 07/03 A2931 RMK AO2 RAE54 SLP915 P0000 T00720033,PASL,2024-05-05T00:56:00Z,61.697,-157.167,7.2,3.3,0,0,,10+,29.31,991.5,,TRUE,TRUE,,,,,,,FEW,2100,SCT,2500,BKN,3000,,,MVFR,,,,,,0.005,,,,,,METAR,64
PASK 050056Z AUTO 04018KT 10SM FEW100 M01/M08 A2955 RMK AO2 SLP002 T10111078 FZRANO,PASK,2024-05-05T00:56:00Z,66.599,-159.991,-1.1,-7.8,40,18,,10+,29.55,1000.2,,TRUE,TRUE,,,,TRUE,,,FEW,10000,,,,,,,VFR,,,,,,,,,,,,METAR,3
PASH 050056Z AUTO 36019KT 10SM CLR M03/M07 A2964 RMK AO2 SLP039 T10331072 FZRANO,PASH,2024-05-05T00:56:00Z,66.252,-166.084,-3.3,-7.2,360,19,,10+,29.64,1003.9,,TRUE,TRUE,,,,TRUE,,,CLR,,,,,,,,VFR,,,,,,,,,,,,METAR,3
PASD 050056Z 28009KT 10SM -RA FEW021 SCT026 BKN032 06/02 A2932 RMK AO2 RAB03 SLP932 T00560022 PNO $,PASD,2024-05-05T00:56:00Z,55.318,-160.525,5.6,2.2,280,9,,10+,29.32,993.2,,,TRUE,TRUE,,,,,-RA,FEW,2100,SCT,2600,BKN,3200,,,VFR,,,,,,,,,,,,METAR,6
PASA 050056Z AUTO 01017G20KT 10SM OVC015 M04/M08 A2966 RMK AO2 SLP046 T10441078 FZRANO,PASA,2024-05-05T00:56:00Z,63.689,-170.49,-4.4,-7.8,10,17,20,10+,29.66,1004.6,,TRUE,TRUE,,,,TRUE,,,OVC,1500,,,,,,,MVFR,,,,,,,,,,,,METAR,9
PARY 050056Z AUTO 08006KT 10SM OVC055 08/M02 A2932 RMK AO2 SLP938 T00831022,PARY,2024-05-05T00:56:00Z,64.731,-155.463,8.3,-2.2,80,6,,10+,29.32,993.8,,TRUE,TRUE,,,,,,,OVC,5500,,,,,,,VFR,,,,,,,,,,,,METAR,185
PARS 050056Z AUTO 03005KT 10SM BKN050 07/00 A2930 RMK AO2 SLP924 T00720000 $,PARS,2024-05-05T00:56:00Z,61.78,-161.321,7.2,0,30,5,,10+,29.30,992.4,,TRUE,TRUE,TRUE,,,,,,BKN,5000,,,,,,,VFR,,,,,,,,,,,,METAR,15
PAQH 050056Z AUTO 28009KT 10SM FEW041 BKN100 06/02 A2929 RMK AO2 RAE16 SLP917 P0000 T00560022,PAQH,2024-05-05T00:56:00Z,59.751,-161.842,5.6,2.2,280,9,,10+,29.29,991.7,,TRUE,TRUE,,,,,,,FEW,4100,BKN,10000,,,,,VFR,,,,,,0.005,,,,,,METAR,8
PAPO 050056Z AUTO 05024G33KT 10SM CLR M10/M14 A2991 RMK AO2 PK WND 03036/0013 SLP125 T11001144 FZRANO,PAPO,2024-05-05T00:56:00Z,68.345,-166.807,-10,-14.4,50,24,33,10+,29.91,1012.5,,TRUE,TRUE,,,,TRUE,,,CLR,,,,,,,,VFR,,,,,,,,,,,,METAR,4
PAPM 050056Z AUTO 25008KT 10SM OVC026 04/02 A2927 RMK AO2 SLP914 T00390022,PAPM,2024-05-05T00:56:00Z,59.011,-161.82,3.9,2.2,250,8,,10+,29.27,991.4,,TRUE,TRUE,,,,,,,OVC,2600,,,,,,,MVFR,,,,,,,,,,,,METAR,4
PAPH 050056Z AUTO 28010KT 10SM OVC008 04/02 A2927 RMK AO2 SLP912 T00390017 $,PAPH,2024-05-05T00:56:00Z,56.959,-158.631,3.9,1.7,280,10,,10+,29.27,991.2,,TRUE,TRUE,TRUE,,,,,,OVC,800,,,,,,,IFR,,,,,,,,,,,,METAR,29
PAPG 050056Z 09007KT 10SM FEW050 FEW090 19/01 A2957 RMK AO2 SLP018 HIR THN SCT T01940011,PAPG,2024-05-05T00:56:00Z,56.805,-132.935,19.4,1.1,90,7,,10+,29.57,1001.8,,,TRUE,,,,,,,FEW,5000,FEW,9000,,,,,VFR,,,,,,,,,,,,METAR,24
PAOU 050056Z AUTO 30018KT 10SM SCT008 BKN013 OVC022 03/02 A2930 RMK AO2 UPB34E48 SLPNO T00330017 PNO $,PAOU,2024-05-05T00:56:00Z,56.006,-161.162,3.3,1.7,300,18,,10+,29.30,,,TRUE,TRUE,TRUE,,,,,,SCT,800,BKN,1300,OVC,2200,,,MVFR,,,,,,,,,,,,METAR,3
PAOO 050056Z AUTO 05006KT 10SM OVC009 03/01 A2933 RMK AO2 SLP937 T00280011 TSNO $,PAOO,2024-05-05T00:56:00Z,60.537,-165.089,2.8,1.1,50,6,,10+,29.33,993.7,,TRUE,TRUE,TRUE,,TRUE,,,,OVC,900,,,,,,,IFR,,,,,,,,,,,,METAR,15
PAOH 050056Z AUTO 12005KT 10SM BKN120 16/02 A2956 RMK AO2 SLP011 T01560017,PAOH,2024-05-05T00:56:00Z,58.108,-135.448,15.6,1.7,120,5,,10+,29.56,1001.1,,TRUE,TRUE,,,,,,,BKN,12000,,,,,,,VFR,,,,,,,,,,,,METAR,
PANW 050056Z AUTO 01008KT 10SM -RA OVC010 05/04 A2921 RMK AO2 CIG 007V012 SLP898 P0000 T00500039,PANW,2024-05-05T00:56:00Z,59.451,-157.325,5,3.9,10,8,,10+,29.21,989.8,,TRUE,TRUE,,,,,,-RA,OVC,1000,,,,,,,MVFR,,,,,,0.005,,,,,,METAR,100
PANV 050056Z AUTO 07006KT 10SM FEW026 BKN035 OVC100 08/02 A2928 RMK AO2 SLP975 T00780022 TSNO,PANV,2024-05-05T00:56:00Z,62.647,-160.191,7.8,2.2,70,6,,10+,29.28,997.5,,TRUE,TRUE,,,TRUE,,,,FEW,2600,BKN,3500,OVC,10000,,,VFR,,,,,,,,,,,,METAR,91
PANU 050056Z AUTO 03010KT 10SM OVC011 03/00 A2941 RMK AO2 RAE06UPB09E33 SLP870 P0000 T00280000,PANU,2024-05-05T00:56:00Z,64.7304,-158.075,2.8,0,30,10,,10+,29.41,987,,TRUE,TRUE,,,,,,,OVC,1100,,,,,,,MVFR,,,,,,0.005,,,,,,METAR,117
PANI 050056Z AUTO 00000KT 10SM -RA FEW021 SCT027 OVC033 06/03 A2932 RMK AO2 RAB29 SLP922 P0001 T00610033 $,PANI,2024-05-05T00:56:00Z,61.578,-159.539,6.1,3.3,0,0,,10+,29.32,992.2,,TRUE,TRUE,TRUE,,,,,-RA,FEW,2100,SCT,2700,OVC,3300,,,VFR,,,,,,0.01,,,,,,METAR,21
PAMY 050056Z AUTO VRB03KT 10SM OVC007 01/M01 A2933 RMK AO2 SLP929 T00111006 FZRANO,PAMY,2024-05-05T00:56:00Z,60.376,-166.262,1.1,-0.6,VRB,3,,10+,29.33,992.9,,TRUE,TRUE,,,,TRUE,,,OVC,700,,,,,,,IFR,,,,,,,,,,,,METAR,14
PAMM 050056Z AUTO 23008KT 10SM CLR 17/04 A2959 RMK AO2 SLP113 T01670039 $,PAMM,2024-05-05T00:56:00Z,55.131,-131.578,16.7,3.9,230,8,,10+,29.59,1011.3,,TRUE,TRUE,TRUE,,,,,,CLR,,,,,,,,VFR,,,,,,,,,,,,METAR,
PAMK 050056Z AUTO 02017G22KT 10SM BKN034 OVC055 03/01 A2935 RMK AO2 SLP940 T00330006,PAMK,2024-05-05T00:56:00Z,63.484,-162.115,3.3,0.6,20,17,22,10+,29.35,994,,TRUE,TRUE,,,,,,,BKN,3400,OVC,5500,,,,,VFR,,,,,,,,,,,,METAR,31
PAMH 050056Z AUTO VRB04KT 10SM OVC075 13/M01 A2927 RMK AO2 SLP910 T01331006,PAMH,2024-05-05T00:56:00Z,63.889,-152.292,13.3,-0.6,VRB,4,,10+,29.27,991,,TRUE,TRUE,,,,,,,OVC,7500,,,,,,,VFR,,,,,,,,,,,,METAR,200
PAMB 050056Z AUTO 02009KT 06/00 A2924 RMK AO2 SLP905 T00560000 PWINO $,PAMB,2024-05-05T00:56:00Z,58.986,-159.05,5.6,0,20,9,,,29.24,990.5,,TRUE,TRUE,TRUE,,,,TRUE,,,,,,,,,,,,,,,,,,,,,,METAR,28
PALG 050056Z AUTO VRB05KT 10SM SCT031 BKN044 OVC060 07/02 A2928 RMK AO2 SLP918 T00720017 PNO $,PALG,2024-05-05T00:56:00Z,61.538,-160.34,7.2,1.7,VRB,5,,10+,29.28,991.8,,TRUE,TRUE,TRUE,,,,,,SCT,3100,BKN,4400,OVC,6000,,,VFR,,,,,,,,,,,,METAR,13
PAKK 050056Z AUTO 36013G19KT 10SM BKN055 OVC070 03/M03 A2938 RMK AO2 RAE2358 SLP958 P0000 T00281033,PAKK,2024-05-05T00:56:00Z,64.939,-161.156,2.8,-3.3,360,13,19,10+,29.38,995.8,,TRUE,TRUE,,,,,,,BKN,5500,OVC,7000,,,,,VFR,,,,,,0.005,,,,,,METAR,56
PAKH 050056Z AUTO 00000KT 10SM -RA OVC021 04/03 A2925 RMK AO2 SLP905 T00440028 PNO $,PAKH,2024-05-05T00:56:00Z,56.94,-154.181,4.4,2.8,0,0,,10+,29.25,990.5,,TRUE,TRUE,TRUE,,,,,-RA,OVC,2100,,,,,,,MVFR,,,,,,,,,,,,METAR,15
PAKF 050056Z AUTO 27016G23KT 6SM -RA FEW011 BKN025 OVC033 04/00 A2936 RMK AO2 PK WND 27036/0004 SLP941 P0001 T00440000,PAKF,2024-05-05T00:56:00Z,54.85,-163.409,4.4,0,270,16,23,6,29.36,994.1,,TRUE,TRUE,,,,,,-RA,FEW,1100,BKN,2500,OVC,3300,,,MVFR,,,,,,0.01,,,,,,METAR,2
PAJZ 050056Z AUTO 05009KT 7SM -RA OVC014 05/04 A2926 RMK AO2 SLP917 P0000 T00500039 $,PAJZ,2024-05-05T00:56:00Z,59.727,-157.267,5,3.9,50,9,,7,29.26,991.7,,TRUE,TRUE,TRUE,,,,,-RA,OVC,1400,,,,,,,MVFR,,,,,,0.005,,,,,,METAR,80
PAIW 050056Z AUTO 02035G39KT 10SM CLR M06/M09 A2967 RMK AO2 PK WND 02039/0054 SLP049 T10611094 FZRANO,PAIW,2024-05-05T00:56:00Z,65.621,-168.093,-6.1,-9.4,20,35,39,10+,29.67,1004.9,,TRUE,TRUE,,,,TRUE,,,CLR,,,,,,,,VFR,,,,,,,,,,,,METAR,6
PAIN 050056Z AUTO VRB05G15KT 10SM CLR 09/M01 A2930 RMK AO2 SLP937 T00891006,PAIN,2024-05-05T00:56:00Z,63.733,-148.912,8.9,-0.6,VRB,5,15,10+,29.30,993.7,,TRUE,TRUE,,,,,,,CLR,,,,,,,,VFR,,,,,,,,,,,,METAR,525
PAIK 050056Z AUTO 05016G21KT 10SM CLR M01/M11 A2957 RMK AO2 SLP018 T10061111 FZRANO,PAIK,2024-05-05T00:56:00Z,66.975,-160.439,-0.6,-11.1,50,16,21,10+,29.57,1001.8,,TRUE,TRUE,,,,TRUE,,,CLR,,,,,,,,VFR,,,,,,,,,,,,METAR,49
PAHY 050056Z AUTO 23004KT 10SM CLR 17/04 A2958 RMK AO2 SLP015 T01670039 PNO $,PAHY,2024-05-05T00:56:00Z,55.202,-132.825,16.7,3.9,230,4,,10+,29.58,1001.5,,TRUE,TRUE,TRUE,,,,,,CLR,,,,,,,,VFR,,,,,,,,,,,,METAR,
PAHL 050056Z AUTO 05008KT 10SM SCT035 OVC044 03/00 A2942 RMK AO2 RAB02E52UPB29E36SNE2357 SLP966 P0000 T00280000,PAHL,2024-05-05T00:56:00Z,65.699,-156.353,2.8,0,50,8,,10+,29.42,996.6,,TRUE,TRUE,,,,,,,SCT,3500,OVC,4400,,,,,VFR,,,,,,0.005,,,,,,METAR,49
PAHC 050056Z AUTO VRB05KT 10SM BKN048 09/01 A2927 RMK AO2 SLP918 T00890006,PAHC,2024-05-05T00:56:00Z,62.191,-159.773,8.9,0.6,VRB,5,,10+,29.27,991.8,,TRUE,TRUE,,,,,,,BKN,4800,,,,,,,VFR,,,,,,,,,,,,METAR,21
PAGS 050056Z AUTO 32008KT 10SM CLR 13/01 A2959 RMK AO2 SLP021 T01280011,PAGS,2024-05-05T00:56:00Z,58.425,-135.707,12.8,1.1,320,8,,10+,29.59,1002.1,,TRUE,TRUE,,,,,,,CLR,,,,,,,,VFR,,,,,,,,,,,,METAR,9
PAGL 050056Z AUTO 03013KT 10SM OVC027 03/M01 A2942 RMK AO2 RAE15 SLP957 P0000 T00281011,PAGL,2024-05-05T00:56:00Z,64.548,-163.013,2.8,-1.1,30,13,,10+,29.42,995.7,,TRUE,TRUE,,,,,,,OVC,2700,,,,,,,MVFR,,,,,,0.005,,,,,,METAR,20
PAGH 050056Z AUTO 33012G17KT 10SM OVC070 05/M08 A2947 RMK AO2 SLP984 T00501078,PAGH,2024-05-05T00:56:00Z,66.886,-157.159,5,-7.8,330,12,17,10+,29.47,998.4,,TRUE,TRUE,,,,,,,OVC,7000,,,,,,,VFR,,,,,,,,,,,,METAR,56
PAGA 050056Z AUTO 34010KT 10SM BKN011 OVC047 04/01 A2938 RMK AO2 SLP951 T00440011 TSNO $,PAGA,2024-05-05T00:56:00Z,64.738,-156.92,4.4,1.1,340,10,,10+,29.38,995.1,,TRUE,TRUE,TRUE,,TRUE,,,,BKN,1100,OVC,4700,,,,,MVFR,,,,,,,,,,,,METAR,39
PAFM 050056Z AUTO 36017G24KT 10SM BKN110 M01/M12 A2954 RMK AO2 SLP010 T10111122 FZRANO,PAFM,2024-05-05T00:56:00Z,67.106,-157.858,-1.1,-12.2,360,17,24,10+,29.54,1001,,TRUE,TRUE,,,,TRUE,,,BKN,11000,,,,,,,VFR,,,,,,,,,,,,METAR,79
PAFE 050056Z AUTO 28003KT 10SM CLR 13/05 A2960 RMK AO2 SLP034 T01330050,PAFE,2024-05-05T00:56:00Z,56.961,-133.91,13.3,5,280,3,,10+,29.60,1003.4,,TRUE,TRUE,,,,,,,CLR,,,,,,,,VFR,,,,,,,,,,,,METAR,1
PADU 050056Z 30018G28KT 7SM -RA BKN021 OVC026 04/02 A2954 RMK AO2 PK WND 30028/0049 SLP007 P0001 T00440017,PADU,2024-05-05T00:56:00Z,53.896,-166.543,4.4,1.7,300,18,28,7,29.54,1000.7,,,TRUE,,,,,,-RA,BKN,2100,OVC,2600,,,,,MVFR,,,,,,0.01,,,,,,METAR,4
PADL 050056Z 35009KT 10SM BKN030 06/02 A2923 RMK AO2 RAE36 SLP900 P0000 T00610017,PADL,2024-05-05T00:56:00Z,59.04,-158.507,6.1,1.7,350,9,,10+,29.23,990,,,TRUE,,,,,,,BKN,3000,,,,,,,MVFR,,,,,,0.005,,,,,,METAR,20
PADK 050056Z AUTO 28017KT 10SM FEW027 BKN044 OVC055 06/02 A3002 RMK AO2 SLP166 T00610017 $,PADK,2024-05-05T00:56:00Z,51.881,-176.644,6.1,1.7,280,17,,10+,30.02,1016.6,,TRUE,TRUE,TRUE,,,,,,FEW,2700,BKN,4400,OVC,5500,,,VFR,,,,,,,,,,,,METAR,3
PACX 050056Z AUTO 01015G18KT 10SM UP SCT035 OVC046 00/M03 A2946 RMK AO2 UPB53SNE53 SLP608 P0000 T00001033 FZRANO,PACX,2024-05-05T00:56:00Z,67.252,-150.204,0,-3.3,10,15,18,10+,29.46,960.8,,TRUE,TRUE,,,,TRUE,,UP,SCT,3500,OVC,4600,,,,,VFR,,,,,,0.005,,,,,,METAR,319
PABV 050056Z AUTO 26004KT 10SM FEW070 OVC090 11/03 A2931 RMK AO2 SLP931 T01060033,PABV,2024-05-05T00:56:00Z,61.416,-149.511,10.6,3.3,260,4,,10+,29.31,993.1,,TRUE,TRUE,,,,,,,FEW,7000,OVC,9000,,,,,VFR,,,,,,,,,,,,METAR,21
PABL 050056Z AUTO 03012KT 10SM BKN042 BKN049 01/M09 A2952 RMK AO2 SLP998 T00111089 FZRANO,PABL,2024-05-05T00:56:00Z,65.979,-161.146,1.1,-8.9,30,12,,10+,29.52,999.8,,TRUE,TRUE,,,,TRUE,,,BKN,4200,BKN,4900,,,,,VFR,,,,,,,,,,,,METAR,7
PAAK 050056Z AUTO 29018G25KT 10SM OVC013 05/03 A2995 RMK AO2 PK WND 29027/0012 SLP143 T00500028,PAAK,2024-05-05T00:56:00Z,52.219,-174.208,5,2.8,290,18,25,10+,29.95,1014.3,,TRUE,TRUE,,,,,,,OVC,1300,,,,,,,MVFR,,,,,,,,,,,,METAR,11
KYKN 050056Z AUTO 00000KT 10SM SCT060 16/03 A3006 RMK AO2 SLP195 T01560028,KYKN,2024-05-05T00:56:00Z,42.9142,-97.3807,15.6,2.8,0,0,,10+,30.06,1019.5,,TRUE,TRUE,,,,,,,SCT,6000,,,,,,,VFR,,,,,,,,,,,,METAR,388
KY50 050056Z AUTO 31010G17KT 10SM BKN060 13/08 A2992 RMK AO2 SLP132 T01280083 $,KY50,2024-05-05T00:56:00Z,44.0435,-89.304,12.8,8.3,310,10,17,10+,29.92,1013.2,,TRUE,TRUE,TRUE,,,,,,BKN,6000,,,,,,,VFR,,,,,,,,,,,,METAR,261
KWWD 050056Z AUTO 08010G15KT 10SM FEW010 SCT032 OVC055 11/09 A3027 RMK AO2 SLP252 T01060089,KWWD,2024-05-05T00:56:00Z,39.0108,-74.9079,10.6,8.9,80,10,15,10+,30.27,1025.2,,TRUE,TRUE,,,,,,,FEW,1000,SCT,3200,OVC,5500,,,VFR,,,,,,,,,,,,METAR,4
KWVL 050056Z AUTO 00000KT 10SM OVC044 11/07 A3037 RMK AO2 SLP313 T01060067,KWVL,2024-05-05T00:56:00Z,44.5301,-69.6753,10.6,6.7,0,0,,10+,30.37,1031.3,,TRUE,TRUE,,,,,,,OVC,4400,,,,,,,VFR,,,,,,,,,,,,METAR,87
KWJF 050056Z 23020G30KT 10SM CLR 14/06 A2983 RMK AO2 PK WND 24036/0003 SLP096 T01440061,KWJF,2024-05-05T00:56:00Z,34.7412,-118.213,14.4,6.1,230,20,30,10+,29.83,1009.6,,,TRUE,,,,,,,CLR,,,,,,,,VFR,,,,,,,,,,,,METAR,712
KVPZ 050056Z AUTO 19003KT 10SM CLR 24/13 A2983 RMK AO2 LTG DSNT W-N SLP098 T02390133,KVPZ,2024-05-05T00:56:00Z,41.4535,-86.998,23.9,13.3,190,3,,10+,29.83,1009.8,,TRUE,TRUE,,,,,,,CLR,,,,,,,,VFR,,,,,,,,,,,,METAR,235
KVIS 050056Z AUTO 20004KT 10SM RA OVC047 14/12 A2986 RMK AO2 SLP119 P0005 T01440122,KVIS,2024-05-05T00:56:00Z,36.3135,-119.388,14.4,12.2,200,4,,10+,29.86,1011.9,,TRUE,TRUE,,,,,,RA,OVC,4700,,,,,,,VFR,,,,,,0.05,,,,,,METAR,92
KVBT 050056Z AUTO 00000KT 10SM FEW050 21/19 A2998 RMK AO2 SLP147 T02060194 $,KVBT,2024-05-05T00:56:00Z,36.3444,-94.2211,20.6,19.4,0,0,,10+,29.98,1014.7,,TRUE,TRUE,TRUE,,,,,,FEW,5000,,,,,,,VFR,,,,,,,,,,,,METAR,390
KUKI 050056Z AUTO VRB05KT 10SM FEW025 SCT038 BKN047 11/06 A2981 RMK AO2 RAE48 SLP090 P0004 T01110061,KUKI,2024-05-05T00:56:00Z,39.1278,-123.2,11.1,6.1,VRB,5,,10+,29.81,1009,,TRUE,TRUE,,,,,,,FEW,2500,SCT,3800,BKN,4700,,,VFR,,,,,,0.04,,,,,,METAR,183
KUDG 050056Z AUTO 12004KT 10SM 21/19 A3008 RMK AO2 SLP186 T02060194 $,KUDG,2024-05-05T00:56:00Z,34.4474,-79.8902,20.6,19.4,120,4,,10+,30.08,1018.6,,TRUE,TRUE,TRUE,,,,,,,,,,,,,,VFR,,,,,,,,,,,,METAR,57
KUCP 050056Z AUTO VRB06KT 10SM OVC009 13/13 A3003 RMK AO2 SLP183 T01330133,KUCP,2024-05-05T00:56:00Z,41.0228,-80.4153,13.3,13.3,VRB,6,,10+,30.03,1018.3,,TRUE,TRUE,,,,,,,OVC,900,,,,,,,IFR,,,,,,,,,,,,METAR,313
KTVF 050056Z AUTO 34006KT 10SM CLR 11/05 A3001 RMK AO2 SLP170 T01060050,KTVF,2024-05-05T00:56:00Z,48.0597,-96.1787,10.6,5,340,6,,10+,30.01,1017,,TRUE,TRUE,,,,,,,CLR,,,,,,,,VFR,,,,,,,,,,,,METAR,339
KTPH 050056Z AUTO 19028G40KT 8SM SCT034 BKN110 17/M04 A2953 RMK AO2 PK WND 19043/0002 SLP965 T01721044 $,KTPH,2024-05-05T00:56:00Z,38.0505,-117.091,17.2,-4.4,190,28,40,8,29.53,996.5,,TRUE,TRUE,TRUE,,,,,,SCT,3400,BKN,11000,,,,,VFR,,,,,,,,,,,,METAR,1647
KSRC 050056Z AUTO 21003KT 10SM CLR 22/20 A2996 RMK AO2 SLP144 T02170200 PNO $,KSRC,2024-05-05T00:56:00Z,35.2134,-91.7393,21.7,20,210,3,,10+,29.96,1014.4,,TRUE,TRUE,TRUE,,,,,,CLR,,,,,,,,VFR,,,,,,,,,,,,METAR,80
KSOP 050056Z AUTO 10003KT 10SM SCT090 OVC110 19/19 A3010 RMK AO2 SLP195 T01940194,KSOP,2024-05-05T00:56:00Z,35.2371,-79.3921,19.4,19.4,100,3,,10+,30.10,1019.5,,TRUE,TRUE,,,,,,,SCT,9000,OVC,11000,,,,,VFR,,,,,,,,,,,,METAR,135
KSMP 050056Z AUTO 00000KT 1/4SM FG VV002 06/04 A2955 RMK AO2 SLP014 T00560044,KSMP,2024-05-05T00:56:00Z,47.2764,-121.338,5.6,4.4,0,0,,0.25,29.55,1001.4,,TRUE,TRUE,,,,,,FG,OVX,0,,,,,,,LIFR,,,,,,,,,,,200,METAR,1206
KSMN 050056Z AUTO 27004KT 10SM FEW100 19/M01 A2953 RMK AO2 SLP993 T01891011,KSMN,2024-05-05T00:56:00Z,45.1283,-113.883,18.9,-1.1,270,4,,10+,29.53,999.3,,TRUE,TRUE,,,,,,,FEW,10000,,,,,,,VFR,,,,,,,,,,,,METAR,1228
KSLG 050056Z AUTO 00000KT 10SM CLR 20/20 A2997 RMK AO2 SLP138 T02000200,KSLG,2024-05-05T00:56:00Z,36.1941,-94.488,20,20,0,0,,10+,29.97,1013.8,,TRUE,TRUE,,,,,,,CLR,,,,,,,,VFR,,,,,,,,,,,,METAR,361
KSLE 050056Z 27003KT 4SM -RA BR BKN011 OVC050 09/07 A2967 RMK AO2 SLPNO P0004 T00890067 $,KSLE,2024-05-05T00:56:00Z,44.9049,-123.001,8.9,6.7,270,3,,4,29.67,,,,TRUE,TRUE,,,,,-RA BR,BKN,1100,OVC,5000,,,,,MVFR,,,,,,0.04,,,,,,METAR,63
KSKX 050056Z AUTO 31013G17KT 10SM OVC100 16/M02 A3004 RMK AO2 SLP134 T01561022,KSKX,2024-05-05T00:56:00Z,36.4584,-105.675,15.6,-2.2,310,13,17,10+,30.04,1013.4,,TRUE,TRUE,,,,,,,OVC,10000,,,,,,,VFR,,,,,,,,,,,,METAR,2163
KSHV 050056Z 13005KT 10SM FEW045 FEW110 SCT190 BKN270 27/18 A2991 RMK SLPNO,KSHV,2024-05-05T00:56:00Z,32.4473,-93.8244,27,18,130,5,,10+,29.91,,,,,,,,,,,FEW,4500,FEW,11000,SCT,19000,BKN,27000,VFR,,,,,,,,,,,,METAR,70
KSGU 050056Z AUTO 23025G32KT 10SM CLR 27/M02 A2960 RMK AO2 PK WND 21032/0052 SLP995 T02721017,KSGU,2024-05-05T00:56:00Z,37.0444,-113.503,27.2,-1.7,230,25,32,10+,29.60,999.5,,TRUE,TRUE,,,,,,,CLR,,,,,,,,VFR,,,,,,,,,,,,METAR,877
KSGT 050056Z AUTO 26006KT CLR 22/21 A2997 RMK AO2 SLP147 T02170206 PWINO RVRNO $,KSGT,2024-05-05T00:56:00Z,34.5998,-91.5763,21.7,20.6,260,6,,,29.97,1014.7,,TRUE,TRUE,TRUE,,,,TRUE,,CLR,,,,,,,,,,,,,,,,,,,,METAR,67
KSGJ 050056Z AUTO 16008G15KT 140V230 10SM CLR 24/19 A3005 RMK AO2 SLP174 T02390194,KSGJ,2024-05-05T00:56:00Z,29.9592,-81.341,23.9,19.4,160,8,15,10+,30.05,1017.4,,TRUE,TRUE,,,,,,,CLR,,,,,,,,VFR,,,,,,,,,,,,METAR,2
KSGH 050056Z AUTO 17006KT 10SM CLR 19/18 A2990 RMK AO2 SLP123 T01940183,KSGH,2024-05-05T00:56:00Z,39.8358,-83.8443,19.4,18.3,170,6,,10+,29.90,1012.3,,TRUE,TRUE,,,,,,,CLR,,,,,,,,VFR,,,,,,,,,,,,METAR,318
KSFZ 050056Z AUTO 11006KT 10SM CLR 08/06 A3036 RMK AO2 SLP283 T00830061 $,KSFZ,2024-05-05T00:56:00Z,41.9168,-71.4924,8.3,6.1,110,6,,10+,30.36,1028.3,,TRUE,TRUE,TRUE,,,,,,CLR,,,,,,,,VFR,,,,,,,,,,,,METAR,129
KSFO 050056Z 26013KT 10SM FEW006 FEW024 SCT080 12/07 A2986 RMK AO2 PK WND 27029/0009 RAB10E29 SLP111 P0000 T01220067 $,KSFO,2024-05-05T00:56:00Z,37.6196,-122.366,12.2,6.7,260,13,,10+,29.86,1011.1,,,TRUE,TRUE,,,,,,FEW,600,FEW,2400,SCT,8000,,,VFR,,,,,,0.005,,,,,,METAR,2
KSFM 050056Z AUTO VRB03KT 10SM BKN010 OVC037 08/06 A3040 RMK AO2 SLP298 T00780061 PNO $,KSFM,2024-05-05T00:56:00Z,43.3876,-70.7154,7.8,6.1,VRB,3,,10+,30.40,1029.8,,TRUE,TRUE,TRUE,,,,,,BKN,1000,OVC,3700,,,,,MVFR,,,,,,,,,,,,METAR,70
KSDY 050056Z AUTO 11008KT 10SM CLR 15/M02 A2993 RMK AO2 SLP150 T01501022,KSDY,2024-05-05T00:56:00Z,47.7029,-104.195,15,-2.2,110,8,,10+,29.93,1015,,TRUE,TRUE,,,,,,,CLR,,,,,,,,VFR,,,,,,,,,,,,METAR,600
KSDF 050056Z 15008KT 10SM FEW049 FEW060 FEW250 23/17 A2990 RMK AO2 SLP122 T02330172,KSDF,2024-05-05T00:56:00Z,38.1774,-85.7308,23.3,17.2,150,8,,10+,29.90,1012.2,,,TRUE,,,,,,,FEW,4900,FEW,6000,FEW,25000,,,VFR,,,,,,,,,,,,METAR,146
KSBP 050056Z 31020G27KT 3/4SM +RA BKN008 OVC013 12/09 A2989 RMK AO2 PK WND 31027/0054 SLP120 P0007 T01220094,KSBP,2024-05-05T00:56:00Z,35.2382,-120.644,12.2,9.4,310,20,27,0.75,29.89,1012,,,TRUE,,,,,,+RA,BKN,800,OVC,1300,,,,,LIFR,,,,,,0.07,,,,,,METAR,52
KRUT 050056Z AUTO 11015G20KT 10SM FEW120 14/07 A3027 RMK AO2 SLP245 T01390067 $,KRUT,2024-05-05T00:56:00Z,43.53,-72.9517,13.9,6.7,110,15,20,10+,30.27,1024.5,,TRUE,TRUE,TRUE,,,,,,FEW,12000,,,,,,,VFR,,,,,,,,,,,,METAR,238
KRKD 050056Z AUTO 00000KT 10SM BKN044 08/06 A3041 RMK AO2 SLP297 T00780061,KRKD,2024-05-05T00:56:00Z,44.0611,-69.1014,7.8,6.1,0,0,,10+,30.41,1029.7,,TRUE,TRUE,,,,,,,BKN,4400,,,,,,,VFR,,,,,,,,,,,,METAR,15
KPWT 050056Z AUTO 24003KT 10SM -RA CLR 12/11 A2958 RMK AO2 SLP019 P0004 T01220111,KPWT,2024-05-05T00:56:00Z,47.4942,-122.759,12.2,11.1,240,3,,10+,29.58,1001.9,,TRUE,TRUE,,,,,,-RA,CLR,,,,,,,,VFR,,,,,,0.04,,,,,,METAR,143
KPWG 050056Z AUTO 07006KT 10SM 23/22 A2985 RMK AO2 SLP103 T02330217 $,KPWG,2024-05-05T00:56:00Z,31.4891,-97.3202,23.3,21.7,70,6,,10+,29.85,1010.3,,TRUE,TRUE,TRUE,,,,,,,,,,,,,,VFR,,,,,,,,,,,,METAR,178
KPWC 050056Z AUTO 35004KT 10SM SCT060 14/04 A3001 RMK AO2,KPWC,2024-05-05T00:56:00Z,46.7266,-94.3849,14,4,350,4,,10+,30.01,,,TRUE,TRUE,,,,,,,SCT,6000,,,,,,,VFR,,,,,,,,,,,,METAR,394
KPVU 050056Z AUTO 15011KT 10SM FEW120 22/02 A2960 RMK AO2 SLP988 T02170017,KPVU,2024-05-05T00:56:00Z,40.224,-111.725,21.7,1.7,150,11,,10+,29.60,998.8,,TRUE,TRUE,,,,,,,FEW,12000,,,,,,,VFR,,,,,,,,,,,,METAR,1370
KPVG 050056Z AUTO 08003KT 10SM BKN041 BKN048 OVC055 17/16 A3016 RMK AO2 SLP214 T01720156 PNO $,KPVG,2024-05-05T00:56:00Z,36.7824,-76.452,17.2,15.6,80,3,,10+,30.16,1021.4,,TRUE,TRUE,TRUE,,,,,,BKN,4100,BKN,4800,OVC,5500,,,VFR,,,,,,,,,,,,METAR,7
KPVC 050056Z AUTO 09009KT 10SM BKN008 OVC031 08/07 A3039 RMK AO2 SLP291 T00830072,KPVC,2024-05-05T00:56:00Z,42.0743,-70.2183,8.3,7.2,90,9,,10+,30.39,1029.1,,TRUE,TRUE,,,,,,,BKN,800,OVC,3100,,,,,IFR,,,,,,,,,,,,METAR,1
KPTV 050056Z AUTO 08005KT 8SM -RA BKN060 OVC070 14/12 A2986 RMK AO2 SLP112 P0007 T01440122,KPTV,2024-05-05T00:56:00Z,36.0274,-119.063,14.4,12.2,80,5,,8,29.86,1011.2,,TRUE,TRUE,,,,,,-RA,BKN,6000,OVC,7000,,,,,VFR,,,,,,0.07,,,,,,METAR,132
KPTN 050056Z AUTO 16004KT 10SM CLR 24/22 A2997 RMK AO2 SLP150 T02440222 $,KPTN,2024-05-05T00:56:00Z,29.71,-91.3381,24.4,22.2,160,4,,10+,29.97,1015,,TRUE,TRUE,TRUE,,,,,,CLR,,,,,,,,VFR,,,,,,,,,,,,METAR,2
KPRX 050056Z AUTO 13005KT 10SM FEW060 24/20 A2994 RMK AO2 SLP136 T02440200,KPRX,2024-05-05T00:56:00Z,33.6359,-95.4514,24.4,20,130,5,,10+,29.94,1013.6,,TRUE,TRUE,,,,,,,FEW,6000,,,,,,,VFR,,,,,,,,,,,,METAR,165
KPQI 050056Z AUTO 19003KT 10SM OVC050 12/06 A3038 RMK AO2 SLP316 T01170056,KPQI,2024-05-05T00:56:00Z,46.697,-68.054,11.7,5.6,190,3,,10+,30.38,1031.6,,TRUE,TRUE,,,,,,,OVC,5000,,,,,,,VFR,,,,,,,,,,,,METAR,154
KPIB 050056Z AUTO 00000KT 10SM CLR 24/21 A2999 RMK AO2 SLP154 T02440206 $,KPIB,2024-05-05T00:56:00Z,31.4727,-89.3383,24.4,20.6,0,0,,10+,29.99,1015.4,,TRUE,TRUE,TRUE,,,,,,CLR,,,,,,,,VFR,,,,,,,,,,,,METAR,91
KPHN 050056Z AUTO 15006KT 10SM OVC055 18/15 A2992 RMK AO2,KPHN,2024-05-05T00:56:00Z,42.9103,-82.5332,18,15,150,6,,10+,29.92,,,TRUE,TRUE,,,,,,,OVC,5500,,,,,,,VFR,,,,,,,,,,,,METAR,195
KP60 050056Z AUTO 00000KT 08/M06 A2984 RMK AO1 SLP106 T00781056,KP60,2024-05-05T00:56:00Z,44.5448,-110.422,7.8,-5.6,0,0,,,29.84,1010.6,,TRUE,TRUE,,,,,,,,,,,,,,,,,,,,,,,,,,,METAR,2377
KP53 050056Z AUTO VRB05KT 07/05 A2985 RMK AO1 SLP110 P0021 T00720050 $,KP53,2024-05-05T00:56:00Z,46.412,-86.6504,7.2,5,VRB,5,,,29.85,1011,,TRUE,TRUE,TRUE,,,,,,,,,,,,,,,,,,,,0.21,,,,,,METAR,185
KP28 050056Z AUTO 07006KT 18/10 A3001 RMK AO1 SLP156 T01780100 $,KP28,2024-05-05T00:56:00Z,37.2664,-98.5463,17.8,10,70,6,,,30.01,1015.6,,TRUE,TRUE,TRUE,,,,,,,,,,,,,,,,,,,,,,,,,,METAR,469
KOWB 050056Z 18006KT 10SM SCT050 23/21 A2991 RMK AO2 SLP128 T02330206,KOWB,2024-05-05T00:56:00Z,37.7297,-87.1683,23.3,20.6,180,6,,10+,29.91,1012.8,,,TRUE,,,,,,,SCT,5000,,,,,,,VFR,,,,,,,,,,,,METAR,121
KOTH 050056Z 30015G21KT 10SM FEW028 11/07 A2978 RMK AO2 RAB2358E20 SLP085 P0001 T01110067,KOTH,2024-05-05T00:56:00Z,43.4194,-124.244,11.1,6.7,300,15,21,10+,29.78,1008.5,,,TRUE,,,,,,,FEW,2800,,,,,,,VFR,,,,,,0.01,,,,,,METAR,3
KOTG 050056Z AUTO 33007KT 10SM FEW060 12/05 A3005 RMK AO2 SLP186 T01220050,KOTG,2024-05-05T00:56:00Z,43.6525,-95.5759,12.2,5,330,7,,10+,30.05,1018.6,,TRUE,TRUE,,,,,,,FEW,6000,,,,,,,VFR,,,,,,,,,,,,METAR,478
KOLU 050056Z AUTO 01005KT 10SM CLR 14/06 A3008 RMK AO2 SLP192 T01390061,KOLU,2024-05-05T00:56:00Z,41.4472,-97.3391,13.9,6.1,10,5,,10+,30.08,1019.2,,TRUE,TRUE,,,,,,,CLR,,,,,,,,VFR,,,,,,,,,,,,METAR,438
KOKK 050056Z AUTO 14004KT 10SM CLR 22/17 A2988 RMK AO2 SLP113 T02220167,KOKK,2024-05-05T00:56:00Z,40.5304,-86.055,22.2,16.7,140,4,,10+,29.88,1011.3,,TRUE,TRUE,,,,,,,CLR,,,,,,,,VFR,,,,,,,,,,,,METAR,251
KOFK 050056Z AUTO 08003KT 10SM BKN055 14/03 A3006 RMK AO2 SLP183 T01440033,KOFK,2024-05-05T00:56:00Z,41.9799,-97.4335,14.4,3.3,80,3,,10+,30.06,1018.3,,TRUE,TRUE,,,,,,,BKN,5500,,,,,,,VFR,,,,,,,,,,,,METAR,476
KOCH 050056Z AUTO 12004KT 10SM CLR 23/22 A2994 RMK AO2 SLP140 T02330217,KOCH,2024-05-05T00:56:00Z,31.5809,-94.7081,23.3,21.7,120,4,,10+,29.94,1014,,TRUE,TRUE,,,,,,,CLR,,,,,,,,VFR,,,,,,,,,,,,METAR,105
KOAJ 050056Z 00000KT 10SM CLR 22/19 A3011 RMK AO2 SLP199 T02170189 $,KOAJ,2024-05-05T00:56:00Z,34.8251,-77.6189,21.7,18.9,0,0,,10+,30.11,1019.9,,,TRUE,TRUE,,,,,,CLR,,,,,,,,VFR,,,,,,,,,,,,METAR,26
KNYG 050056Z AUTO 06009KT 3SM BR OVC007 13/ A3022 RMK AO2 SLP234 T0133 $,KNYG,2024-05-05T00:56:00Z,38.503,-77.301,13.3,,60,9,,3,30.22,1023.4,,TRUE,TRUE,TRUE,,,,,BR,OVC,700,,,,,,,IFR,,,,,,,,,,,,METAR,2
KNXP 050056Z AUTO 23022G34KT 10SM CLR 24/M06 A2976 RMK AO2 PK WND 21044/0002 SLP049 T02441061,KNXP,2024-05-05T00:56:00Z,34.294,-116.147,24.4,-6.1,230,22,34,10+,29.76,1004.9,,TRUE,TRUE,,,,,,,CLR,,,,,,,,VFR,,,,,,,,,,,,METAR,610
KNUC 050056Z AUTO 31011KT 10SM BKN012 16/ A2994 RMK AO2 SLP138 T0156 $,KNUC,2024-05-05T00:56:00Z,33.022,-118.583,15.6,,310,11,,10+,29.94,1013.8,,TRUE,TRUE,TRUE,,,,,,BKN,1200,,,,,,,MVFR,,,,,,,,,,,,METAR,52
KNTU 050056Z 10005KT 10SM BKN250 BKN300 17/15 A3016 RMK AO2 SLP214 T01670150,KNTU,2024-05-05T00:56:00Z,36.8209,-76.0277,16.7,15,100,5,,10+,30.16,1021.4,,,TRUE,,,,,,,BKN,25000,BKN,30000,,,,,VFR,,,,,,,,,,,,METAR,6
KNSE 050056Z AUTO 23003KT 10SM CLR 24/19 A3000 RMK AO2 SLP142 T02390194 $,KNSE,2024-05-05T00:56:00Z,30.728,-87.022,23.9,19.4,230,3,,10+,30.00,1014.2,,TRUE,TRUE,TRUE,,,,,,CLR,,,,,,,,VFR,,,,,,,,,,,,METAR,56
KNQI 050056Z AUTO 13010G19KT 10SM FEW026 SCT033 28/23 A2978 RMK AO2 SLP080 T02780228 $,KNQI,2024-05-05T00:56:00Z,27.507,-97.81,27.8,22.8,130,10,19,10+,29.78,1008,,TRUE,TRUE,TRUE,,,,,,FEW,2600,SCT,3300,,,,,VFR,,,,,,,,,,,,METAR,15
KNOG 050056Z AUTO A2980 RMK AO2 SLPNO PWINO $,KNOG,2024-05-05T00:56:00Z,27.895,-98.043,,,,,,,29.80,,,TRUE,TRUE,TRUE,,,,TRUE,,,,,,,,,,,,,,,,,,,,,,METAR,72
KNMM 050056Z AUTO 00000KT 10SM CLR 26/19 A2997 RMK AO2 SLP156 T02560189,KNMM,2024-05-05T00:56:00Z,32.546,-88.543,25.6,18.9,0,0,,10+,29.97,1015.6,,TRUE,TRUE,,,,,,,CLR,,,,,,,,VFR,,,,,,,,,,,,METAR,94
KNKT 050056Z 11003KT 10SM FEW031 21/18 A3012 RMK AO2 SLP197 T02110183,KNKT,2024-05-05T00:56:00Z,34.897,-76.881,21.1,18.3,110,3,,10+,30.12,1019.7,,,TRUE,,,,,,,FEW,3100,,,,,,,VFR,,,,,,,,,,,,METAR,8
KNJK 050056Z AUTO 25024G35KT 10SM -RA 29/09 A2971 RMK AO2 PK WND 25036/0042 SLP075 P0000 T02890089 $,KNJK,2024-05-05T00:56:00Z,32.823,-115.668,28.9,8.9,250,24,35,10+,29.71,1007.5,,TRUE,TRUE,TRUE,,,,,-RA,,,,,,,,,VFR,,,,,,0.005,,,,,,METAR,-15
KNID 050056Z AUTO 24018G28KT 10SM CLR 22/01 A2968 RMK AO2 PK WND 23030/0006 SLP039 T02170006 $,KNID,2024-05-05T00:56:00Z,35.688,-117.69,21.7,0.6,240,18,28,10+,29.68,1003.9,,TRUE,TRUE,TRUE,,,,,,CLR,,,,,,,,VFR,,,,,,,,,,,,METAR,682
KNGP 050056Z AUTO 12015KT 7SM SCT011 28/24 A2980 RMK AO2 SLP090 T02780244 $,KNGP,2024-05-05T00:56:00Z,27.688,-97.292,27.8,24.4,120,15,,7,29.80,1009,,TRUE,TRUE,TRUE,,,,,,SCT,1100,,,,,,,VFR,,,,,,,,,,,,METAR,5
KNFL 050056Z 27036G50KT 5SM BLDU SCT070 BKN090 BKN120 09/M01 A2955 RMK AO2 PK WND 26051/0027 PRESRR SLP995 T00941011,KNFL,2024-05-05T00:56:00Z,39.417,-118.705,9.4,-1.1,270,36,50,5,29.55,999.5,,,TRUE,,,,,,BLDU,SCT,7000,BKN,9000,BKN,12000,,,MVFR,,,,,,,,,,,,METAR,1199
KNDZ 050056Z AUTO 00000KT 10SM CLR 24/19 A3000 RMK AO2 SLP142 T02440194 $,KNDZ,2024-05-05T00:56:00Z,30.6973,-87.0207,24.4,19.4,0,0,,10+,30.00,1014.2,,TRUE,TRUE,TRUE,,,,,,CLR,,,,,,,,VFR,,,,,,,,,,,,METAR,51
KNCA 050056Z AUTO 16005KT 10SM FEW026 22/21 A3010 RMK AO2 SLP195 T02170206,KNCA,2024-05-05T00:56:00Z,34.7062,-77.4406,21.7,20.6,160,5,,10+,30.10,1019.5,,TRUE,TRUE,,,,,,,FEW,2600,,,,,,,VFR,,,,,,,,,,,,METAR,9
KNBC 050056Z AUTO 17003KT 10SM FEW110 24/21 A3006 RMK AO2 SLP178 T02440211 $,KNBC,2024-05-05T00:56:00Z,32.477,-80.722,24.4,21.1,170,3,,10+,30.06,1017.8,,TRUE,TRUE,TRUE,,,,,,FEW,11000,,,,,,,VFR,,,,,,,,,,,,METAR,9
KMYR 050056Z 13008KT 10SM BKN120 23/21 A3010 RMK AO2 SLP191 T02280211,KMYR,2024-05-05T00:56:00Z,33.6769,-78.9325,22.8,21.1,130,8,,10+,30.10,1019.1,,,TRUE,,,,,,,BKN,12000,,,,,,,VFR,,,,,,,,,,,,METAR,7
KMVN 050056Z AUTO 26006KT 4SM +TSRA BR FEW009 BKN028 OVC055 18/17 A2997 RMK AO2 LTG DSNT ALQDS TSB16RAB26 SLP149 P0052 T01780172,KMVN,2024-05-05T00:56:00Z,38.3284,-88.853,17.8,17.2,260,6,,4,29.97,1014.9,,TRUE,TRUE,,,,,,+TSRA BR,FEW,900,BKN,2800,OVC,5500,,,MVFR,,,,,,,,,,,,METAR,145
KMUI 050056Z AUTO 10008KT 6SM -DZ BR OVC007 11/10 A3023 RMK AO2 DZB55 SLP241 $,KMUI,2024-05-05T00:56:00Z,40.4381,-76.5643,11,10,100,8,,6,30.23,1024.1,,TRUE,TRUE,TRUE,,,,,-DZ BR,OVC,700,,,,,,,IFR,,,,,,,,,,,,SPECI,146
KMTW 050056Z AUTO 32006KT 10SM -RA BKN016 OVC022 16/14 A2986 RMK AO2 TSB12E27 SLP111 P0051 T01610144,KMTW,2024-05-05T00:56:00Z,44.1322,-87.6819,16.1,14.4,320,6,,10+,29.86,1011.1,,TRUE,TRUE,,,,,,-RA,BKN,1600,OVC,2200,,,,,MVFR,,,,,,,,,,,,METAR,197
KMTC 050056Z 13008KT 10SM FEW039 BKN060 BKN100 18/16 A2989 RMK AO2A SLP126 T01820163 $,KMTC,2024-05-05T00:56:00Z,42.6045,-82.8353,18.2,16.3,130,8,,10+,29.89,1012.6,,,TRUE,TRUE,,,,,,FEW,3900,BKN,6000,BKN,10000,,,VFR,,,,,,,,,,,,METAR,177
KMRF 050056Z AUTO 02018G23KT 10SM CLR 23/14 A2991 RMK AO2 SLP071 T02330144,KMRF,2024-05-05T00:56:00Z,30.3706,-104.012,23.3,14.4,20,18,23,10+,29.91,1007.1,,TRUE,TRUE,,,,,,,CLR,,,,,,,,VFR,,,,,,,,,,,,METAR,1476
KMQY 050056Z AUTO 16004KT 10SM CLR 20/19 A2997 RMK AO2 SLP153 T02000189,KMQY,2024-05-05T00:56:00Z,36.0029,-86.5144,20,18.9,160,4,,10+,29.97,1015.3,,TRUE,TRUE,,,,,,,CLR,,,,,,,,VFR,,,,,,,,,,,,METAR,156
KMOB 050056Z 19005KT 10SM FEW030 SCT200 24/21 A2999 RMK AO2 SLP153 T02440211,KMOB,2024-05-05T00:56:00Z,30.6882,-88.2459,24.4,21.1,190,5,,10+,29.99,1015.3,,,TRUE,,,,,,,FEW,3000,SCT,20000,,,,,VFR,,,,,,,,,,,,METAR,67
KMKY 050056Z AUTO 30003KT 10SM BKN075 BKN120 26/22 A3001 RMK AO2 SLP161 T02610217 $,KMKY,2024-05-05T00:56:00Z,25.999,-81.674,26.1,21.7,300,3,,10+,30.01,1016.1,,TRUE,TRUE,TRUE,,,,,,BKN,7500,BKN,12000,,,,,VFR,,,,,,,,,,,,METAR,2
KMKT 050056Z AUTO 31007KT 10SM CLR 14/04 A3002 RMK AO2 SLP171 T01440044,KMKT,2024-05-05T00:56:00Z,44.2184,-93.9179,14.4,4.4,310,7,,10+,30.02,1017.1,,TRUE,TRUE,,,,,,,CLR,,,,,,,,VFR,,,,,,,,,,,,METAR,309
KMJX 050056Z AUTO 07004KT 8SM -RA OVC042 09/09 A3032 RMK AO2 SLP271 P0004 T00940089,KMJX,2024-05-05T00:56:00Z,39.9235,-74.297,9.4,8.9,70,4,,8,30.32,1027.1,,TRUE,TRUE,,,,,,-RA,OVC,4200,,,,,,,VFR,,,,,,0.04,,,,,,METAR,22
KMEH 050056Z AUTO 00000KT 10SM BKN041 OVC050 13/03 A2948 RMK AO2 SLP970 T01330033,KMEH,2024-05-05T00:56:00Z,45.512,-118.425,13.3,3.3,0,0,,10+,29.48,997,,TRUE,TRUE,,,,,,,BKN,4100,OVC,5000,,,,,VFR,,,,,,,,,,,,METAR,1138
KMDT 050056Z 13013KT 2 1/2SM -RA BR SCT009 OVC025 11/10 A3023 RMK AO2 SFC VIS 5 SLP239 P0002 T01060100,KMDT,2024-05-05T00:56:00Z,40.1962,-76.7725,10.6,10,130,13,,2.5,30.23,1023.9,,,TRUE,,,,,,-RA BR,SCT,900,OVC,2500,,,,,IFR,,,,,,0.02,,,,,,METAR,91
KMBL 050056Z AUTO VRB03KT 10SM BKN070 BKN080 21/13 A2981 RMK AO2 SLP095 T02060128 PNO $,KMBL,2024-05-05T00:56:00Z,44.2714,-86.2377,20.6,12.8,VRB,3,,10+,29.81,1009.5,,TRUE,TRUE,TRUE,,,,,,BKN,7000,BKN,8000,,,,,VFR,,,,,,,,,,,,METAR,187
KM19 050056Z AUTO 20003KT 10SM CLR 22/18 A2995 RMK AO2 SLP137 T02220178 $,KM19,2024-05-05T00:56:00Z,35.643,-91.1735,22.2,17.8,200,3,,10+,29.95,1013.7,,TRUE,TRUE,TRUE,,,,,,CLR,,,,,,,,VFR,,,,,,,,,,,,METAR,72
KLZU 050056Z AUTO 00000KT 10SM CLR 21/18 A3004 RMK AO2 SLP174 T02110178,KLZU,2024-05-05T00:56:00Z,33.9828,-83.9585,21.1,17.8,0,0,,10+,30.04,1017.4,,TRUE,TRUE,,,,,,,CLR,,,,,,,,VFR,,,,,,,,,,,,METAR,316
KLWS 050056Z 00000KT 10SM FEW120 16/05 A2946 RMK AO2 SLP972 T01610050,KLWS,2024-05-05T00:56:00Z,46.3746,-117.015,16.1,5,0,0,,10+,29.46,997.2,,,TRUE,,,,,,,FEW,12000,,,,,,,VFR,,,,,,,,,,,,METAR,435
KLRD 050056Z 12015G21KT 10SM BKN038 OVC046 29/22 A2973 RMK AO2 SLP065 T02940222,KLRD,2024-05-05T00:56:00Z,27.551,-99.4614,29.4,22.2,120,15,21,10+,29.73,1006.5,,,TRUE,,,,,,,BKN,3800,OVC,4600,,,,,VFR,,,,,,,,,,,,METAR,150
KLNR 050056Z AUTO 33012G21KT 10SM OVC030 14/08 A2994 RMK AO2 SLP135 T01440078,KLNR,2024-05-05T00:56:00Z,43.2111,-90.1874,14.4,7.8,330,12,21,10+,29.94,1013.5,,TRUE,TRUE,,,,,,,OVC,3000,,,,,,,MVFR,,,,,,,,,,,,METAR,218
KLGD 050056Z AUTO 16010KT 10SM -RA CLR 15/04 A2947 RMK AO2 RAB10E20B49 SLP971 P0000 T01500044,KLGD,2024-05-05T00:56:00Z,45.2906,-118.009,15,4.4,160,10,,10+,29.47,997.1,,TRUE,TRUE,,,,,,-RA,CLR,,,,,,,,VFR,,,,,,0.005,,,,,,METAR,827
KLEW 050056Z AUTO 15005KT 10SM BKN110 08/06 A3040 RMK AO2 SLP303 T00780056,KLEW,2024-05-05T00:56:00Z,44.0444,-70.2853,7.8,5.6,150,5,,10+,30.40,1030.3,,TRUE,TRUE,,,,,,,BKN,11000,,,,,,,VFR,,,,,,,,,,,,METAR,81
KLCI 050056Z AUTO 11005KT 10SM OVC037 11/06 A3037 RMK AO2 SLP286 T01060061,KLCI,2024-05-05T00:56:00Z,43.5718,-71.4254,10.6,6.1,110,5,,10+,30.37,1028.6,,TRUE,TRUE,,,,,,,OVC,3700,,,,,,,VFR,,,,,,,,,,,,METAR,166
KLBT 050056Z AUTO 00000KT 10SM FEW042 SCT110 22/21 A3008 RMK AO2 RAB14E29 SLP186 P0001 T02170206,KLBT,2024-05-05T00:56:00Z,34.6082,-79.059,21.7,20.6,0,0,,10+,30.08,1018.6,,TRUE,TRUE,,,,,,,FEW,4200,SCT,11000,,,,,VFR,,,,,,0.01,,,,,,METAR,37
KLBL 050056Z AUTO 10008KT 10SM OVC039 15/09 A3002 RMK AO2 SLP158 T01500094 PNO $,KLBL,2024-05-05T00:56:00Z,37.0375,-100.957,15,9.4,100,8,,10+,30.02,1015.8,,TRUE,TRUE,TRUE,,,,,,OVC,3900,,,,,,,VFR,,,,,,,,,,,,METAR,877
KLAS 050056Z 20016G27KT 10SM BKN150 OVC220 29/M02 A2957 RMK AO2 PK WND 19034/0008 SLP992 T02891017 $,KLAS,2024-05-05T00:56:00Z,36.0719,-115.163,28.9,-1.7,200,16,27,10+,29.57,999.2,,,TRUE,TRUE,,,,,,BKN,15000,OVC,22000,,,,,VFR,,,,,,,,,,,,METAR,662
KKLS 050056Z AUTO VRB05KT 10SM FEW016 BKN032 OVC046 10/08 A2964 RMK AO2 RAE52 SLP042 P0000 T01000078,KKLS,2024-05-05T00:56:00Z,46.118,-122.898,10,7.8,VRB,5,,10+,29.64,1004.2,,TRUE,TRUE,,,,,,,FEW,1600,BKN,3200,OVC,4600,,,VFR,,,,,,0.005,,,,,,METAR,4
KJXN 050056Z 11005KT 10SM CLR 19/16 A2989 RMK AO2 SLP119 T01890161,KJXN,2024-05-05T00:56:00Z,42.259,-84.4589,18.9,16.1,110,5,,10+,29.89,1011.9,,,TRUE,,,,,,,CLR,,,,,,,,VFR,,,,,,,,,,,,METAR,303
KJRB 050056Z AUTO 05010G14KT 040V100 10SM FEW023 OVC060 12/07 A3034 RMK AO2 SLP274 T01170072 PNO $,KJRB,2024-05-05T00:56:00Z,40.701,-74.009,11.7,7.2,50,10,14,10+,30.34,1027.4,,TRUE,TRUE,TRUE,,,,,,FEW,2300,OVC,6000,,,,,VFR,,,,,,,,,,,,METAR,2
KJMS 050056Z AUTO 35005KT 10SM OVC060 13/05 A3000 RMK AO2 SLP164 T01280050,KJMS,2024-05-05T00:56:00Z,46.9259,-98.6704,12.8,5,350,5,,10+,30.00,1016.4,,TRUE,TRUE,,,,,,,OVC,6000,,,,,,,VFR,,,,,,,,,,,,METAR,455
KJHW 050056Z AUTO 17011G17KT 10SM -RA OVC012 10/09 A3007 RMK AO2 RAB39 SLP188 P0000 T01000094,KJHW,2024-05-05T00:56:00Z,42.1534,-79.2542,10,9.4,170,11,17,10+,30.07,1018.8,,TRUE,TRUE,,,,,,-RA,OVC,1200,,,,,,,MVFR,,,,,,0.005,,,,,,METAR,520
KJAX 050056Z 13007KT 10SM FEW040 FEW110 SCT200 BKN250 24/19 A3003 RMK AO2 SLP170 OCNL LTGIC DSNT SW CB DSNT SW T02390189,KJAX,2024-05-05T00:56:00Z,30.4953,-81.6937,23.9,18.9,130,7,,10+,30.03,1017,,,TRUE,,,,,,,FEW,4000,FEW,11000,SCT,20000,BKN,25000,VFR,,,,,,,,,,,,METAR,8
KJAC 050056Z 28007KT 10SM FEW070 13/M02 A2976 RMK AO2 SLP081 T01331017,KJAC,2024-05-05T00:56:00Z,43.6129,-110.737,13.3,-1.7,280,7,,10+,29.76,1008.1,,,TRUE,,,,,,,FEW,7000,,,,,,,VFR,,,,,,,,,,,,METAR,1967
KITH 050056Z 16014G21KT 10SM BKN036 14/07 A3017 RMK AO2 SLP217 T01390067,KITH,2024-05-05T00:56:00Z,42.4931,-76.4569,13.9,6.7,160,14,21,10+,30.17,1021.7,,,TRUE,,,,,,,BKN,3600,,,,,,,VFR,,,,,,,,,,,,METAR,338
KISP 050056Z 10007KT 10SM BKN014 BKN070 OVC150 10/07 A3033 RMK AO2 SLP271 T01000067,KISP,2024-05-05T00:56:00Z,40.7939,-73.1018,10,6.7,100,7,,10+,30.33,1027.1,,,TRUE,,,,,,,BKN,1400,BKN,7000,OVC,15000,,,MVFR,,,,,,,,,,,,METAR,25
KISO 050056Z 17006KT 10SM CLR 23/18 A3012,KISO,2024-05-05T00:56:00Z,35.324,-77.6187,23,18,170,6,,10+,30.12,,,,,,,,,,,CLR,,,,,,,,VFR,,,,,,,,,,,,METAR,27
KISM 050056Z 13009KT 10SM CLR 25/20 A3003 RMK AO2 SLP168 T02500200 $,KISM,2024-05-05T00:56:00Z,28.2924,-81.4371,25,20,130,9,,10+,30.03,1016.8,,,TRUE,TRUE,,,,,,CLR,,,,,,,,VFR,,,,,,,,,,,,METAR,25
KINW 050056Z AUTO 23016G26KT 10SM CLR 24/M04 A2984 RMK AO2 PK WND 21027/0045 SLP056 T02391039,KINW,2024-05-05T00:56:00Z,35.028,-110.722,23.9,-3.9,230,16,26,10+,29.84,1005.6,,TRUE,TRUE,,,,,,,CLR,,,,,,,,VFR,,,,,,,,,,,,METAR,1492
KI69 050056Z AUTO 00000KT 10SM SCT100 21/19 A2992 RMK AO1 T02100188,KI69,2024-05-05T00:56:00Z,39.078,-84.21,21,18.8,0,0,,10+,29.92,,,TRUE,TRUE,,,,,,,SCT,10000,,,,,,,VFR,,,,,,,,,,,,METAR,238
KHYS 050056Z AUTO 09008KT 10SM CLR 15/06 A3005 RMK AO2 SLP176 T01500056 PNO $,KHYS,2024-05-05T00:56:00Z,38.8392,-99.2742,15,5.6,90,8,,10+,30.05,1017.6,,TRUE,TRUE,TRUE,,,,,,CLR,,,,,,,,VFR,,,,,,,,,,,,METAR,607
KHYI 050056Z 14011KT 10SM CLR 26/21 A2982 RMK AO2 SLP090 T02560206,KHYI,2024-05-05T00:56:00Z,29.8958,-97.8664,25.6,20.6,140,11,,10+,29.82,1009,,,TRUE,,,,,,,CLR,,,,,,,,VFR,,,,,,,,,,,,METAR,180
KHYA 050056Z 07005KT 10SM OVC012 08/06 A3036 RMK AO2 SLP281 T00830056,KHYA,2024-05-05T00:56:00Z,41.6719,-70.2697,8.3,5.6,70,5,,10+,30.36,1028.1,,,TRUE,,,,,,,OVC,1200,,,,,,,MVFR,,,,,,,,,,,,METAR,11
KHWV 050056Z AUTO VRB04KT 10SM OVC013 10/06 A3035 RMK AO2 SLP276 T01000061,KHWV,2024-05-05T00:56:00Z,40.8212,-72.8674,10,6.1,VRB,4,,10+,30.35,1027.6,,TRUE,TRUE,,,,,,,OVC,1300,,,,,,,MVFR,,,,,,,,,,,,METAR,20
KHPN 050056Z 12008KT 10SM -RA BKN060 BKN095 OVC110 11/06 A3032 RMK AO2 RAB48 SLP267 P0000 T01060061,KHPN,2024-05-05T00:56:00Z,41.0624,-73.7046,10.6,6.1,120,8,,10+,30.32,1026.7,,,TRUE,,,,,,-RA,BKN,6000,BKN,9500,OVC,11000,,,VFR,,,,,,0.005,,,,,,METAR,113
KHND 050056Z 20028G34KT 10SM CLR 27/M02 A2960 RMK AO2 PK WND 21034/0056 SLP016 T02721017,KHND,2024-05-05T00:56:00Z,35.9658,-115.134,27.2,-1.7,200,28,34,10+,29.60,1001.6,,,TRUE,,,,,,,CLR,,,,,,,,VFR,,,,,,,,,,,,METAR,740
KHNB 050056Z AUTO 16007KT SCT060 23/18 A2991 RMK AO2 SLP126 T02330183 PWINO $,KHNB,2024-05-05T00:56:00Z,38.2505,-86.9473,23.3,18.3,160,7,,,29.91,1012.6,,TRUE,TRUE,TRUE,,,,TRUE,,SCT,6000,,,,,,,,,,,,,,,,,,,METAR,159
KHEZ 050056Z AUTO 00000KT 10SM CLR 24/21 A2997 RMK AO2 SLP147 T02440211,KHEZ,2024-05-05T00:56:00Z,31.6159,-91.2973,24.4,21.1,0,0,,10+,29.97,1014.7,,TRUE,TRUE,,,,,,,CLR,,,,,,,,VFR,,,,,,,,,,,,METAR,82
KHEF 050056Z 09006KT 4SM -RA OVC006 12/12 A3022 RMK AO2 CIG 005V011 SLP238 P0000 T01170117,KHEF,2024-05-05T00:56:00Z,38.724,-77.5175,11.7,11.7,90,6,,4,30.22,1023.8,,,TRUE,,,,,,-RA,OVC,600,,,,,,,IFR,,,,,,0.005,,,,,,METAR,53
KHDN 050056Z AUTO 06004KT 10SM CLR 17/M03 A2987 RMK AO2 SLP084 T01721033,KHDN,2024-05-05T00:56:00Z,40.4842,-107.23,17.2,-3.3,60,4,,10+,29.87,1008.4,,TRUE,TRUE,,,,,,,CLR,,,,,,,,VFR,,,,,,,,,,,,METAR,2012
KGXY 050056Z 14014G21KT 10SM CLR 18/M02 A2993 RMK AO2 SLP131 T01781017,KGXY,2024-05-05T00:56:00Z,40.4345,-104.63,17.8,-1.7,140,14,21,10+,29.93,1013.1,,,TRUE,,,,,,,CLR,,,,,,,,VFR,,,,,,,,,,,,METAR,1420
KGVQ 050056Z AUTO 15008G16KT 10SM OVC085 16/09 A3007 RMK AO2 SLP183 T01560094,KGVQ,2024-05-05T00:56:00Z,43.0298,-78.1665,15.6,9.4,150,8,16,10+,30.07,1018.3,,TRUE,TRUE,,,,,,,OVC,8500,,,,,,,VFR,,,,,,,,,,,,METAR,279
KGUC 050056Z AUTO 10011KT 10SM CLR 13/00 A2998 RMK AO2 SLP122 T01330000,KGUC,2024-05-05T00:56:00Z,38.5322,-106.942,13.3,0,100,11,,10+,29.98,1012.2,,TRUE,TRUE,,,,,,,CLR,,,,,,,,VFR,,,,,,,,,,,,METAR,2337
KGTU 050056Z 09005KT 9SM BKN036 OVC047 23/22 A2983 RMK AO2 RAE36 SLP097 P0001 T02280222,KGTU,2024-05-05T00:56:00Z,30.6809,-97.6767,22.8,22.2,90,5,,9,29.83,1009.7,,,TRUE,,,,,,,BKN,3600,OVC,4700,,,,,VFR,,,,,,0.01,,,,,,METAR,232
KGTR 050056Z AUTO 00000KT 10SM CLR 25/20 A2997 RMK AO2 SLP155 T02500200,KGTR,2024-05-05T00:56:00Z,33.456,-88.593,25,20,0,0,,10+,29.97,1015.5,,TRUE,TRUE,,,,,,,CLR,,,,,,,,VFR,,,,,,,,,,,,METAR,80
KGRD 050056Z AUTO 26008KT 2 1/2SM VCTS RA BR FEW009 OVC050 19/19 A3008 RMK AO2 LTG DSNT N AND S RAB14 SLP179 P0008 T01940189,KGRD,2024-05-05T00:56:00Z,34.2539,-82.1526,19.4,18.9,260,8,,2.5,30.08,1017.9,,TRUE,TRUE,,,,,,VCTS RA BR,FEW,900,OVC,5000,,,,,IFR,,,,,,0.08,,,,,,METAR,188
KGPZ 050056Z AUTO 30008KT 10SM CLR 12/02 A2998 RMK AO2 SLP163 T01220022,KGPZ,2024-05-05T00:56:00Z,47.2029,-93.5071,12.2,2.2,300,8,,10+,29.98,1016.3,,TRUE,TRUE,,,,,,,CLR,,,,,,,,VFR,,,,,,,,,,,,METAR,410
KGON 050056Z 11010KT 10SM CLR 10/08 A3035 RMK AO2 SLP276 T01000078,KGON,2024-05-05T00:56:00Z,41.3279,-72.0489,10,7.8,110,10,,10+,30.35,1027.6,,,TRUE,,,,,,,CLR,,,,,,,,VFR,,,,,,,,,,,,METAR,2
KGNR 050056Z AUTO 15003KT 12/07 A3032 RMK AO1 SLP276 T01170067,KGNR,2024-05-05T00:56:00Z,45.4649,-69.5543,11.7,6.7,150,3,,,30.32,1027.6,,TRUE,TRUE,,,,,,,,,,,,,,,,,,,,,,,,,,,METAR,426
KGNA 050056Z AUTO 28003KT 04/03 A2993 RMK AO1 SLP141 T00440033,KGNA,2024-05-05T00:56:00Z,47.745,-90.346,4.4,3.3,280,3,,,29.93,1014.1,,TRUE,TRUE,,,,,,,,,,,,,,,,,,,,,,,,,,,METAR,186
KGDV 050056Z AUTO 12003KT 10SM CLR 14/M04 A2992 RMK AO2 SLP144 T01391044 TSNO,KGDV,2024-05-05T00:56:00Z,47.14,-104.813,13.9,-4.4,120,3,,10+,29.92,1014.4,,TRUE,TRUE,,,TRUE,,,,CLR,,,,,,,,VFR,,,,,,,,,,,,METAR,749
KGBD 050056Z AUTO 07008KT 10SM CLR 16/06 A3004 RMK AO2 SLP171 T01610056,KGBD,2024-05-05T00:56:00Z,38.3405,-98.8592,16.1,5.6,70,8,,10+,30.04,1017.1,,TRUE,TRUE,,,,,,,CLR,,,,,,,,VFR,,,,,,,,,,,,METAR,573
KGAI 050056Z AUTO VRB05KT 3SM -RA BR OVC006 10/10 A3023 RMK AO2 RAE21B49 SLP252 P0000 T01000100,KGAI,2024-05-05T00:56:00Z,39.1696,-77.1653,10,10,VRB,5,,3,30.23,1025.2,,TRUE,TRUE,,,,,,-RA BR,OVC,600,,,,,,,IFR,,,,,,0.005,,,,,,METAR,151
KGAD 050056Z AUTO 25003KT 10SM CLR 24/22 A2998 RMK AO2 SLP151 T02390217 $,KGAD,2024-05-05T00:56:00Z,33.9686,-86.0917,23.9,21.7,250,3,,10+,29.98,1015.1,,TRUE,TRUE,TRUE,,,,,,CLR,,,,,,,,VFR,,,,,,,,,,,,METAR,169
KFSD 050056Z 04003KT 10SM FEW060 14/03 A3005 RMK AO2 SLP180 T01390033,KFSD,2024-05-05T00:56:00Z,43.5775,-96.7539,13.9,3.3,40,3,,10+,30.05,1018,,,TRUE,,,,,,,FEW,6000,,,,,,,VFR,,,,,,,,,,,,METAR,433
KFRM 050056Z AUTO 31005KT 7SM CLR 13/06 A3004 RMK AO2 SLP178 T01330056,KFRM,2024-05-05T00:56:00Z,43.6455,-94.4168,13.3,5.6,310,5,,7,30.04,1017.8,,TRUE,TRUE,,,,,,,CLR,,,,,,,,VFR,,,,,,,,,,,,METAR,353
KFOD 050056Z AUTO 35004KT 10SM CLR 14/06 A3005 RMK AO2 SLP190 T01390061,KFOD,2024-05-05T00:56:00Z,42.549,-94.182,13.9,6.1,350,4,,10+,30.05,1019,,TRUE,TRUE,,,,,,,CLR,,,,,,,,VFR,,,,,,,,,,,,METAR,347
KFNL 050056Z AUTO 31003KT 10SM CLR 16/02 A2993 RMK AO2 SLP112 T01610022 $,KFNL,2024-05-05T00:56:00Z,40.4427,-105.01,16.1,2.2,310,3,,10+,29.93,1011.2,,TRUE,TRUE,TRUE,,,,,,CLR,,,,,,,,VFR,,,,,,,,,,,,METAR,1529
KFMH 050056Z 07011KT 10SM BKN012 OVC027 08/06 A3037,KFMH,2024-05-05T00:56:00Z,41.6608,-70.5221,8,6,70,11,,10+,30.37,,,,,,,,,,,BKN,1200,OVC,2700,,,,,MVFR,,,,,,,,,,,,METAR,35
KFLP 050056Z AUTO 00000KT 10SM CLR 19/17 A2997 RMK AO2 RAE16 SLP142 P0000 T01940172 $,KFLP,2024-05-05T00:56:00Z,36.2925,-92.5851,19.4,17.2,0,0,,10+,29.97,1014.2,,TRUE,TRUE,TRUE,,,,,,CLR,,,,,,,,VFR,,,,,,0.005,,,,,,METAR,215
KFKL 050056Z AUTO 12011KT 10SM -RA OVC006 11/ A3007 RMK AO2 SLP182 P0001 T0106,KFKL,2024-05-05T00:56:00Z,41.3806,-79.8603,10.6,,120,11,,10+,30.07,1018.2,,TRUE,TRUE,,,,,,-RA,OVC,600,,,,,,,IFR,,,,,,0.01,,,,,,METAR,468
KFCI 050056Z AUTO 07005KT 3SM BR OVC004 14/ A3016 RMK AO2 SLP225 T0144,KFCI,2024-05-05T00:56:00Z,37.407,-77.522,14.4,,70,5,,3,30.16,1022.5,,TRUE,TRUE,,,,,,BR,OVC,400,,,,,,,LIFR,,,,,,,,,,,,METAR,63
KFAM 050056Z AUTO 03006KT 10SM CLR 18/17 A2998 RMK AO2 TSE14RAE39 SLP155 P0001 T01830167,KFAM,2024-05-05T00:56:00Z,37.7631,-90.4292,18.3,16.7,30,6,,10+,29.98,1015.5,,TRUE,TRUE,,,,,,,CLR,,,,,,,,VFR,,,,,,0.01,,,,,,METAR,276
KEWK 050056Z AUTO 05004KT 10SM CLR 15/11 A3004 RMK AO2 SLP170 T01500106,KEWK,2024-05-05T00:56:00Z,38.0621,-97.275,15,10.6,50,4,,10+,30.04,1017,,TRUE,TRUE,,,,,,,CLR,,,,,,,,VFR,,,,,,,,,,,,METAR,468
KEUL 050056Z AUTO 30004KT 10SM -RA FEW047 OVC065 14/08 A2943 RMK AO2 RAB12 PRESFR SLP961 P0000 T01440078,KEUL,2024-05-05T00:56:00Z,43.6405,-116.63,14.4,7.8,300,4,,10+,29.43,996.1,,TRUE,TRUE,,,,,,-RA,FEW,4700,OVC,6500,,,,,VFR,,,,,,0.005,,,,,,METAR,741
KESC 050056Z AUTO 15003KT 10SM BKN008 OVC019 11/11 A2983 RMK AO2 LTG DSNT E AND SE RAE17 SLP107 P0000 T01110111 $,KESC,2024-05-05T00:56:00Z,45.7225,-87.0893,11.1,11.1,150,3,,10+,29.83,1010.7,,TRUE,TRUE,TRUE,,,,,,BKN,800,OVC,1900,,,,,IFR,,,,,,0.005,,,,,,METAR,180
KENV 050056Z AUTO 08007KT 10SM CLR 21/M02 A2948 RMK AO2 SLP966 T02111017,KENV,2024-05-05T00:56:00Z,40.7211,-114.031,21.1,-1.7,80,7,,10+,29.48,996.6,,TRUE,TRUE,,,,,,,CLR,,,,,,,,VFR,,,,,,,,,,,,METAR,1291
KELZ 050056Z AUTO 15010G18KT 6SM -RA BR OVC010 09/08 A3013 RMK AO2 RAB09 CIG 006V014 SLP208 P0002 T00890078,KELZ,2024-05-05T00:56:00Z,42.1077,-77.9842,8.9,7.8,150,10,18,6,30.13,1020.8,,TRUE,TRUE,,,,,,-RA BR,OVC,1000,,,,,,,MVFR,,,,,,0.02,,,,,,METAR,639
KEKY 050056Z AUTO 00000KT 10SM CLR 22/19 A2999 RMK AO2 SLP003 T02220189,KEKY,2024-05-05T00:56:00Z,33.314,-86.925,22.2,18.9,0,0,,10+,29.99,1000.3,,TRUE,TRUE,,,,,,,CLR,,,,,,,,VFR,,,,,,,,,,,,METAR,213
KEKQ 050056Z AUTO 17003KT 10SM CLR 18/18 A3000 RMK AO2 SLP148 T01830183,KEKQ,2024-05-05T00:56:00Z,36.8576,-84.8562,18.3,18.3,170,3,,10+,30.00,1014.8,,TRUE,TRUE,,,,,,,CLR,,,,,,,,VFR,,,,,,,,,,,,METAR,291
KEKO 050056Z AUTO 20017G33KT 10SM OVC110 19/M06 A2943 RMK AO2 PK WND 19045/0012 SLP932 T01941061,KEKO,2024-05-05T00:56:00Z,40.824,-115.786,19.4,-6.1,200,17,33,10+,29.43,993.2,,TRUE,TRUE,,,,,,,OVC,11000,,,,,,,VFR,,,,,,,,,,,,METAR,1541
KEEN 050056Z AUTO VRB06KT 10SM CLR 12/06 A3033 RMK AO2 SLP277 T01170061 $,KEEN,2024-05-05T00:56:00Z,42.898,-72.2695,11.7,6.1,VRB,6,,10+,30.33,1027.7,,TRUE,TRUE,TRUE,,,,,,CLR,,,,,,,,VFR,,,,,,,,,,,,METAR,143
KEED 050056Z AUTO 18018G28KT 10SM CLR 32/M02 A2961 RMK AO2 PK WND 17034/0000 SLP998 T03171017,KEED,2024-05-05T00:56:00Z,34.7678,-114.618,31.7,-1.7,180,18,28,10+,29.61,999.8,,TRUE,TRUE,,,,,,,CLR,,,,,,,,VFR,,,,,,,,,,,,METAR,271
KEAU 050056Z 33005KT 10SM CLR 12/05 A2997 RMK AO2 SLP151 T01220050,KEAU,2024-05-05T00:56:00Z,44.8665,-91.4881,12.2,5,330,5,,10+,29.97,1015.1,,,TRUE,,,,,,,CLR,,,,,,,,VFR,,,,,,,,,,,,METAR,271
KEAR 050056Z AUTO 09009KT 10SM CLR 14/04 A3008 RMK AO2 SLP185 T01440044,KEAR,2024-05-05T00:56:00Z,40.7193,-99.0086,14.4,4.4,90,9,,10+,30.08,1018.5,,TRUE,TRUE,,,,,,,CLR,,,,,,,,VFR,,,,,,,,,,,,METAR,649
KDYR 050056Z AUTO 23004KT 10SM CLR 24/18 A2995 RMK AO2 SLP145 T02390183,KDYR,2024-05-05T00:56:00Z,35.9957,-89.4057,23.9,18.3,230,4,,10+,29.95,1014.5,,TRUE,TRUE,,,,,,,CLR,,,,,,,,VFR,,,,,,,,,,,,METAR,98
KDWU 050056Z AUTO 00000KT 6SM HZ BKN070 BKN090 OVC110 19/ A2996 RMK AO2 LTG DSNT SW-NW RAE44 SLP144 P0003 T0189,KDWU,2024-05-05T00:56:00Z,38.556,-82.7375,18.9,,0,0,,6,29.96,1014.4,,TRUE,TRUE,,,,,,HZ,BKN,7000,BKN,9000,OVC,11000,,,VFR,,,,,,0.03,,,,,,METAR,165
KDVL 050056Z AUTO 00000KT 10SM SCT065 11/04 A3000 RMK AO2 SLP180 T01060044,KDVL,2024-05-05T00:56:00Z,48.1136,-98.9034,10.6,4.4,0,0,,10+,30.00,1018,,TRUE,TRUE,,,,,,,SCT,6500,,,,,,,VFR,,,,,,,,,,,,METAR,439
KDUG 050056Z AUTO 25011KT 10SM CLR 27/M12 A2988 RMK AO2 PK WND 25027/0018 SLP059 T02671117 TSNO,KDUG,2024-05-05T00:56:00Z,31.4725,-109.602,26.7,-11.7,250,11,,10+,29.88,1005.9,,TRUE,TRUE,,,TRUE,,,,CLR,,,,,,,,VFR,,,,,,,,,,,,METAR,1260
KDIK 050056Z AUTO 00000KT 10SM CLR 13/M02 A2993 RMK AO2 SLP147 T01331022,KDIK,2024-05-05T00:56:00Z,46.7997,-102.797,13.3,-2.2,0,0,,10+,29.93,1014.7,,TRUE,TRUE,,,,,,,CLR,,,,,,,,VFR,,,,,,,,,,,,METAR,788
KDIJ 050056Z AUTO 11012G19KT 10SM OVC095 13/M01 A2974 RMK AO2 SLP067 T01331006,KDIJ,2024-05-05T00:56:00Z,43.745,-111.091,13.3,-0.6,110,12,19,10+,29.74,1006.7,,TRUE,TRUE,,,,,,,OVC,9500,,,,,,,VFR,,,,,,,,,,,,METAR,1896
KDAY 050056Z 17007KT 10SM FEW080 BKN100 21/19 A2990 RMK AO2 SLP118 T02110194,KDAY,2024-05-05T00:56:00Z,39.9064,-84.2185,21.1,19.4,170,7,,10+,29.90,1011.8,,,TRUE,,,,,,,FEW,8000,BKN,10000,,,,,VFR,,,,,,,,,,,,METAR,303
KD07 050056Z AUTO 13006KT 14/M02 A2997 RMK AO1 SLP161 T01391022,KD07,2024-05-05T00:56:00Z,45.0326,-102.02,13.9,-2.2,130,6,,,29.97,1016.1,,TRUE,TRUE,,,,,,,,,,,,,,,,,,,,,,,,,,,METAR,786
KCYD 050056Z AUTO 09009KT 10SM CLR 25/23 A3001 RMK A02 T02470229,KCYD,2024-05-05T00:56:00Z,28.1694,-89.2228,24.7,22.9,90,9,,10+,30.01,,,TRUE,TRUE,,,,,,,CLR,,,,,,,,VFR,,,,,,,,,,,,METAR,30
KCXY 050056Z 12013KT 10SM FEW010 BKN013 OVC028 12/09 A3023 RMK AO2 RAE09B45E56 SLP239 P0001 T01170094,KCXY,2024-05-05T00:56:00Z,40.2184,-76.8552,11.7,9.4,120,13,,10+,30.23,1023.9,,,TRUE,,,,,,,FEW,1000,BKN,1300,OVC,2800,,,MVFR,,,,,,0.01,,,,,,METAR,102
KCWI 050056Z AUTO 34018KT 10SM OVC034 16/10 A2995 RMK AO2 SLP145 T01560100,KCWI,2024-05-05T00:56:00Z,41.8295,-90.3328,15.6,10,340,18,,10+,29.95,1014.5,,TRUE,TRUE,,,,,,,OVC,3400,,,,,,,VFR,,,,,,,,,,,,METAR,212
KCWF 050056Z 14006KT 10SM BKN021 25/22 A2994,KCWF,2024-05-05T00:56:00Z,30.2216,-93.1467,25,22,140,6,,10+,29.94,,,,,,,,,,,BKN,2100,,,,,,,MVFR,,,,,,,,,,,,METAR,4
KCVO 050056Z AUTO 28008KT 10SM -RA FEW023 BKN041 OVC055 10/07 A2970 RMK AO2 SLP057 P0000 T01000072,KCVO,2024-05-05T00:56:00Z,44.5013,-123.293,10,7.2,280,8,,10+,29.70,1005.7,,TRUE,TRUE,,,,,,-RA,FEW,2300,BKN,4100,OVC,5500,,,VFR,,,,,,0.005,,,,,,METAR,75
KCVN 050056Z AUTO 09008KT 10SM OVC019 15/10 A3000 RMK AO2 SLP144 T01500100,KCVN,2024-05-05T00:56:00Z,34.4227,-103.08,15,10,90,8,,10+,30.00,1014.4,,TRUE,TRUE,,,,,,,OVC,1900,,,,,,,MVFR,,,,,,,,,,,,METAR,1278
KCTB 050056Z AUTO 10015KT 10SM BKN120 13/M03 A2974 RMK AO2 SLP076 T01331028,KCTB,2024-05-05T00:56:00Z,48.6036,-112.377,13.3,-2.8,100,15,,10+,29.74,1007.6,,TRUE,TRUE,,,,,,,BKN,12000,,,,,,,VFR,,,,,,,,,,,,METAR,1172
KCOE 050056Z AUTO 05008KT 10SM OVC110 18/01 A2953 RMK AO2 SLP011 T01830006,KCOE,2024-05-05T00:56:00Z,47.7719,-116.833,18.3,0.6,50,8,,10+,29.53,1001.1,,TRUE,TRUE,,,,,,,OVC,11000,,,,,,,VFR,,,,,,,,,,,,METAR,693
KCOD 050056Z AUTO 12014G18KT 10SM CLR 16/M04 A2978 RMK AO2 SLP072 T01561039,KCOD,2024-05-05T00:56:00Z,44.52,-109.027,15.6,-3.9,120,14,18,10+,29.78,1007.2,,TRUE,TRUE,,,,,,,CLR,,,,,,,,VFR,,,,,,,,,,,,METAR,1550
KCIU 050056Z AUTO 14012KT 10SM CLR 14/12 A2985 RMK AO2 SLP110 T01440117,KCIU,2024-05-05T00:56:00Z,46.2531,-84.4773,14.4,11.7,140,12,,10+,29.85,1011,,TRUE,TRUE,,,,,,,CLR,,,,,,,,VFR,,,,,,,,,,,,METAR,242
KCHS 050056Z 14009KT 10SM BKN120 24/19 A3006 RMK AO2 SLP179 T02390194,KCHS,2024-05-05T00:56:00Z,32.8994,-80.0407,23.9,19.4,140,9,,10+,30.06,1017.9,,,TRUE,,,,,,,BKN,12000,,,,,,,VFR,,,,,,,,,,,,METAR,12
KCGZ 050056Z AUTO 25009G16KT 10SM CLR 32/M04 A2971 RMK AO2 SLP048 T03221044 PNO $,KCGZ,2024-05-05T00:56:00Z,32.9531,-111.773,32.2,-4.4,250,9,16,10+,29.71,1004.8,,TRUE,TRUE,TRUE,,,,,,CLR,,,,,,,,VFR,,,,,,,,,,,,METAR,444
KCEC 050056Z AUTO 30006KT 10SM FEW033 OVC055 11/06 A2982 RMK AO2 SLP098 T01110061,KCEC,2024-05-05T00:56:00Z,41.7836,-124.238,11.1,6.1,300,6,,10+,29.82,1009.8,,TRUE,TRUE,,,,,,,FEW,3300,OVC,5500,,,,,VFR,,,,,,,,,,,,METAR,17
KBZN 050056Z 05009KT 10SM CLR 16/M01 A2967 RMK AO2 SLP046 T01561006,KBZN,2024-05-05T00:56:00Z,45.7876,-111.162,15.6,-0.6,50,9,,10+,29.67,1004.6,,,TRUE,,,,,,,CLR,,,,,,,,VFR,,,,,,,,,,,,METAR,1349
KBVX 050056Z AUTO 23004KT 10SM -RA FEW120 23/19 A2995 RMK AO2 RAB44 SLP139 P0000 T02280194,KBVX,2024-05-05T00:56:00Z,35.7259,-91.6517,22.8,19.4,230,4,,10+,29.95,1013.9,,TRUE,TRUE,,,,,,-RA,FEW,12000,,,,,,,VFR,,,,,,0.005,,,,,,METAR,137
KBTP 050056Z AUTO 10011KT 10SM OVC005 12/12 A3005 RMK AO2 CIG 004V008 SLP180 T01220122 TSNO $,KBTP,2024-05-05T00:56:00Z,40.7765,-79.9568,12.2,12.2,100,11,,10+,30.05,1018,,TRUE,TRUE,TRUE,,TRUE,,,,OVC,500,,,,,,,IFR,,,,,,,,,,,,METAR,375
KBOK 050056Z AUTO 31009G16KT 10SM FEW055 10/06 A2980 RMK AO2 SLP094 T01000056,KBOK,2024-05-05T00:56:00Z,42.0754,-124.29,10,5.6,310,9,16,10+,29.80,1009.4,,TRUE,TRUE,,,,,,,FEW,5500,,,,,,,VFR,,,,,,,,,,,,METAR,140
KBMI 050056Z 25006KT 10SM -RA BKN044 OVC120 18/17 A2991 RMK AO2 LTG DSNT E TSB08E09B33E34 SLP126 P0003 T01780172,KBMI,2024-05-05T00:56:00Z,40.4777,-88.9144,17.8,17.2,250,6,,10+,29.91,1012.6,,,TRUE,,,,,,-RA,BKN,4400,OVC,12000,,,,,VFR,,,,,,0.03,,,,,,METAR,262
KBLM 050056Z AUTO 10005KT 10SM OVC044 10/08 A3033 RMK AO2 RAE06 SLP273 P0000 T01000083,KBLM,2024-05-05T00:56:00Z,40.1822,-74.1207,10,8.3,100,5,,10+,30.33,1027.3,,TRUE,TRUE,,,,,,,OVC,4400,,,,,,,VFR,,,,,,0.005,,,,,,METAR,45
KBKX 050056Z AUTO 28003KT 10SM FEW060 13/04 A3005 RMK AO2 SLP194 T01280039,KBKX,2024-05-05T00:56:00Z,44.3075,-96.8183,12.8,3.9,280,3,,10+,30.05,1019.4,,TRUE,TRUE,,,,,,,FEW,6000,,,,,,,VFR,,,,,,,,,,,,METAR,494
KBJJ 050056Z AUTO 13012KT 9SM OVC008 18/16 A2996 RMK AO2 SLP142 T01830161,KBJJ,2024-05-05T00:56:00Z,40.8732,-81.8886,18.3,16.1,130,12,,9,29.96,1014.2,,TRUE,TRUE,,,,,,,OVC,800,,,,,,,IFR,,,,,,,,,,,,METAR,338
KBIH 050056Z AUTO 16020G28KT 10SM CLR 16/00 A2953 RMK AO2 PK WND 17034/0005 SLP975 T01560000,KBIH,2024-05-05T00:56:00Z,37.3711,-118.359,15.6,0,160,20,28,10+,29.53,997.5,,TRUE,TRUE,,,,,,,CLR,,,,,,,,VFR,,,,,,,,,,,,METAR,1252
KBID 050056Z AUTO 07007KT 10SM OVC013 08/07 A3036 RMK AO2 SLP282 T00830067,KBID,2024-05-05T00:56:00Z,41.1668,-71.5757,8.3,6.7,70,7,,10+,30.36,1028.2,,TRUE,TRUE,,,,,,,OVC,1300,,,,,,,MVFR,,,,,,,,,,,,METAR,32
KBHB 050056Z AUTO 20006KT 10SM OVC037 09/06 A3041 RMK AO2 SLP301 T00940061,KBHB,2024-05-05T00:56:00Z,44.4549,-68.3617,9.4,6.1,200,6,,10+,30.41,1030.1,,TRUE,TRUE,,,,,,,OVC,3700,,,,,,,VFR,,,,,,,,,,,,METAR,21
KBBB 050056Z AUTO 30005KT 10SM CLR 13/03 A3002 RMK AO2,KBBB,2024-05-05T00:56:00Z,45.331,-95.6469,13,3,300,5,,10+,30.02,,,TRUE,TRUE,,,,,,,CLR,,,,,,,,VFR,,,,,,,,,,,,METAR,315
KAWO 050056Z AUTO 31007KT 10SM -RA OVC065 13/11 A2957 RMK AO2 SLP019 P0000 T01330106,KAWO,2024-05-05T00:56:00Z,48.1584,-122.159,13.3,10.6,310,7,,10+,29.57,1001.9,,TRUE,TRUE,,,,,,-RA,OVC,6500,,,,,,,VFR,,,,,,0.005,,,,,,METAR,38
KAUO 050056Z AUTO 00000KT 10SM CLR 24/19 A3002 RMK AO2 SLP180 T02390194,KAUO,2024-05-05T00:56:00Z,32.617,-85.4342,23.9,19.4,0,0,,10+,30.02,1018,,TRUE,TRUE,,,,,,,CLR,,,,,,,,VFR,,,,,,,,,,,,METAR,231
KAUM 050056Z AUTO 32005KT 10SM CLR 13/06 A3001 RMK AO2,KAUM,2024-05-05T00:56:00Z,43.6688,-92.9321,13,6,320,5,,10+,30.01,,,TRUE,TRUE,,,,,,,CLR,,,,,,,,VFR,,,,,,,,,,,,METAR,376
KASH 050056Z 09005KT 10SM CLR 10/08 A3038 RMK AO2 SLP292 T01000078,KASH,2024-05-05T00:56:00Z,42.7798,-71.5141,10,7.8,90,5,,10+,30.38,1029.2,,,TRUE,,,,,,,CLR,,,,,,,,VFR,,,,,,,,,,,,METAR,56
KART 050056Z AUTO 12003KT 10SM CLR 17/08 A3012 RMK AO2 SLP196 T01720083,KART,2024-05-05T00:56:00Z,43.9888,-76.0261,17.2,8.3,120,3,,10+,30.12,1019.6,,TRUE,TRUE,,,,,,,CLR,,,,,,,,VFR,,,,,,,,,,,,METAR,100
KARG 050056Z AUTO 24007KT 10SM CLR 23/17 A2995 RMK AO2 SLP141 T02280167,KARG,2024-05-05T00:56:00Z,36.1256,-90.9216,22.8,16.7,240,7,,10+,29.95,1014.1,,TRUE,TRUE,,,,,,,CLR,,,,,,,,VFR,,,,,,,,,,,,METAR,82
KAPS 050056Z AUTO 14005KT 10SM CLR 24/22 A2998 RMK AO2,KAPS,2024-05-05T00:56:00Z,30.086,-90.584,24,22,140,5,,10+,29.98,,,TRUE,TRUE,,,,,,,CLR,,,,,,,,VFR,,,,,,,,,,,,METAR,1
KAND 050056Z AUTO 11004KT 8SM -RA FEW060 SCT075 OVC090 18/17 A3005 RMK AO2 LTG DSNT E AND SE RAB42 SLP168 P0000 T01830172,KAND,2024-05-05T00:56:00Z,34.498,-82.7092,18.3,17.2,110,4,,8,30.05,1016.8,,TRUE,TRUE,,,,,,-RA,FEW,6000,SCT,7500,OVC,9000,,,VFR,,,,,,0.005,,,,,,METAR,233
KALK 050056Z AUTO 25012KT 10SM CLR 24/M09 A2994 RMK AO2 SLP057 T02441094,KALK,2024-05-05T00:56:00Z,31.606,-110.428,24.4,-9.4,250,12,,10+,29.94,1005.7,,TRUE,TRUE,,,,,,,CLR,,,,,,,,VFR,,,,,,,,,,,,METAR,1451
KAJO 050056Z AUTO 26009G14KT 10SM FEW024 SCT038 BKN045 17/12 A2990 RMK AO2 SLP120 T01720122,KAJO,2024-05-05T00:56:00Z,33.8956,-117.596,17.2,12.2,260,9,14,10+,29.90,1012,,TRUE,TRUE,,,,,,,FEW,2400,SCT,3800,BKN,4500,,,VFR,,,,,,,,,,,,METAR,161
KAIZ 050056Z AUTO 33005KT 10SM CLR 19/15 A2999 RMK AO2 SLP150 T01890150 PNO $,KAIZ,2024-05-05T00:56:00Z,38.1005,-92.5475,18.9,15,330,5,,10+,29.99,1015,,TRUE,TRUE,TRUE,,,,,,CLR,,,,,,,,VFR,,,,,,,,,,,,METAR,263
KAFJ 050056Z AUTO 7SM RA OVC007 14/14 A3005 RMK AO2 SLP173 P0006 T01390139 $,KAFJ,2024-05-05T00:56:00Z,40.1362,-80.2851,13.9,13.9,,,,7,30.05,1017.3,,TRUE,TRUE,TRUE,,,,,RA,OVC,700,,,,,,,IFR,,,,,,0.06,,,,,,METAR,360
K8D3 050056Z AUTO 33006KT 14/03 A2999 RMK AO1 SLP156 T01440028,K8D3,2024-05-05T00:56:00Z,45.669,-96.9918,14.4,2.8,330,6,,,29.99,1015.6,,TRUE,TRUE,,,,,,,,,,,,,,,,,,,,,,,,,,,METAR,535
K79J 050056Z AUTO 00000KT 10SM SCT065 BKN120 26/19 A2999 RMK AO2 SLP151 T02560194 TSNO $,K79J,2024-05-05T00:56:00Z,31.3061,-86.3902,25.6,19.4,0,0,,10+,29.99,1015.1,,TRUE,TRUE,TRUE,,TRUE,,,,SCT,6500,BKN,12000,,,,,VFR,,,,,,,,,,,,METAR,93
K2WX 050056Z AUTO 12009KT 16/M04 A2988 RMK AO1 SLP128 T01561039,K2WX,2024-05-05T00:56:00Z,45.6043,-103.547,15.6,-3.9,120,9,,,29.88,1012.8,,TRUE,TRUE,,,,,,,,,,,,,,,,,,,,,,,,,,,METAR,925
K1M4 050056Z AUTO 00000KT 10SM CLR 21/21 A3000 RMK AO2 SLP145 T02110211,K1M4,2024-05-05T00:56:00Z,34.2832,-87.5986,21.1,21.1,0,0,,10+,30.00,1014.5,,TRUE,TRUE,,,,,,,CLR,,,,,,,,VFR,,,,,,,,,,,,METAR,283
TXKF 050055Z 36005KT 9999 FEW031 SCT050 BKN061 19/14 Q1020 ,TXKF,2024-05-05T00:55:00Z,32.364,-64.679,19,14,360,5,,6+,30.12,,,,,,,,,,,FEW,3100,SCT,5000,BKN,6100,,,VFR,,,,,,,,,,,,METAR,4
TNCE 050055Z AUTO 32002KT //// // ///////// 26/25 Q1014 RE//,TNCE,2024-05-05T00:55:00Z,17.497,-62.979,26,25,320,2,,,29.94,,,TRUE,,,,,,,,,,,,,,,,,,,,,,,,,,,,METAR,38
TNCB 050055Z 09010KT 9999 SCT012 28/26 Q1010,TNCB,2024-05-05T00:55:00Z,12.133,-68.277,28,26,90,10,,6+,29.82,,,,,,,,,,,SCT,1200,,,,,,,VFR,,,,,,,,,,,,METAR,6
TJPS 050055Z AUTO 00000KT 10SM FEW075 27/23 A2992 RMK AO2 PWINO,TJPS,2024-05-05T00:55:00Z,18.011,-66.567,27,23,0,0,,10+,29.92,,,TRUE,TRUE,,,,,TRUE,,FEW,7500,,,,,,,VFR,,,,,,,,,,,,METAR,12
RODN 050055Z 16012KT 10SM FEW022 FEW200 27/21 A2992 RMK AO2A SLP137 T02720210 PWINO FZRANO $,RODN,2024-05-05T00:55:00Z,26.356,127.768,27.2,21,160,12,,10+,29.92,1013.7,,,TRUE,TRUE,,,TRUE,TRUE,,FEW,2200,FEW,20000,,,,,VFR,,,,,,,,,,,,METAR,38
RKSO 050055Z 10004KT 3SM RA BR FEW021 OVC033 18/17 A2986 RMK AO2A SLP115 P0006 T01830171 $,RKSO,2024-05-05T00:55:00Z,37.091,127.03,18.3,17.1,100,4,,3,29.86,1011.5,,,TRUE,TRUE,,,,,RA BR,FEW,2100,OVC,3300,,,,,MVFR,,,,,,0.06,,,,,,METAR,10
RKSG 050055Z AUTO 14005KT 7SM -RA FEW019 SCT024 SCT038 19/17 A2985 RMK AO2 DZB09E11RAB11E20DZB20E23DZB31E33RAB33 SLP111 P0002 T01900170 $,RKSG,2024-05-05T00:55:00Z,36.962,127.031,19,17,140,5,,7,29.85,1011.1,,TRUE,TRUE,TRUE,,,,,-RA,FEW,1900,SCT,2400,SCT,3800,,,VFR,,,,,,0.02,,,,,,METAR,12
RJTY 050055Z AUTO 17011KT 10SM CLR 26/08 A3021 RMK AO2 SLP231 T02640079 $,RJTY,2024-05-05T00:55:00Z,35.749,139.349,26.4,7.9,170,11,,10+,30.21,1023.1,,TRUE,TRUE,TRUE,,,,,,CLR,,,,,,,,VFR,,,,,,,,,,,,METAR,136
PWAK 050055Z AUTO 08009KT 8SM FEW038 BKN047 29/24 A2987 RMK AO2 SLP121 T02900236,PWAK,2024-05-05T00:55:00Z,19.287,166.623,29,23.6,80,9,,8,29.87,1012.1,,TRUE,TRUE,,,,,,,FEW,3800,BKN,4700,,,,,VFR,,,,,,,,,,,,METAR,7
PHSF 050055Z AUTO 25009KT 10SM SCT015 BKN021 BKN032 18/12 A3029 RMK AO2 CIG 021V033 BKN021 V SCT SLP152 T01770124 $,PHSF,2024-05-05T00:55:00Z,19.758,-155.557,17.7,12.4,250,9,,10+,30.29,1015.2,,TRUE,TRUE,TRUE,,,,,,SCT,1500,BKN,2100,BKN,3200,,,MVFR,,,,,,,,,,,,METAR,1863
PHHI 050055Z AUTO 10013G21KT 8SM -DZ FEW025 SCT036 BKN046 24/18 A3006 RMK AO2 RAB33E42DZB52 SLP170 P0000 T02410180 $,PHHI,2024-05-05T00:55:00Z,21.478,-158.044,24.1,18,100,13,21,8,30.06,1017,,TRUE,TRUE,TRUE,,,,,-DZ,FEW,2500,SCT,3600,BKN,4600,,,VFR,,,,,,0.005,,,,,,METAR,246
PGUA 050055Z AUTO 08012KT 9SM SCT017 SCT023 29/24 A2986 RMK AO2 SLP102 T02910239,PGUA,2024-05-05T00:55:00Z,13.583,144.918,29.1,23.9,80,12,,9,29.86,1010.2,,TRUE,TRUE,,,,,,,SCT,1700,SCT,2300,,,,,VFR,,,,,,,,,,,,METAR,159
PAUT 050055Z AUTO 29026G32KT 10SM -DZ BKN019 OVC024 04/03 A2944 RMK AO2,PAUT,2024-05-05T00:55:00Z,54.145,-165.604,4,3,290,26,32,10+,29.44,,,TRUE,TRUE,,,,,,-DZ,BKN,1900,OVC,2400,,,,,MVFR,,,,,,,,,,,,METAR,25
PATL 050055Z AUTO VRB06KT 10SM BKN055 OVC095 08/00 A2930 RMK AO2 RAB2346E0004SHRAB0004E0040 SLP927 T00760003,PATL,2024-05-05T00:55:00Z,62.893,-155.977,7.6,0.3,VRB,6,,10+,29.30,992.7,,TRUE,TRUE,,,,,,,BKN,5500,OVC,9500,,,,,VFR,,,,,,,,,,,,METAR,261
PATC 050055Z AUTO 03035G41KT 10SM CLR M07/M09 A2958 RMK AO2 PK WND 03041/2355 SLP025 T10701091,PATC,2024-05-05T00:55:00Z,65.562,-167.924,-7,-9.1,30,35,41,10+,29.58,1002.5,,TRUE,TRUE,,,,,,,CLR,,,,,,,,VFR,,,,,,,,,,,,METAR,77
PASV 050055Z AUTO 04009KT 360V060 10SM OVC095 06/01 A2920 RMK AO2 SLP901 T00560013,PASV,2024-05-05T00:55:00Z,61.101,-155.577,5.6,1.3,40,9,,10+,29.20,990.1,,TRUE,TRUE,,,,,,,OVC,9500,,,,,,,VFR,,,,,,,,,,,,METAR,462
PALU 050055Z AUTO 07021G24KT 10SM -SHSN OVC019 M09/M12 A3001 RMK AO2 SHSNB0023 SLP164 P0000 T10931120,PALU,2024-05-05T00:55:00Z,68.873,-166.101,-9.3,-12,70,21,24,10+,30.01,1016.4,,TRUE,TRUE,,,,,,-SHSN,OVC,1900,,,,,,,MVFR,,,,,,0.005,,,,,,METAR,8
PAIM 050055Z AUTO 09015G19KT 040V110 10SM FEW045 BKN080 01/M03 A2938 RMK AO2 RAB0034E0036 SLP965 T00141030,PAIM,2024-05-05T00:55:00Z,65.994,-153.695,1.4,-3,90,15,19,10+,29.38,996.5,,TRUE,TRUE,,,,,,,FEW,4500,BKN,8000,,,,,VFR,,,,,,,,,,,,METAR,309
PAFR 050055Z AUTO 24005KT 10SM SCT044 SCT055 OVC075 10/03 A2931 RMK AO2 RAB30E40 SLP932 P0000 T01000033 $,PAFR,2024-05-05T00:55:00Z,61.263,-149.66,10,3.3,240,5,,10+,29.31,993.2,,TRUE,TRUE,TRUE,,,,,,SCT,4400,SCT,5500,OVC,7500,,,VFR,,,,,,0.005,,,,,,METAR,106
PAFB 050055Z AUTO 34009KT 9SM SCT085 16/M02 A2923 RMK AO2 SLP905 T01551020,PAFB,2024-05-05T00:55:00Z,64.836,-147.614,15.5,-2,340,9,,9,29.23,990.5,,TRUE,TRUE,,,,,,,SCT,8500,,,,,,,VFR,,,,,,,,,,,,METAR,137
PAEI 050055Z AUTO 23007KT 10SM SCT060 OVC080 15/M03 A2921 RMK AO2 SLP895 T01481026,PAEI,2024-05-05T00:55:00Z,64.654,-147.094,14.8,-2.6,230,7,,10+,29.21,989.5,,TRUE,TRUE,,,,,,,SCT,6000,OVC,8000,,,,,VFR,,,,,,,,,,,,METAR,166
PAEH 050055Z AUTO 02008KT 330V150 10SM FEW013 FEW015 BKN070 02/00 A2927 RMK AO2 SLP918 T00201002,PAEH,2024-05-05T00:55:00Z,58.652,-162.062,2,-0.2,20,8,,10+,29.27,991.8,,TRUE,TRUE,,,,,,,FEW,1300,FEW,1500,BKN,7000,,,VFR,,,,,,,,,,,,METAR,101
PAED 050055Z 26012KT 10SM SCT045 BKN060 10/02 A2929 RMK AO2A SLP915 T00990020,PAED,2024-05-05T00:55:00Z,61.25,-149.837,9.9,2,260,12,,10+,29.29,991.5,,,TRUE,,,,,,,SCT,4500,BKN,6000,,,,,VFR,,,,,,,,,,,,METAR,54
PACZ 050055Z AUTO 05008KT 10SM FEW011 BKN075 01/00 A2931 RMK AO2 SLP933 T00061004,PACZ,2024-05-05T00:55:00Z,61.776,-166.043,0.6,-0.4,50,8,,10+,29.31,993.3,,TRUE,TRUE,,,,,,,FEW,1100,BKN,7500,,,,,VFR,,,,,,,,,,,,METAR,129
PAAD 050055Z AUTO 05018G22KT 1 1/2SM HZ BKN025 OVC031 M12/M17 A2998 RMK AO2 T11191171,PAAD,2024-05-05T00:55:00Z,70.136,-146.29,-11.9,-17.1,50,18,22,1.5,29.98,,,TRUE,TRUE,,,,,,HZ,BKN,2500,OVC,3100,,,,,IFR,,,,,,,,,,,,METAR,8
OTBH 050055Z 08003KT 9000 HZ CLR 26/23 A2973 Q1006 RMK AO2A SLP068 T02590228 FZRANO $,OTBH,2024-05-05T00:55:00Z,25.117,51.315,25.9,22.8,80,3,,5.59,29.70,1006.8,,,TRUE,TRUE,,,TRUE,,HZ,CLR,,,,,,,,VFR,,,,,,,,,,,,METAR,40
OPLA 050055Z 34007KT 4000 FU NSC 24/14 Q1003 NOSIG RMK QFE978 A29.64,OPLA,2024-05-05T00:55:00Z,31.522,74.404,24,14,340,7,,2.49,29.62,,,,,,TRUE,,,,FU,CLR,,,,,,,,IFR,,,,,,,,,,,,METAR,217
OPFA 050055Z 00000KT 4000 FU NSC 23/17 Q1005 NOSIG,OPFA,2024-05-05T00:55:00Z,31.365,72.995,23,17,0,0,,2.49,29.68,,,,,,TRUE,,,,FU,CLR,,,,,,,,IFR,,,,,,,,,,,,METAR,180
OKAS 050055Z 20005KT 9999 CLR 22/12 A2978 RMK SLPNO WND DATA ESTMD ALTSG ESTMD $,OKAS,2024-05-05T00:55:00Z,29.347,47.521,22,12,200,5,,6+,29.78,,,,,TRUE,,,,,,CLR,,,,,,,,VFR,,,,,,,,,,,,METAR,144
OEPS 050055Z 08005KT 9999 CLR 24/15 A2989 RMK AO2A SLP103 WND DATA ESTMD T02390153,OEPS,2024-05-05T00:55:00Z,24.063,47.581,23.9,15.3,80,5,,6+,29.89,1010.3,,,TRUE,,,,,,,CLR,,,,,,,,VFR,,,,,,,,,,,,METAR,503
NZCM 050055Z AUTO 04011KT 9999 OVC075 M10/M19 A2813 RMK AO2 SLP532 T10961193 $,NZCM,2024-05-05T00:55:00Z,-77.85,166.667,-9.6,-19.3,40,11,,6+,28.13,1053.2,,TRUE,TRUE,TRUE,,,,,,OVC,7500,,,,,,,VFR,,,,,,,,,,,,METAR,24
LIVT 050055Z AUTO 06004KT 030V100 //// 13/09 Q1015,LIVT,2024-05-05T00:55:00Z,45.677,13.754,13,9,60,4,,,29.97,,,TRUE,,,,,,,,,,,,,,,,,,,,,,,,,,,,METAR,20
LIVR 050055Z 13005KT 9999 SCT010 04/01 Q1019 RMK BKN SCT060 MON CLD SCT VIS MIN 9999,LIVR,2024-05-05T00:55:00Z,46.298,11.787,4,1,130,5,,6+,30.09,,,,,,,,,,,SCT,1000,,,,,,,VFR,,,,,,,,,,,,METAR,1997
LIVP 050055Z 19006KT CAVOK 02/00 Q1018,LIVP,2024-05-05T00:55:00Z,46.143,11.038,2,0,190,6,,6+,30.06,,,,,,,,,,,CAVOK,,,,,,,,VFR,,,,,,,,,,,,METAR,2099
LIVM 050055Z AUTO /////KT //// ///// Q////,LIVM,2024-05-05T00:55:00Z,44.441,12.296,,,,,,,0.00,,,TRUE,,,,,,,,,,,,,,,,,,,,,,,,,,,,METAR,6
LIVD 050055Z AUTO VRB01KT //// 04/04 Q1018,LIVD,2024-05-05T00:55:00Z,46.729,12.228,4,4,VRB,1,,,30.06,,,TRUE,,,,,,,,,,,,,,,,,,,,,,,,,,,,METAR,1221
LIVC 050055Z AUTO 19010KT //// 04/01 Q1019,LIVC,2024-05-05T00:55:00Z,44.194,10.7,4,1,190,10,,,30.09,,,TRUE,,,,,,,,,,,,,,,,,,,,,,,,,,,,METAR,2139
LIRY 050055Z AUTO VRB01KT //// 10/08 Q1018,LIRY,2024-05-05T00:55:00Z,-99.99,-99.99,10,8,VRB,1,,,30.06,,,TRUE,,,,,,,,,,,,,,,,,,,,,,,,,,,,METAR,9999
LIRX 050055Z AUTO VRB03KT //// 11/10 Q1017,LIRX,2024-05-05T00:55:00Z,42.731,10.396,11,10,VRB,3,,,30.03,,,TRUE,,,,,,,,,,,,,,,,,,,,,,,,,,,,METAR,397
LIRT 050055Z AUTO 28008KT //// 09/08 Q1018,LIRT,2024-05-05T00:55:00Z,41.047,15.233,9,8,280,8,,,30.06,,,TRUE,,,,,,,,,,,,,,,,,,,,,,,,,,,,METAR,1058
LIRS 050055Z 03003KT CAVOK 11/08 Q1018 RMK BKN BKN200 VIS MIN 9999 WIND THR03 VRB01KT WIND THR21 VRB02KT BLU,LIRS,2024-05-05T00:55:00Z,42.76,11.072,11,8,30,3,,6+,30.06,,,,,,,,,,,CAVOK,,,,,,,,VFR,,,,,,,,,,,,METAR,3
LIRM 050055Z 04005KT 9999 SCT060 11/08 Q1017 RMK SCT VIS MIN 9999 WIND THR06 07005KT BLU,LIRM,2024-05-05T00:55:00Z,41.061,14.082,11,8,40,5,,6+,30.03,,,,,,,,,,,SCT,6000,,,,,,,VFR,,,,,,,,,,,,METAR,6
LIRK 050055Z AUTO 32010KT //// 03/00 Q1011,LIRK,2024-05-05T00:55:00Z,42.466,12.979,3,0,320,10,,,29.85,,,TRUE,,,,,,,,,,,,,,,,,,,,,,,,,,,,METAR,1721
LIRE 050055Z 01004KT CAVOK 11/09 Q1017 RMK SKC VIS MIN 9999 WIND THR13 /////KT WIND THR31 /////KT BLU,LIRE,2024-05-05T00:55:00Z,41.656,12.449,11,9,10,4,,6+,30.03,,,,,,,,,,,CAVOK,,,,,,,,VFR,,,,,,,,,,,,METAR,16
LIQO 050055Z AUTO 01012KT 340V040 //// 11/02 Q1018,LIQO,2024-05-05T00:55:00Z,42.387,11.17,11,2,10,12,,,30.06,,,TRUE,,,,,,,,,,,,,,,,,,,,,,,,,,,,METAR,627
LIPS 050055Z 06003KT 9999 BKN080 12/11 Q1015 RMK BKN VIS MIN 9999 WIND THR26 02002KT WIND THR08 06003KT BLU,LIPS,2024-05-05T00:55:00Z,45.689,12.101,12,11,60,3,,6+,29.97,,,,,,,,,,,BKN,8000,,,,,,,VFR,,,,,,,,,,,,METAR,42
LIPL 050055Z 32003KT CAVOK 12/12 Q1014,LIPL,2024-05-05T00:55:00Z,45.432,10.268,12,12,320,3,,6+,29.94,,,,,,,,,,,CAVOK,,,,,,,,VFR,,,,,,,,,,,,METAR,96
LIPI 050055Z 36006KT CAVOK 12/11 Q1015 RMK SKC VIS MIN 9999 WIND THR06 02004KT WIND THR24 04004KT RED,LIPI,2024-05-05T00:55:00Z,45.979,13.049,12,11,360,6,,6+,29.97,,,,,,,,,,,CAVOK,,,,,,,,VFR,,,,,,,,,,,,METAR,49
LIPC 050055Z 22004KT CAVOK 11/10 Q1016 RMK SKC VIS MIN 9999 WIND THR11 22004KT WIND THR29 24003KT BLU,LIPC,2024-05-05T00:55:00Z,44.224,12.307,11,10,220,4,,6+,30.00,,,,,,,,,,,CAVOK,,,,,,,,VFR,,,,,,,,,,,,METAR,10
LIMY 050055Z AUTO 14008KT //// 13/08 Q1016,LIMY,2024-05-05T00:55:00Z,44.258,7.794,13,8,140,8,,,30.00,,,TRUE,,,,,,,,,,,,,,,,,,,,,,,,,,,,METAR,1742
LIMK 050055Z AUTO 18001KT //// 13/07 Q1015,LIMK,2024-05-05T00:55:00Z,45.033,7.731,13,7,180,1,,,29.97,,,TRUE,,,,,,,,,,,,,,,,,,,,,,,,,,,,METAR,693
LIMH 050055Z AUTO 21012KT 130V230 //// ///// Q////,LIMH,2024-05-05T00:55:00Z,45.935,7.707,,,210,12,,,0.00,,,TRUE,,,,,,,,,,,,,,,,,,,,,,,,,,,,METAR,3473
LIEB 050055Z 20003KT CAVOK 16/06 Q1018 RMK OVC OVC080 QUK / QUL / VIS MAR 20 KM MON INVIS VIS MIN 9999,LIEB,2024-05-05T00:55:00Z,39.931,9.713,16,6,200,3,,6+,30.06,,,,,,,,,,,CAVOK,,,,,,,,VFR,,,,,,,,,,,,METAR,126
LICZ 050055Z 28006KT CAVOK 13/08 Q1018 RMK SKC VIS MIN 9999 WIND THR28 27007KT WIND THR10 27009KT A3008 BLU,LICZ,2024-05-05T00:55:00Z,37.406,14.919,13,8,280,6,,6+,30.06,,,,,,,,,,,CAVOK,,,,,,,,VFR,,,,,,,,,,,,METAR,22
LIBY 050055Z AUTO 35013KT //// 14/13 Q1014,LIBY,2024-05-05T00:55:00Z,39.811,18.342,14,13,350,13,,,29.94,,,TRUE,,,,,,,,,,,,,,,,,,,,,,,,,,,,METAR,105
LIBV 050055Z 33003KT CAVOK 11/07 Q1016 RMK SKC VIS MIN 9999 WIND THR32 35007KT WIND THR14 32004KT BLU,LIBV,2024-05-05T00:55:00Z,40.766,16.935,11,7,330,3,,6+,30.00,,,,,,,,,,,CAVOK,,,,,,,,VFR,,,,,,,,,,,,METAR,344
LIBQ 050055Z AUTO 30002KT //// 06/04 Q1019,LIBQ,2024-05-05T00:55:00Z,39.331,16.396,6,4,300,2,,,30.09,,,TRUE,,,,,,,,,,,,,,,,,,,,,,,,,,,,METAR,1660
LIBN 050055Z 27003KT CAVOK 13/13 Q1015,LIBN,2024-05-05T00:55:00Z,40.238,18.138,13,13,270,3,,6+,29.97,,,,,,,,,,,CAVOK,,,,,,,,VFR,,,,,,,,,,,,METAR,46
LIBA 050055Z 26006KT CAVOK 12/10 Q1016,LIBA,2024-05-05T00:55:00Z,41.538,15.714,12,10,260,6,,6+,30.00,,,,,,,,,,,CAVOK,,,,,,,,VFR,,,,,,,,,,,,METAR,55
KZPH 050055Z AUTO 24004KT 10SM -RA SCT050 SCT080 OVC110 23/22 A3004 RMK A02 P0007 T02300218,KZPH,2024-05-05T00:55:00Z,28.2268,-82.1564,23,21.8,240,4,,10+,30.04,,,TRUE,TRUE,,,,,,-RA,SCT,5000,SCT,8000,OVC,11000,,,VFR,,,,,,0.07,,,,,,METAR,26
KZER 050055Z AUTO 12018G24KT 1/4SM -RA OVC002 07/07 A3022 RMK AO2,KZER,2024-05-05T00:55:00Z,40.7072,-76.371,7,7,120,18,24,0.25,30.22,,,TRUE,TRUE,,,,,,-RA,OVC,200,,,,,,,LIFR,,,,,,,,,,,,METAR,518
KY70 050055Z AUTO 12005KT 10SM CLR 19/16 A2987 RMK AO2 T01850163,KY70,2024-05-05T00:55:00Z,42.9398,-85.0653,18.5,16.3,120,5,,10+,29.87,,,TRUE,TRUE,,,,,,,CLR,,,,,,,,VFR,,,,,,,,,,,,METAR,247
KY63 050055Z AUTO 32006KT 10SM CLR 15/01 A3000 RMK AO2 T01450014,KY63,2024-05-05T00:55:00Z,45.9891,-95.9946,14.5,1.4,320,6,,10+,30.00,,,TRUE,TRUE,,,,,,,CLR,,,,,,,,VFR,,,,,,,,,,,,METAR,367
KY51 050055Z AUTO 32009KT 10SM SCT020 OVC029 11/07 A2996 RMK AO2,KY51,2024-05-05T00:55:00Z,43.5814,-90.8997,11,7,320,9,,10+,29.96,,,TRUE,TRUE,,,,,,,SCT,2000,OVC,2900,,,,,MVFR,,,,,,,,,,,,METAR,390
KY49 050055Z AUTO 30007KT 10SM SCT060 SCT075 12/03 A2998 RMK AO2 T01200027,KY49,2024-05-05T00:55:00Z,47.1599,-94.6433,12,2.7,300,7,,10+,29.98,,,TRUE,TRUE,,,,,,,SCT,6000,SCT,7500,,,,,VFR,,,,,,,,,,,,METAR,413
KY31 050055Z AUTO 10004KT 10SM CLR 18/14 A2986 RMK AO2 T01820144,KY31,2024-05-05T00:55:00Z,44.2434,-84.18,18.2,14.4,100,4,,10+,29.86,,,TRUE,TRUE,,,,,,,CLR,,,,,,,,VFR,,,,,,,,,,,,METAR,264
KY23 050055Z AUTO 00000KT 10SM CLR 12/07 A2997 RMK AO2 T01180065,KY23,2024-05-05T00:55:00Z,45.311,-91.638,11.8,6.5,0,0,,10+,29.97,,,TRUE,TRUE,,,,,,,CLR,,,,,,,,VFR,,,,,,,,,,,,METAR,322
KY19 050055Z AUTO 04006KT 10SM FEW065 13/04 A2999 RMK AO2,KY19,2024-05-05T00:55:00Z,46.7648,-100.894,13,4,40,6,,10+,29.99,,,TRUE,TRUE,,,,,,,FEW,6500,,,,,,,VFR,,,,,,,,,,,,METAR,591
KXSA 050055Z AUTO 05004KT 10SM OVC008 14/14 A3020 RMK AO2 T01380138,KXSA,2024-05-05T00:55:00Z,37.8606,-76.9016,13.8,13.8,50,4,,10+,30.20,,,TRUE,TRUE,,,,,,,OVC,800,,,,,,,IFR,,,,,,,,,,,,METAR,41
KXNX 050055Z AUTO 16004KT 10SM CLR 22/20 A2997 RMK A01,KXNX,2024-05-05T00:55:00Z,36.3745,-86.41,22,20,160,4,,10+,29.97,,,TRUE,TRUE,,,,,,,CLR,,,,,,,,VFR,,,,,,,,,,,,METAR,178
KXNO 050055Z AUTO 11004KT 10SM -RA BKN045 OVC080 22/20 A3004 RMK AO2 SLP173 P0000 T02150201 $,KXNO,2024-05-05T00:55:00Z,33.612,-81.07,21.5,20.1,110,4,,10+,30.04,1017.3,,TRUE,TRUE,TRUE,,,,,-RA,BKN,4500,OVC,8000,,,,,VFR,,,,,,0.005,,,,,,METAR,94
KXMR 050055Z AUTO 12008KT 10SM CLR 24/20 A3000 RMK AO2 SLP162 T02440197 $,KXMR,2024-05-05T00:55:00Z,28.4674,-80.5589,24.4,19.7,120,8,,10+,30.00,1016.2,,TRUE,TRUE,TRUE,,,,,,CLR,,,,,,,,VFR,,,,,,,,,,,,METAR,5
KXLL 050055Z AUTO 01003KT 5SM -RA OVC008 10/08 A3030 RMK AO2 P0004,KXLL,2024-05-05T00:55:00Z,40.5704,-75.4894,10,8,10,3,,5,30.30,,,TRUE,TRUE,,,,,,-RA,OVC,800,,,,,,,IFR,,,,,,0.04,,,,,,METAR,118
KXIF 050055Z AUTO 08003KT 3SM -RA BR OVC011 10/09 A3020 RMK AO2 RAB2358E08RAB20 SLP233 P0005 T01020094 $,KXIF,2024-05-05T00:55:00Z,-99.99,-99.99,10.2,9.4,80,3,,3,30.20,1023.3,,TRUE,TRUE,TRUE,,,,,-RA BR,OVC,1100,,,,,,,MVFR,,,,,,0.05,,,,,,METAR,9999
KXBP 050055Z AUTO 11003KT 10SM SCT034 23/21 A2990 RMK AO2 LTG DSNT E AND SW T02250211,KXBP,2024-05-05T00:55:00Z,33.1729,-97.8268,22.5,21.1,110,3,,10+,29.90,,,TRUE,TRUE,,,,,,,SCT,3400,,,,,,,VFR,,,,,,,,,,,,METAR,256
KX60 050055Z AUTO 05003KT 10SM CLR 23/20 A3003 RMK AO2 T02310205,KX60,2024-05-05T00:55:00Z,29.3524,-82.4743,23.1,20.5,50,3,,10+,30.03,,,TRUE,TRUE,,,,,,,CLR,,,,,,,,VFR,,,,,,,,,,,,METAR,21
KX26 050055Z AUTO 10011KT 10SM CLR 25/21 A3004 RMK AO2 T02480205,KX26,2024-05-05T00:55:00Z,27.813,-80.497,24.8,20.5,100,11,,10+,30.04,,,TRUE,TRUE,,,,,,,CLR,,,,,,,,VFR,,,,,,,,,,,,METAR,5
KWYS 050055Z AUTO 22007KT 10SM SCT090 14/M05 A2974 RMK AO2,KWYS,2024-05-05T00:55:00Z,44.6811,-111.124,14,-5,220,7,,10+,29.74,,,TRUE,TRUE,,,,,,,SCT,9000,,,,,,,VFR,,,,,,,,,,,,METAR,2025
KWRB 050055Z AUTO 14005KT 10SM CLR 22/19 A3002 RMK AO2 SLP166 T02190192,KWRB,2024-05-05T00:55:00Z,32.639,-83.593,21.9,19.2,140,5,,10+,30.02,1016.6,,TRUE,TRUE,,,,,,,CLR,,,,,,,,VFR,,,,,,,,,,,,METAR,82
KWHP 050055Z 13006G13KT 10SM BKN038 OVC049 17/10 A2990,KWHP,2024-05-05T00:55:00Z,34.2596,-118.415,17,10,130,6,13,10+,29.90,,,,,,,,,,,BKN,3800,OVC,4900,,,,,VFR,,,,,,,,,,,,METAR,302
KWDR 050055Z AUTO 00000KT 10SM BKN110 21/17 A3005 RMK AO2 LTG DSNT SE AND NW,KWDR,2024-05-05T00:55:00Z,33.981,-83.667,21,17,0,0,,10+,30.05,,,TRUE,TRUE,,,,,,,BKN,11000,,,,,,,VFR,,,,,,,,,,,,METAR,280
KW99 050055Z AUTO 32004KT 3SM BR SCT006 OVC010 12/12 A3015 RMK AO2 SCT V BKN T01200120,KW99,2024-05-05T00:55:00Z,38.9947,-79.1421,12,12,320,4,,3,30.15,,,TRUE,TRUE,,,,,,BR,SCT,600,OVC,1000,,,,,MVFR,,,,,,,,,,,,METAR,288
KW96 050055Z AUTO 07004KT 10SM OVC007 15/14 A3017 RMK AO1 T01470135,KW96,2024-05-05T00:55:00Z,37.5027,-77.126,14.7,13.5,70,4,,10+,30.17,,,TRUE,TRUE,,,,,,,OVC,700,,,,,,,IFR,,,,,,,,,,,,METAR,35
KW81 050055Z AUTO 32003KT 1 1/2SM OVC002 14/13 A3015 RMK AO1 P0001 T01420129,KW81,2024-05-05T00:55:00Z,37.1813,-78.0977,14.2,12.9,320,3,,1.5,30.15,,,TRUE,TRUE,,,,,,,OVC,200,,,,,,,LIFR,,,,,,0.01,,,,,,METAR,121
KW78 050055Z AUTO 03003KT 10SM OVC005 15/14 A3015 RMK AO1 P0001 T01510143,KW78,2024-05-05T00:55:00Z,36.7087,-78.846,15.1,14.3,30,3,,10+,30.15,,,TRUE,TRUE,,,,,,,OVC,500,,,,,,,IFR,,,,,,0.01,,,,,,METAR,120
KW75 050055Z AUTO 08005KT 10SM OVC009 15/13 A3019 RMK AO1 T01450129,KW75,2024-05-05T00:55:00Z,37.6024,-76.4477,14.5,12.9,80,5,,10+,30.19,,,TRUE,TRUE,,,,,,,OVC,900,,,,,,,IFR,,,,,,,,,,,,METAR,8
KW43 050055Z AUTO 15008KT 10SM CLR 15/M02 A2991 RMK AO2,KW43,2024-05-05T00:55:00Z,44.6607,-104.568,15,-2,150,8,,10+,29.91,,,TRUE,TRUE,,,,,,,CLR,,,,,,,,VFR,,,,,,,,,,,,METAR,1292
KW31 050055Z AUTO 02004KT 1 1/4SM OVC002 16/15 A3014 RMK AO1 T01550154,KW31,2024-05-05T00:55:00Z,36.9599,-78.1838,15.5,15.4,20,4,,1.25,30.14,,,TRUE,TRUE,,,,,,,OVC,200,,,,,,,LIFR,,,,,,,,,,,,METAR,159
KW22 050055Z AUTO 12004KT 8SM FEW031 SCT036 BKN075 18/18 A3003 RMK AO2,KW22,2024-05-05T00:55:00Z,39.001,-80.2712,18,18,120,4,,8,30.03,,,TRUE,TRUE,,,,,,,FEW,3100,SCT,3600,BKN,7500,,,VFR,,,,,,,,,,,,METAR,497
KW13 050055Z AUTO 14007KT 10SM OVC008 12/12 A3016 RMK AO1 T01160115,KW13,2024-05-05T00:55:00Z,38.077,-78.944,11.6,11.5,140,7,,10+,30.16,,,TRUE,TRUE,,,,,,,OVC,800,,,,,,,IFR,,,,,,,,,,,,METAR,440
KVYS 050055Z AUTO 28014G19KT 10SM SCT026 BKN032 BKN039 20/15 A2989 RMK AO2 T02000149 TSNO,KVYS,2024-05-05T00:55:00Z,41.3517,-89.1496,20,14.9,280,14,19,10+,29.89,,,TRUE,TRUE,,,TRUE,,,,SCT,2600,BKN,3200,BKN,3900,,,VFR,,,,,,,,,,,,METAR,198
KVVV 050055Z AUTO 29005KT 10SM CLR 15/02 A3001 RMK AO2,KVVV,2024-05-05T00:55:00Z,45.2994,-96.4256,15,2,290,5,,10+,30.01,,,TRUE,TRUE,,,,,,,CLR,,,,,,,,VFR,,,,,,,,,,,,METAR,334
KVTP 050055Z AUTO 00000KT 10SM -RA 02/00 A3029 RMK AO2,KVTP,2024-05-05T00:55:00Z,37.512,-105.171,2,0,0,0,,10+,30.29,,,TRUE,TRUE,,,,,,-RA,,,,,,,,,VFR,,,,,,,,,,,,METAR,3086
KVTI 050055Z AUTO 33009KT 10SM SCT024 OVC035 13/09 A3001 RMK AO2 T01300091,KVTI,2024-05-05T00:55:00Z,42.2176,-92.0248,13,9.1,330,9,,10+,30.01,,,TRUE,TRUE,,,,,,,SCT,2400,OVC,3500,,,,,VFR,,,,,,,,,,,,METAR,256
KVPS 050055Z AUTO 24004KT 10SM CLR 26/20 A3000 RMK AO2 SLP165 T02560199 $,KVPS,2024-05-05T00:55:00Z,30.483,-86.526,25.6,19.9,240,4,,10+,30.00,1016.5,,TRUE,TRUE,TRUE,,,,,,CLR,,,,,,,,VFR,,,,,,,,,,,,METAR,21
KVOK 050055Z AUTO 29009KT 10SM FEW035 12/08 A2992 RMK AO2 SLP137 T01220083 $,KVOK,2024-05-05T00:55:00Z,43.938,-90.253,12.2,8.3,290,9,,10+,29.92,1013.7,,TRUE,TRUE,TRUE,,,,,,FEW,3500,,,,,,,VFR,,,,,,,,,,,,METAR,278
KVNC 050055Z AUTO 09003G10KT 10SM BKN070 OVC110 27/25 A3002 RMK AO2,KVNC,2024-05-05T00:55:00Z,27.0728,-82.44,27,25,90,3,10,10+,30.02,,,TRUE,TRUE,,,,,,,BKN,7000,OVC,11000,,,,,VFR,,,,,,,,,,,,METAR,4
KVLL 050055Z AUTO 12004KT 10SM SCT022 BKN047 OVC055 21/16 A2993 RMK AO2 T02060163,KVLL,2024-05-05T00:55:00Z,42.543,-83.178,20.6,16.3,120,4,,10+,29.93,,,TRUE,TRUE,,,,,,,SCT,2200,BKN,4700,OVC,5500,,,VFR,,,,,,,,,,,,METAR,214
KVKS 050055Z AUTO 00000KT 10SM CLR 24/22 A2995 RMK A01,KVKS,2024-05-05T00:55:00Z,32.2359,-90.9269,24,22,0,0,,10+,29.95,,,TRUE,TRUE,,,,,,,CLR,,,,,,,,VFR,,,,,,,,,,,,METAR,31
KVJI 050055Z AUTO 10004KT 10SM BKN120 17/17 A3007 RMK AO2 T01650165,KVJI,2024-05-05T00:55:00Z,36.6871,-82.037,16.5,16.5,100,4,,10+,30.07,,,TRUE,TRUE,,,,,,,BKN,12000,,,,,,,VFR,,,,,,,,,,,,METAR,636
KVHN 050055Z AUTO 07016KT 10SM CLR 24/15 A2990 RMK AO2 T02380150,KVHN,2024-05-05T00:55:00Z,31.0602,-104.783,23.8,15,70,16,,10+,29.90,,,TRUE,TRUE,,,,,,,CLR,,,,,,,,VFR,,,,,,,,,,,,METAR,1200
KVGC 050055Z AUTO 17007KT 10SM CLR 13/06 A3019 RMK AO2,KVGC,2024-05-05T00:55:00Z,42.8444,-75.5637,13,6,170,7,,10+,30.19,,,TRUE,TRUE,,,,,,,CLR,,,,,,,,VFR,,,,,,,,,,,,METAR,346
KVER 050055Z AUTO 32004KT 10SM OVC025 17/13 A3003 RMK AO2 T01680131,KVER,2024-05-05T00:55:00Z,38.9496,-92.6842,16.8,13.1,320,4,,10+,30.03,,,TRUE,TRUE,,,,,,,OVC,2500,,,,,,,MVFR,,,,,,,,,,,,METAR,209
KVDI 050055Z AUTO 00000KT 10SM BKN120 23/21 A3003 RMK AO2 P0002,KVDI,2024-05-05T00:55:00Z,32.1933,-82.3642,23,21,0,0,,10+,30.03,,,TRUE,TRUE,,,,,,,BKN,12000,,,,,,,VFR,,,,,,0.02,,,,,,METAR,81
KVDF 050055Z AUTO 00000KT 1 3/4SM +RA SCT008 BKN028 OVC038 23/21 A3003 RMK AO2,KVDF,2024-05-05T00:55:00Z,28.0198,-82.3415,23,21,0,0,,1.75,30.03,,,TRUE,TRUE,,,,,,+RA,SCT,800,BKN,2800,OVC,3800,,,IFR,,,,,,,,,,,,METAR,5
KVCV 050055Z AUTO 18013G18KT 10SM CLR 16/05 A2983 RMK AO2,KVCV,2024-05-05T00:55:00Z,34.5933,-117.389,16,5,180,13,18,10+,29.83,,,TRUE,TRUE,,,,,,,CLR,,,,,,,,VFR,,,,,,,,,,,,METAR,871
KVBW 050055Z AUTO 00000KT 10SM OVC010 A3016 RMK AO1,KVBW,2024-05-05T00:55:00Z,38.366,-78.968,,,0,0,,10+,30.16,,,TRUE,TRUE,,,,,,,OVC,1000,,,,,,,MVFR,,,,,,,,,,,,METAR,362
KVBG 050055Z AUTO 20009KT 6SM BR BKN006 OVC017 12/11 M RMK AO2 RAB23E48 CIG 006V019 CIG 004 RWY12 SLPNO P0001 T01190111 TSNO $,KVBG,2024-05-05T00:55:00Z,34.733,-120.583,11.9,11.1,200,9,,6,0.00,,,TRUE,TRUE,TRUE,,TRUE,,,BR,BKN,600,OVC,1700,,,,,IFR,,,,,,0.01,,,,,,METAR,96
KUXL 050055Z AUTO 12004KT 10SM CLR 25/23 A2994 RMK AO2 T02480227,KUXL,2024-05-05T00:55:00Z,30.135,-93.3767,24.8,22.7,120,4,,10+,29.94,,,TRUE,TRUE,,,,,,,CLR,,,,,,,,VFR,,,,,,,,,,,,METAR,2
KUWL 050055Z AUTO 15004KT 10SM FEW070 OVC085 21/19 A2988 RMK A01,KUWL,2024-05-05T00:55:00Z,39.8752,-85.3313,21,19,150,4,,10+,29.88,,,TRUE,TRUE,,,,,,,FEW,7000,OVC,8500,,,,,VFR,,,,,,,,,,,,METAR,332
KUVA 050055Z AUTO 11012G17KT 10SM SCT028 BKN034 OVC049 26/25 A2979 RMK AO2 T02630245,KUVA,2024-05-05T00:55:00Z,29.2135,-99.743,26.3,24.5,110,12,17,10+,29.79,,,TRUE,TRUE,,,,,,,SCT,2800,BKN,3400,OVC,4900,,,VFR,,,,,,,,,,,,METAR,285
KUUV 050055Z AUTO 35007KT 10SM BKN021 20/16 A2999 RMK AO2,KUUV,2024-05-05T00:55:00Z,38.2335,-91.1609,20,16,350,7,,10+,29.99,,,TRUE,TRUE,,,,,,,BKN,2100,,,,,,,MVFR,,,,,,,,,,,,METAR,284
KUTA 050055Z AUTO 27004KT 10SM CLR 23/20 A2995 RMK AO2 T02340203 $,KUTA,2024-05-05T00:55:00Z,34.6766,-90.344,23.4,20.3,270,4,,10+,29.95,,,TRUE,TRUE,TRUE,,,,,,CLR,,,,,,,,VFR,,,,,,,,,,,,METAR,58
KUOX 050055Z AUTO 20004KT 10SM CLR 23/19 A2998 RMK AO2 PWINO TSNO,KUOX,2024-05-05T00:55:00Z,34.3851,-89.5435,23,19,200,4,,10+,29.98,,,TRUE,TRUE,,,TRUE,,TRUE,,CLR,,,,,,,,VFR,,,,,,,,,,,,METAR,123
KUNU 050055Z AUTO 31011G20KT 10SM OVC045 13/09 A2990 RMK AO2 LTG DSNT E T01320090,KUNU,2024-05-05T00:55:00Z,43.4285,-88.7017,13.2,9,310,11,20,10+,29.90,,,TRUE,TRUE,,,,,,,OVC,4500,,,,,,,VFR,,,,,,,,,,,,METAR,281
KUMP 050055Z AUTO 00000KT 10SM CLR 22/17 A2988 RMK AO2 T02210167,KUMP,2024-05-05T00:55:00Z,39.936,-86.0478,22.1,16.7,0,0,,10+,29.88,,,TRUE,TRUE,,,,,,,CLR,,,,,,,,VFR,,,,,,,,,,,,METAR,247
KULS 050055Z AUTO 11011KT 10SM CLR 16/06 A3001 RMK AO2,KULS,2024-05-05T00:55:00Z,37.6037,-101.377,16,6,110,11,,10+,30.01,,,TRUE,TRUE,,,,,,,CLR,,,,,,,,VFR,,,,,,,,,,,,METAR,934
KUKT 050055Z AUTO 12004KT 6SM -DZ BKN010 BKN015 09/09 A3029 RMK AO2 P0002,KUKT,2024-05-05T00:55:00Z,40.4368,-75.3802,9,9,120,4,,6,30.29,,,TRUE,TRUE,,,,,,-DZ,BKN,1000,BKN,1500,,,,,MVFR,,,,,,0.02,,,,,,METAR,156
KUKL 050055Z AUTO 02009KT 10SM CLR 14/09 A3005 RMK AO2 T01410089,KUKL,2024-05-05T00:55:00Z,38.3041,-95.7217,14.1,8.9,20,9,,10+,30.05,,,TRUE,TRUE,,,,,,,CLR,,,,,,,,VFR,,,,,,,,,,,,METAR,357
KUCY 050055Z AUTO 00000KT 10SM FEW050 25/19 A2991 RMK A01,KUCY,2024-05-05T00:55:00Z,36.3778,-88.9878,25,19,0,0,,10+,29.91,,,TRUE,TRUE,,,,,,,FEW,5000,,,,,,,VFR,,,,,,,,,,,,METAR,97
KUBE 050055Z AUTO 33004KT 10SM CLR 12/06 A2998 RMK AO2,KUBE,2024-05-05T00:55:00Z,45.5046,-91.978,12,6,330,4,,10+,29.98,,,TRUE,TRUE,,,,,,,CLR,,,,,,,,VFR,,,,,,,,,,,,METAR,376
KU69 050055Z AUTO 11010KT 10SM CLR 19/M07 A2976 RMK A01,KU69,2024-05-05T00:55:00Z,40.198,-110.387,19,-7,110,10,,10+,29.76,,,TRUE,TRUE,,,,,,,CLR,,,,,,,,VFR,,,,,,,,,,,,METAR,1776
KU68 050055Z AUTO 12005KT 10SM CLR 16/M07 A2977 RMK AO2,KU68,2024-05-05T00:55:00Z,44.9113,-108.447,16,-7,120,5,,10+,29.77,,,TRUE,TRUE,,,,,,,CLR,,,,,,,,VFR,,,,,,,,,,,,METAR,1244
KU64 050055Z AUTO 20016G21KT 10SM CLR 19/M09 A2992 RMK AO2 T01891086 $,KU64,2024-05-05T00:55:00Z,37.9333,-109.34,18.9,-8.6,200,16,21,10+,29.92,,,TRUE,TRUE,TRUE,,,,,,CLR,,,,,,,,VFR,,,,,,,,,,,,METAR,2123
KU52 050055Z AUTO 20017G23KT 10SM -RA 19/M04 A2972 RMK AO2,KU52,2024-05-05T00:55:00Z,38.232,-112.672,19,-4,200,17,23,10+,29.72,,,TRUE,TRUE,,,,,,-RA,,,,,,,,,VFR,,,,,,,,,,,,METAR,1787
KTZR 050055Z AUTO 15007KT 10SM -RA SCT028 SCT075 OVC110 20/19 A2992 RMK AO2 LTG DSNT S T01980190,KTZR,2024-05-05T00:55:00Z,39.8988,-83.1357,19.8,19,150,7,,10+,29.92,,,TRUE,TRUE,,,,,,-RA,SCT,2800,SCT,7500,OVC,11000,,,VFR,,,,,,,,,,,,METAR,275
KTYQ 050055Z AUTO 23003KT 10SM CLR 21/17 A2988 RMK AO2 T02060167,KTYQ,2024-05-05T00:55:00Z,40.0345,-86.2488,20.6,16.7,230,3,,10+,29.88,,,TRUE,TRUE,,,,,,,CLR,,,,,,,,VFR,,,,,,,,,,,,METAR,279
KTYL 050055Z AUTO 22016G26KT 10SM CLR 20/M04 A2993 RMK AO2,KTYL,2024-05-05T00:55:00Z,34.4577,-110.112,20,-4,220,16,26,10+,29.93,,,TRUE,TRUE,,,,,,,CLR,,,,,,,,VFR,,,,,,,,,,,,METAR,1748
KTXW 050055Z AUTO 14010KT 10SM BKN025 28/22 A2976 RMK AO2 T02810224,KTXW,2024-05-05T00:55:00Z,26.1824,-97.9742,28.1,22.4,140,10,,10+,29.76,,,TRUE,TRUE,,,,,,,BKN,2500,,,,,,,MVFR,,,,,,,,,,,,METAR,21
KTWT 050055Z AUTO 24004KT 10SM SCT050 25/17 A2991 RMK AO2,KTWT,2024-05-05T00:55:00Z,37.5432,-87.9568,25,17,240,4,,10+,29.91,,,TRUE,TRUE,,,,,,,SCT,5000,,,,,,,VFR,,,,,,,,,,,,METAR,113
KTWM 050055Z AUTO 00000KT 10SM CLR 09/08 A2995 RMK AO2,KTWM,2024-05-05T00:55:00Z,47.0192,-91.7447,9,8,0,0,,10+,29.95,,,TRUE,TRUE,,,,,,,CLR,,,,,,,,VFR,,,,,,,,,,,,METAR,331
KTVY 050055Z AUTO 15011KT 10SM CLR 22/00 A2955 RMK AO2,KTVY,2024-05-05T00:55:00Z,40.6127,-112.354,22,0,150,11,,10+,29.55,,,TRUE,TRUE,,,,,,,CLR,,,,,,,,VFR,,,,,,,,,,,,METAR,1310
KTVI 050055Z AUTO 24005KT 10SM -RA SCT070 BKN090 OVC110 19/18 A3005 RMK AO2 LTG DSNT S AND NW,KTVI,2024-05-05T00:55:00Z,30.9026,-83.8826,19,18,240,5,,10+,30.05,,,TRUE,TRUE,,,,,,-RA,SCT,7000,BKN,9000,OVC,11000,,,VFR,,,,,,,,,,,,METAR,74
KTTS 050055Z AUTO 14006KT 10SM CLR 24/19 A3001 RMK AO2 SLP167 T02430191 $,KTTS,2024-05-05T00:55:00Z,28.5987,-80.6815,24.3,19.1,140,6,,10+,30.01,1016.7,,TRUE,TRUE,TRUE,,,,,,CLR,,,,,,,,VFR,,,,,,,,,,,,METAR,1
KTTF 050055Z AUTO 14004KT 7SM RA SCT026 BKN036 OVC070 18/16 A2990 RMK AO2 T01750161,KTTF,2024-05-05T00:55:00Z,41.9371,-83.4332,17.5,16.1,140,4,,7,29.90,,,TRUE,TRUE,,,,,,RA,SCT,2600,BKN,3600,OVC,7000,,,VFR,,,,,,,,,,,,METAR,186
KTSP 050055Z AUTO 31016G21KT 10SM OVC025 09/06 A2984 RMK AO2,KTSP,2024-05-05T00:55:00Z,35.1387,-118.442,9,6,310,16,21,10+,29.84,,,TRUE,TRUE,,,,,,,OVC,2500,,,,,,,MVFR,,,,,,,,,,,,METAR,1209
KTQK 050055Z AUTO 09011KT 10SM CLR 14/02 A3004 RMK AO2 T01430016,KTQK,2024-05-05T00:55:00Z,38.4782,-100.882,14.3,1.6,90,11,,10+,30.04,,,TRUE,TRUE,,,,,,,CLR,,,,,,,,VFR,,,,,,,,,,,,METAR,906
KTQH 050055Z AUTO 02003KT 10SM BKN034 BKN039 OVC047 21/18 A2996 RMK AO2,KTQH,2024-05-05T00:55:00Z,35.9304,-95.0025,21,18,20,3,,10+,29.96,,,TRUE,TRUE,,,,,,,BKN,3400,BKN,3900,OVC,4700,,,VFR,,,,,,,,,,,,METAR,265
KTPF 050055Z AUTO 05007KT 7SM OVC046 27/18 A3002 RMK AO2,KTPF,2024-05-05T00:55:00Z,27.9153,-82.4518,27,18,50,7,,7,30.02,,,TRUE,TRUE,,,,,,,OVC,4600,,,,,,,VFR,,,,,,,,,,,,METAR,1
KTOB 050055Z AUTO 00000KT 10SM CLR 12/06 A3000 RMK AO2,KTOB,2024-05-05T00:55:00Z,44.0202,-92.8295,12,6,0,0,,10+,30.00,,,TRUE,TRUE,,,,,,,CLR,,,,,,,,VFR,,,,,,,,,,,,METAR,394
KTNU 050055Z AUTO 34008G14KT 10SM CLR 12/10 A3003 RMK A01,KTNU,2024-05-05T00:55:00Z,41.6701,-93.019,12,10,340,8,14,10+,30.03,,,TRUE,TRUE,,,,,,,CLR,,,,,,,,VFR,,,,,,,,,,,,METAR,287
KTNB 050055Z AUTO 12004KT 7SM -RA SCT011 BKN037 SCT050 14/14 A2997 RMK AO2 P0005 T01420142,KTNB,2024-05-05T00:55:00Z,36.1988,-81.6515,14.2,14.2,120,4,,7,29.97,,,TRUE,TRUE,,,,,,-RA,SCT,1100,BKN,3700,SCT,5000,,,VFR,,,,,,0.05,,,,,,METAR,958
KTMT 050055Z AUTO 24023G45KT 7SM -RA SCT044 BKN060 OVC075 12/02 A2950 RMK AO2 T01190024,KTMT,2024-05-05T00:55:00Z,39.4643,-117.197,11.9,2.4,240,23,45,7,29.50,,,TRUE,TRUE,,,,,,-RA,SCT,4400,BKN,6000,OVC,7500,,,VFR,,,,,,,,,,,,METAR,1748
KTMK 050055Z AUTO 24005KT 3SM -RA BR FEW021 SCT028 BKN032 09/09 A2970 RMK AO2 P0003,KTMK,2024-05-05T00:55:00Z,45.421,-123.814,9,9,240,5,,3,29.70,,,TRUE,TRUE,,,,,,-RA BR,FEW,2100,SCT,2800,BKN,3200,,,MVFR,,,,,,0.03,,,,,,METAR,8
KTME 050055Z AUTO 13011G17KT 7SM -DZ BKN031 BKN050 OVC080 26/23 A2988 RMK AO2,KTME,2024-05-05T00:55:00Z,29.806,-95.903,26,23,130,11,17,7,29.88,,,TRUE,TRUE,,,,,,-DZ,BKN,3100,BKN,5000,OVC,8000,,,VFR,,,,,,,,,,,,METAR,49
KTMA 050055Z AUTO VRB03KT 10SM CLR 20/20 A3005 RMK AO2 T02010198 $,KTMA,2024-05-05T00:55:00Z,31.4229,-83.4859,20.1,19.8,VRB,3,,10+,30.05,,,TRUE,TRUE,TRUE,,,,,,CLR,,,,,,,,VFR,,,,,,,,,,,,METAR,105
KTKX 050055Z AUTO 27004KT 6SM HZ CLR 23/M30 A2991 RMK AO2,KTKX,2024-05-05T00:55:00Z,36.2226,-90.0367,23,-30,270,4,,6,29.91,,,TRUE,TRUE,,,,,,HZ,CLR,,,,,,,,VFR,,,,,,,,,,,,METAR,73
KTKV 050055Z AUTO 31008G14KT 10SM SCT019 SCT026 OVC031 10/07 A2994 RMK AO2 T00960071 PWINO,KTKV,2024-05-05T00:55:00Z,45.469,-89.805,9.6,7.1,310,8,14,10+,29.94,,,TRUE,TRUE,,,,,TRUE,,SCT,1900,SCT,2600,OVC,3100,,,VFR,,,,,,,,,,,,METAR,449
KTKC 050055Z AUTO 31004KT 10SM FEW060 13/06 A3004 RMK AO2,KTKC,2024-05-05T00:55:00Z,44.25,-95.612,13,6,310,4,,10+,30.04,,,TRUE,TRUE,,,,,,,FEW,6000,,,,,,,VFR,,,,,,,,,,,,METAR,408
KTIP 050055Z AUTO 00000KT 10SM VCTSRA SCT030 BKN060 OVC100 18/18 A2989 RMK AO2 LTG DSNT NE THRU SW P0060 T01790175,KTIP,2024-05-05T00:55:00Z,40.291,-88.146,17.9,17.5,0,0,,10+,29.89,,,TRUE,TRUE,,,,,,VCTSRA,SCT,3000,BKN,6000,OVC,10000,,,VFR,,,,,,,,,,,,METAR,224
KTIK 050055Z AUTO 02010KT 10SM CLR 18/13 A2992 RMK AO2 SLP131 T01830134 VISNO RWY18 $,KTIK,2024-05-05T00:55:00Z,35.415,-97.386,18.3,13.4,20,10,,10+,29.92,1013.1,,TRUE,TRUE,TRUE,,,,,,CLR,,,,,,,,VFR,,,,,,,,,,,,METAR,387
KTIF 050055Z AUTO 16003KT 10SM CLR 16/00 A3003 RMK AO2 T01571003,KTIF,2024-05-05T00:55:00Z,41.9646,-100.569,15.7,-0.3,160,3,,10+,30.03,,,TRUE,TRUE,,,,,,,CLR,,,,,,,,VFR,,,,,,,,,,,,METAR,888
KTHA 050055Z AUTO 00000KT 10SM CLR 21/18 A2997 RMK A01,KTHA,2024-05-05T00:55:00Z,35.3804,-86.2419,21,18,0,0,,10+,29.97,,,TRUE,TRUE,,,,,,,CLR,,,,,,,,VFR,,,,,,,,,,,,METAR,333
KTEX 050055Z AUTO 28004KT 10SM SCT090 SCT120 13/M11 A3004 RMK AO2,KTEX,2024-05-05T00:55:00Z,37.954,-107.909,13,-11,280,4,,10+,30.04,,,TRUE,TRUE,,,,,,,SCT,9000,SCT,12000,,,,,VFR,,,,,,,,,,,,METAR,2760
KTEW 050055Z AUTO 14006KT 10SM CLR 19/16 A2988 RMK AO2 T01880160,KTEW,2024-05-05T00:55:00Z,42.5636,-84.4222,18.8,16,140,6,,10+,29.88,,,TRUE,TRUE,,,,,,,CLR,,,,,,,,VFR,,,,,,,,,,,,METAR,281
KTDR 050055Z AUTO 23004KT 10SM CLR 27/25 A2996 RMK AO2 SLP149 T02700246 $,KTDR,2024-05-05T00:55:00Z,30.038,-85.528,27,24.6,230,4,,10+,29.96,1014.9,,TRUE,TRUE,TRUE,,,,,,CLR,,,,,,,,VFR,,,,,,,,,,,,METAR,4
KTCM 050055Z AUTO 22008KT 10SM -RA OVC004 11/10 A2958 RMK AO2 SLPNO P0005 T01070095 $,KTCM,2024-05-05T00:55:00Z,47.149,-122.475,10.7,9.5,220,8,,10+,29.58,,,TRUE,TRUE,TRUE,,,,,-RA,OVC,400,,,,,,,LIFR,,,,,,0.05,,,,,,METAR,87
KTBR 050055Z AUTO 00000KT 7SM +RA BKN037 BKN048 OVC060 23/18 A3004 RMK AO2 T02270176,KTBR,2024-05-05T00:55:00Z,32.48,-81.738,22.7,17.6,0,0,,7,30.04,,,TRUE,TRUE,,,,,,+RA,BKN,3700,BKN,4800,OVC,6000,,,VFR,,,,,,,,,,,,METAR,54
KTBN 050055Z AUTO 34005KT 10SM FEW025 21/17 A2995 RMK AO2 SLP137 T02100166,KTBN,2024-05-05T00:55:00Z,37.7445,-92.1447,21,16.6,340,5,,10+,29.95,1013.7,,TRUE,TRUE,,,,,,,FEW,2500,,,,,,,VFR,,,,,,,,,,,,METAR,349
KTAZ 050055Z AUTO 23003KT 10SM BKN070 OVC090 19/18 A2993 RMK AO2 LTG DSNT NE AND SE T01900179,KTAZ,2024-05-05T00:55:00Z,39.535,-89.3294,19,17.9,230,3,,10+,29.93,,,TRUE,TRUE,,,,,,,BKN,7000,OVC,9000,,,,,VFR,,,,,,,,,,,,METAR,188
KT89 050055Z AUTO 28008G17KT 10SM CLR 36/M12 A2967 RMK A01,KT89,2024-05-05T00:55:00Z,29.2774,-103.691,36,-12,280,8,17,10+,29.67,,,TRUE,TRUE,,,,,,,CLR,,,,,,,,VFR,,,,,,,,,,,,METAR,801
KT82 050055Z AUTO 13004KT 5SM -DZ OVC008 22/21 A2983 RMK AO2 LTG DSNT N P0001 T02170210,KT82,2024-05-05T00:55:00Z,30.239,-98.904,21.7,21,130,4,,5,29.83,,,TRUE,TRUE,,,,,,-DZ,OVC,800,,,,,,,IFR,,,,,,0.01,,,,,,METAR,509
KT78 050055Z AUTO 14008KT 10SM FEW100 25/22 A2990 RMK AO2,KT78,2024-05-05T00:55:00Z,30.0754,-94.6996,25,22,140,8,,10+,29.90,,,TRUE,TRUE,,,,,,,FEW,10000,,,,,,,VFR,,,,,,,,,,,,METAR,21
KT74 050055Z AUTO 10007KT 10SM SCT041 OVC060 23/22 A2982 RMK AO2 LTG DSNT NW T02330223,KT74,2024-05-05T00:55:00Z,30.5704,-97.4447,23.3,22.3,100,7,,10+,29.82,,,TRUE,TRUE,,,,,,,SCT,4100,OVC,6000,,,,,VFR,,,,,,,,,,,,METAR,169
KT70 050055Z AUTO 12009KT M M M 27/24 A2974 RMK AO2 SLP058 T02710237 RVRNO PWINO TSNO CHINO RWY31 $,KT70,2024-05-05T00:55:00Z,29.117,-100.473,27.1,23.7,120,9,,,29.74,1005.8,,TRUE,TRUE,TRUE,,TRUE,,TRUE,,,,,,,,,,,,,,,,,,,,,,METAR,296
KT69 050055Z AUTO 14010G16KT 8SM SCT022 SCT028 27/24 A2979 RMK A01,KT69,2024-05-05T00:55:00Z,28.0418,-97.541,27,24,140,10,16,8,29.79,,,TRUE,TRUE,,,,,,,SCT,2200,SCT,2800,,,,,VFR,,,,,,,,,,,,METAR,15
KT41 050055Z AUTO 10SM SCT014 BKN028 OVC044 25/23 A2991 RMK AO2 T02480228,KT41,2024-05-05T00:55:00Z,29.6709,-95.0644,24.8,22.8,,,,10+,29.91,,,TRUE,TRUE,,,,,,,SCT,1400,BKN,2800,OVC,4400,,,MVFR,,,,,,,,,,,,METAR,8
KT35 050055Z AUTO 11005KT 10SM OVC070 25/22 A2984 RMK AO2 T02450218,KT35,2024-05-05T00:55:00Z,30.8789,-96.9704,24.5,21.8,110,5,,10+,29.84,,,TRUE,TRUE,,,,,,,OVC,7000,,,,,,,VFR,,,,,,,,,,,,METAR,122
KT20 050055Z AUTO 13007KT 10SM CLR 26/21 A2982 RMK AO2 T02600208,KT20,2024-05-05T00:55:00Z,29.5301,-97.463,26,20.8,130,7,,10+,29.82,,,TRUE,TRUE,,,,,,,CLR,,,,,,,,VFR,,,,,,,,,,,,METAR,107
KSZY 050055Z AUTO 00000KT 8SM CLR 22/21 A2995 RMK A01,KSZY,2024-05-05T00:55:00Z,35.2064,-88.5012,22,21,0,0,,8,29.95,,,TRUE,TRUE,,,,,,,CLR,,,,,,,,VFR,,,,,,,,,,,,METAR,184
KSZT 050055Z AUTO 01008KT 10SM SCT060 OVC075 16/01 A2958 RMK AO2,KSZT,2024-05-05T00:55:00Z,48.2945,-116.567,16,1,10,8,,10+,29.58,,,TRUE,TRUE,,,,,,,SCT,6000,OVC,7500,,,,,VFR,,,,,,,,,,,,METAR,649
KSZL 050055Z AUTO 33009KT 10SM OVC023 16/11 A3002 RMK AO2 SLP166 T01590106 $,KSZL,2024-05-05T00:55:00Z,38.736,-93.55,15.9,10.6,330,9,,10+,30.02,1016.6,,TRUE,TRUE,TRUE,,,,,,OVC,2300,,,,,,,MVFR,,,,,,,,,,,,METAR,259
KSYN 050055Z AUTO 26003KT 10SM CLR 14/06 A2999 RMK AO2 T01390058,KSYN,2024-05-05T00:55:00Z,44.474,-93.014,13.9,5.8,260,3,,10+,29.99,,,TRUE,TRUE,,,,,,,CLR,,,,,,,,VFR,,,,,,,,,,,,METAR,280
KSYM 050055Z AUTO 00000KT 10SM BKN036 BKN044 BKN049 20/20 A2996 RMK AO2,KSYM,2024-05-05T00:55:00Z,38.2199,-83.5835,20,20,0,0,,10+,29.96,,,TRUE,TRUE,,,,,,,BKN,3600,BKN,4400,BKN,4900,,,VFR,,,,,,,,,,,,METAR,307
KSYI 050055Z AUTO 19003KT 10SM SCT038 BKN049 BKN065 22/18 A2997 RMK A01,KSYI,2024-05-05T00:55:00Z,35.5594,-86.4406,22,18,190,3,,10+,29.97,,,TRUE,TRUE,,,,,,,SCT,3800,BKN,4900,BKN,6500,,,VFR,,,,,,,,,,,,METAR,244
KSYF 050055Z AUTO 13010KT 10SM CLR 14/01 A3004 RMK AO2 T01430009 PWINO,KSYF,2024-05-05T00:55:00Z,39.7583,-101.793,14.3,0.9,130,10,,10+,30.04,,,TRUE,TRUE,,,,,TRUE,,CLR,,,,,,,,VFR,,,,,,,,,,,,METAR,1041
KSXU 050055Z AUTO 12016G19KT 10SM BKN050 19/07 A2998 RMK AO2 T01880065,KSXU,2024-05-05T00:55:00Z,34.9355,-104.637,18.8,6.5,120,16,19,10+,29.98,,,TRUE,TRUE,,,,,,,BKN,5000,,,,,,,VFR,,,,,,,,,,,,METAR,1465
KSXS 050055Z AUTO 22003KT 10SM BKN060 BKN070 27/20 A2997 RMK AO2 LTG DSNT E SLP147 T02700198,KSXS,2024-05-05T00:55:00Z,31.364,-85.846,27,19.8,220,3,,10+,29.97,1014.7,,TRUE,TRUE,,,,,,,BKN,6000,BKN,7000,,,,,VFR,,,,,,,,,,,,METAR,120
KSXK 050055Z AUTO 35006KT 10SM CLR 14/05 A3004 RMK AO2,KSXK,2024-05-05T00:55:00Z,42.9895,-96.1645,14,5,350,6,,10+,30.04,,,TRUE,TRUE,,,,,,,CLR,,,,,,,,VFR,,,,,,,,,,,,METAR,430
KSVN 050055Z AUTO 14003KT 10SM CLR 23/19 A3002 RMK AO2 SLP169 T02340191 $,KSVN,2024-05-05T00:55:00Z,32.011,-81.131,23.4,19.1,140,3,,10+,30.02,1016.9,,TRUE,TRUE,TRUE,,,,,,CLR,,,,,,,,VFR,,,,,,,,,,,,METAR,13
KSVC 050055Z AUTO 25008G15KT 10SM CLR 24/M11 A2993 RMK AO2 T02421115,KSVC,2024-05-05T00:55:00Z,32.631,-108.147,24.2,-11.5,250,8,15,10+,29.93,,,TRUE,TRUE,,,,,,,CLR,,,,,,,,VFR,,,,,,,,,,,,METAR,1638
KSUZ 050055Z AUTO 00000KT 9SM CLR 20/20 A2997 RMK A01,KSUZ,2024-05-05T00:55:00Z,34.5862,-92.4802,20,20,0,0,,9,29.97,,,TRUE,TRUE,,,,,,,CLR,,,,,,,,VFR,,,,,,,,,,,,METAR,114
KSUW 050055Z AUTO 17005KT 10SM CLR 11/08 A2997 RMK AO2 T01080075,KSUW,2024-05-05T00:55:00Z,46.6833,-92.0926,10.8,7.5,170,5,,10+,29.97,,,TRUE,TRUE,,,,,,,CLR,,,,,,,,VFR,,,,,,,,,,,,METAR,205
KSUU 050055Z AUTO 26019G25KT 10SM CLR 14/05 A2978 RMK AO2 PK WND 25031/02 SLPNO T01350046 $,KSUU,2024-05-05T00:55:00Z,38.25,-121.938,13.5,4.6,260,19,25,10+,29.78,,,TRUE,TRUE,TRUE,,,,,,CLR,,,,,,,,VFR,,,,,,,,,,,,METAR,9
KSUN 050055Z 12010G17KT 10SM OVC100 16/M02 A2957 RMK PRESFR,KSUN,2024-05-05T00:55:00Z,43.4969,-114.292,16,-2,120,10,17,10+,29.57,,,,,,,,,,,OVC,10000,,,,,,,VFR,,,,,,,,,,,,METAR,1619
KSTK 050055Z AUTO 12013G16KT 10SM CLR 16/01 A2997 RMK AO2,KSTK,2024-05-05T00:55:00Z,40.6133,-103.261,16,1,120,13,16,10+,29.97,,,TRUE,TRUE,,,,,,,CLR,,,,,,,,VFR,,,,,,,,,,,,METAR,1228
KSTF 050055Z AUTO 00000KT 10SM CLR 22/21 A2995 RMK AO2 P0001,KSTF,2024-05-05T00:55:00Z,33.4326,-88.8506,22,21,0,0,,10+,29.95,,,TRUE,TRUE,,,,,,,CLR,,,,,,,,VFR,,,,,,0.01,,,,,,METAR,99
KSTE 050055Z AUTO 29006KT 10SM BKN026 OVC035 13/09 A2992 RMK AO2 T01270090,KSTE,2024-05-05T00:55:00Z,44.5437,-89.5347,12.7,9,290,6,,10+,29.92,,,TRUE,TRUE,,,,,,,BKN,2600,OVC,3500,,,,,MVFR,,,,,,,,,,,,METAR,335
KSSI 050055Z AUTO 14008KT 10SM FEW020 24/21 A3004 RMK AO2,KSSI,2024-05-05T00:55:00Z,31.1527,-81.3905,24,21,140,8,,10+,30.04,,,TRUE,TRUE,,,,,,,FEW,2000,,,,,,,VFR,,,,,,,,,,,,METAR,6
KSRR 050055Z AUTO 12012KT 10SM FEW090 BKN110 16/05 A3005 RMK AO2,KSRR,2024-05-05T00:55:00Z,33.4667,-105.528,16,5,120,12,,10+,30.05,,,TRUE,TRUE,,,,,,,FEW,9000,BKN,11000,,,,,VFR,,,,,,,,,,,,METAR,2063
KSRE 050055Z AUTO 01009KT 10SM CLR 20/15 A2997 RMK AO2,KSRE,2024-05-05T00:55:00Z,35.271,-96.675,20,15,10,9,,10+,29.97,,,TRUE,TRUE,,,,,,,CLR,,,,,,,,VFR,,,,,,,,,,,,METAR,306
KSRB 050055Z AUTO 16003KT 10SM CLR 21/19 A2997 RMK AO2,KSRB,2024-05-05T00:55:00Z,36.0529,-85.536,21,19,160,3,,10+,29.97,,,TRUE,TRUE,,,,,,,CLR,,,,,,,,VFR,,,,,,,,,,,,METAR,303
KSPK 050055Z AUTO 17015KT 10SM FEW120 21/M01 A2961 RMK AO2,KSPK,2024-05-05T00:55:00Z,40.1497,-111.677,21,-1,170,15,,10+,29.61,,,TRUE,TRUE,,,,,,,FEW,12000,,,,,,,VFR,,,,,,,,,,,,METAR,1381
KSPF 050055Z AUTO 10011G17KT 10SM CLR 12/01 A2994 RMK AO2,KSPF,2024-05-05T00:55:00Z,44.4811,-103.788,12,1,100,11,17,10+,29.94,,,TRUE,TRUE,,,,,,,CLR,,,,,,,,VFR,,,,,,,,,,,,METAR,1191
KSPA 050055Z AUTO 00000KT 10SM BKN070 20/17 A3005 RMK AO2 LTG DSNT S,KSPA,2024-05-05T00:55:00Z,34.9106,-81.9589,20,17,0,0,,10+,30.05,,,TRUE,TRUE,,,,,,,BKN,7000,,,,,,,VFR,,,,,,,,,,,,METAR,242
KSOW 050055Z AUTO 23014G22KT 10SM CLR 20/M04 A2996 RMK AO2,KSOW,2024-05-05T00:55:00Z,34.2686,-110.002,20,-4,230,14,22,10+,29.96,,,TRUE,TRUE,,,,,,,CLR,,,,,,,,VFR,,,,,,,,,,,,METAR,1954
KSOA 050055Z AUTO 09006G13KT 10SM BKN014 BKN019 23/21 A2986 RMK AO2 LTG DSNT NE AND E,KSOA,2024-05-05T00:55:00Z,30.5853,-100.651,23,21,90,6,13,10+,29.86,,,TRUE,TRUE,,,,,,,BKN,1400,BKN,1900,,,,,MVFR,,,,,,,,,,,,METAR,654
KSNL 050055Z AUTO 02009KT 10SM SCT021 19/14 A2997 RMK AO2 T01930138,KSNL,2024-05-05T00:55:00Z,35.3611,-96.9445,19.3,13.8,20,9,,10+,29.97,,,TRUE,TRUE,,,,,,,SCT,2100,,,,,,,VFR,,,,,,,,,,,,METAR,327
KSNK 050055Z AUTO 33021G35KT 7SM TSRA SCT008 BKN060 OVC100 14/14 A3000 RMK AO2 LTG DSNT ALQS P0003 T01410137,KSNK,2024-05-05T00:55:00Z,32.6917,-100.951,14.1,13.7,330,21,35,7,30.00,,,TRUE,TRUE,,,,,,TSRA,SCT,800,BKN,6000,OVC,10000,,,VFR,,,,,,0.03,,,,,,METAR,738
KSNC 050055Z AUTO 12006G13KT 10SM OVC008 09/08 A3035 RMK AO2,KSNC,2024-05-05T00:55:00Z,41.383,-72.506,9,8,120,6,13,10+,30.35,,,TRUE,TRUE,,,,,,,OVC,800,,,,,,,IFR,,,,,,,,,,,,METAR,114
KSMS 050055Z AUTO 00000KT 7SM BKN027 BKN037 OVC045 20/20 A3007 RMK AO2,KSMS,2024-05-05T00:55:00Z,34.0003,-80.3582,20,20,0,0,,7,30.07,,,TRUE,TRUE,,,,,,,BKN,2700,BKN,3700,OVC,4500,,,MVFR,,,,,,,,,,,,METAR,53
KSME 050055Z AUTO 00000KT 10SM CLR 17/17 A2996 RMK AO2 LTG DSNT NE,KSME,2024-05-05T00:55:00Z,37.0529,-84.6141,17,17,0,0,,10+,29.96,,,TRUE,TRUE,,,,,,,CLR,,,,,,,,VFR,,,,,,,,,,,,METAR,279
KSMD 050055Z AUTO 12004KT 10SM CLR 22/18 A2989 RMK A01,KSMD,2024-05-05T00:55:00Z,41.144,-85.1492,22,18,120,4,,10+,29.89,,,TRUE,TRUE,,,,,,,CLR,,,,,,,,VFR,,,,,,,,,,,,METAR,252
KSLR 050055Z AUTO 11004KT 10SM SCT065 26/19 A2995 RMK AO2 T02550189,KSLR,2024-05-05T00:55:00Z,33.1615,-95.6189,25.5,18.9,110,4,,10+,29.95,,,TRUE,TRUE,,,,,,,SCT,6500,,,,,,,VFR,,,,,,,,,,,,METAR,144
KSLO 050055Z AUTO 25007KT 10SM TSRA SCT055 SCT070 OVC120 19/17 A2994 RMK AO2 LTG DSNT N SE AND S T01920174,KSLO,2024-05-05T00:55:00Z,38.6446,-88.9612,19.2,17.4,250,7,,10+,29.94,,,TRUE,TRUE,,,,,,TSRA,SCT,5500,SCT,7000,OVC,12000,,,VFR,,,,,,,,,,,,METAR,173
KSLI 050055Z AUTO 29008KT 7SM OVC019 17/13 A2987 RMK AO2 SLPNO T01700125,KSLI,2024-05-05T00:55:00Z,33.796,-118.042,17,12.5,290,8,,7,29.87,,,TRUE,TRUE,,,,,,,OVC,1900,,,,,,,MVFR,,,,,,,,,,,,METAR,8
KSLH 050055Z AUTO 00000KT 10SM CLR 11/09 A2982 RMK AO2,KSLH,2024-05-05T00:55:00Z,45.6523,-84.5202,11,9,0,0,,10+,29.82,,,TRUE,TRUE,,,,,,,CLR,,,,,,,,VFR,,,,,,,,,,,,METAR,193
KSLB 050055Z AUTO 34005KT 10SM FEW065 13/07 A3005 RMK AO2,KSLB,2024-05-05T00:55:00Z,42.5972,-95.2399,13,7,340,5,,10+,30.05,,,TRUE,TRUE,,,,,,,FEW,6500,,,,,,,VFR,,,,,,,,,,,,METAR,450
KSKF 050055Z AUTO 11013KT 10SM SCT060 BKN075 28/19 A2977 RMK AO2 SLP074 T02750193 $,KSKF,2024-05-05T00:55:00Z,29.392,-98.581,27.5,19.3,110,13,,10+,29.77,1007.4,,TRUE,TRUE,TRUE,,,,,,SCT,6000,BKN,7500,,,,,VFR,,,,,,,,,,,,METAR,214
KSKA 050055Z 06008KT 10SM BKN080 OVC120 18/00 A2950 RMK AO2A SLPNO T01790001 $,KSKA,2024-05-05T00:55:00Z,47.612,-117.679,17.9,0.1,60,8,,10+,29.50,,,,TRUE,TRUE,,,,,,BKN,8000,OVC,12000,,,,,VFR,,,,,,,,,,,,METAR,754
KSJX 050055Z AUTO 10007KT 10SM BKN070 10/08 A2982 RMK AO2 T00950076,KSJX,2024-05-05T00:55:00Z,45.6928,-85.5662,9.5,7.6,100,7,,10+,29.82,,,TRUE,TRUE,,,,,,,BKN,7000,,,,,,,VFR,,,,,,,,,,,,METAR,202
KSJS 050055Z AUTO 14004KT 10SM SCT055 SCT090 19/18 A2999 RMK AO2 T01920181,KSJS,2024-05-05T00:55:00Z,37.7489,-82.6413,19.2,18.1,140,4,,10+,29.99,,,TRUE,TRUE,,,,,,,SCT,5500,SCT,9000,,,,,VFR,,,,,,,,,,,,METAR,359
KSHM 050055Z AUTO 17010KT 10SM CLR 12/M02 A2999 RMK AO2 SLPNO T01171022 $,KSHM,2024-05-05T00:55:00Z,38.8,-104.52,11.7,-2.2,170,10,,10+,29.99,,,TRUE,TRUE,TRUE,,,,,,CLR,,,,,,,,VFR,,,,,,,,,,,,METAR,1900
KSHL 050055Z AUTO 31005KT 10SM OVC060 14/04 A3003 RMK AO2,KSHL,2024-05-05T00:55:00Z,43.2082,-95.8354,14,4,310,5,,10+,30.03,,,TRUE,TRUE,,,,,,,OVC,6000,,,,,,,VFR,,,,,,,,,,,,METAR,430
KSHD 050055Z AUTO 13004KT 10SM OVC014 13/11 A3018 RMK AO2 T01250110,KSHD,2024-05-05T00:55:00Z,38.2601,-78.9013,12.5,11,130,4,,10+,30.18,,,TRUE,TRUE,,,,,,,OVC,1400,,,,,,,MVFR,,,,,,,,,,,,METAR,360
KSGS 050055Z AUTO 00000KT 10SM CLR 15/04 A2998 RMK AO2 T01490039,KSGS,2024-05-05T00:55:00Z,44.8601,-93.0321,14.9,3.9,0,0,,10+,29.98,,,TRUE,TRUE,,,,,,,CLR,,,,,,,,VFR,,,,,,,,,,,,METAR,250
KSFQ 050055Z AUTO 06004KT 7SM -DZ SCT015 BKN055 OVC085 18/16 A3016 RMK AO2 T01750160,KSFQ,2024-05-05T00:55:00Z,36.6825,-76.6013,17.5,16,60,4,,7,30.16,,,TRUE,TRUE,,,,,,-DZ,SCT,1500,BKN,5500,OVC,8500,,,VFR,,,,,,,,,,,,METAR,19
KSEZ 050055Z AUTO 18012G23KT 10SM CLR 22/M01 A2987 RMK AO2,KSEZ,2024-05-05T00:55:00Z,34.8467,-111.788,22,-1,180,12,23,10+,29.87,,,TRUE,TRUE,,,,,,,CLR,,,,,,,,VFR,,,,,,,,,,,,METAR,1455
KSEQ 050055Z AUTO 11011KT M M CLR 26/21 A2978 RMK AO2 LTG DSNT N SLP080 T02640211 RVRNO PWINO $,KSEQ,2024-05-05T00:55:00Z,29.566,-97.908,26.4,21.1,110,11,,,29.78,1008,,TRUE,TRUE,TRUE,,,,TRUE,,CLR,,,,,,,,,,,,,,,,,,,,METAR,160
KSEP 050055Z AUTO 09007KT 5SM BKN005 OVC027 21/20 A2990 RMK AO2 T02120201,KSEP,2024-05-05T00:55:00Z,32.215,-98.1793,21.2,20.1,90,7,,5,29.90,,,TRUE,TRUE,,,,,,,BKN,500,OVC,2700,,,,,IFR,,,,,,,,,,,,METAR,399
KSEM 050055Z AUTO 00000KT 10SM CLR 24/22 A2997 RMK AO2,KSEM,2024-05-05T00:55:00Z,32.3367,-86.9836,24,22,0,0,,10+,29.97,,,TRUE,TRUE,,,,,,,CLR,,,,,,,,VFR,,,,,,,,,,,,METAR,48
KSEF 050055Z AUTO 09013KT 10SM OVC100 25/19 A3001 RMK AO2 T02530194,KSEF,2024-05-05T00:55:00Z,27.4553,-81.3415,25.3,19.4,90,13,,10+,30.01,,,TRUE,TRUE,,,,,,,OVC,10000,,,,,,,VFR,,,,,,,,,,,,METAR,17
KSDC 050055Z AUTO 15005KT 10SM OVC120 17/06 A3011 RMK AO2,KSDC,2024-05-05T00:55:00Z,43.2355,-77.1201,17,6,150,5,,10+,30.11,,,TRUE,TRUE,,,,,,,OVC,12000,,,,,,,VFR,,,,,,,,,,,,METAR,127
KSDA 050055Z AUTO 00000KT 10SM CLR 14/08 A3006 RMK AO2,KSDA,2024-05-05T00:55:00Z,40.7533,-95.4112,14,8,0,0,,10+,30.06,,,TRUE,TRUE,,,,,,,CLR,,,,,,,,VFR,,,,,,,,,,,,METAR,293
KSCX 050055Z AUTO 00000KT 10SM SCT110 19/19 A2999 RMK A01,KSCX,2024-05-05T00:55:00Z,36.4553,-84.584,19,19,0,0,,10+,29.99,,,TRUE,TRUE,,,,,,,SCT,11000,,,,,,,VFR,,,,,,,,,,,,METAR,462
KSCK 050055Z 24007KT 10SM FEW034 SCT048 13/07 A2983 RMK AO2 SLP101 T01330072,KSCK,2024-05-05T00:55:00Z,37.89,-121.226,13.3,7.2,240,7,,10+,29.83,1010.1,,,TRUE,,,,,,,FEW,3400,SCT,4800,,,,,VFR,,,,,,,,,,,,METAR,8
KSCD 050055Z AUTO 00000KT 10SM OVC110 22/19 A2999 RMK AO2 T02230186,KSCD,2024-05-05T00:55:00Z,33.1732,-86.2933,22.3,18.6,0,0,,10+,29.99,,,TRUE,TRUE,,,,,,,OVC,11000,,,,,,,VFR,,,,,,,,,,,,METAR,164
KSBX 050055Z AUTO 11013G18KT 10SM CLR 14/M02 A2977 RMK AO2,KSBX,2024-05-05T00:55:00Z,48.541,-111.871,14,-2,110,13,18,10+,29.77,,,TRUE,TRUE,,,,,,,CLR,,,,,,,,VFR,,,,,,,,,,,,METAR,1049
KSBS 050055Z AUTO 27003KT 10SM CLR 17/M05 A2986 RMK AO1 T01651054,KSBS,2024-05-05T00:55:00Z,40.5153,-106.868,16.5,-5.4,270,3,,10+,29.86,,,TRUE,TRUE,,,,,,,CLR,,,,,,,,VFR,,,,,,,,,,,,METAR,2097
KSAZ 050055Z AUTO 31005KT 10SM CLR 14/03 A2998 RMK AO2,KSAZ,2024-05-05T00:55:00Z,46.3785,-94.8017,14,3,310,5,,10+,29.98,,,TRUE,TRUE,,,,,,,CLR,,,,,,,,VFR,,,,,,,,,,,,METAR,391
KSAR 050055Z AUTO 23006KT 7SM TSRA SCT045 SCT075 OVC100 19/18 A2995 RMK AO2 LTG DSNT ALQDS P0016 T01850182,KSAR,2024-05-05T00:55:00Z,38.1463,-89.7025,18.5,18.2,230,6,,7,29.95,,,TRUE,TRUE,,,,,,TSRA,SCT,4500,SCT,7500,OVC,10000,,,VFR,,,,,,0.16,,,,,,METAR,162
KSAA 050055Z AUTO 29004KT 10SM CLR 16/M09 A2990 RMK AO2,KSAA,2024-05-05T00:55:00Z,41.447,-106.815,16,-9,290,4,,10+,29.90,,,TRUE,TRUE,,,,,,,CLR,,,,,,,,VFR,,,,,,,,,,,,METAR,2093
KS85 050055Z AUTO 03003KT 10SM CLR 14/M01 A2991 RMK A01 Culbertson ,KS85,2024-05-05T00:55:00Z,48.1525,-104.498,14,-1,30,3,,10+,29.91,,,TRUE,TRUE,,,,,,,CLR,,,,,,,,VFR,,,,,,,,,,,,METAR,596
KS52 050055Z AUTO 32003KT 10SM CLR 11/08 A2962 RMK AO2 T01110078,KS52,2024-05-05T00:55:00Z,48.4282,-120.15,11.1,7.8,320,3,,10+,29.62,,,TRUE,TRUE,,,,,,,CLR,,,,,,,,VFR,,,,,,,,,,,,METAR,517
KS39 050055Z AUTO 29011G17KT 4SM -RA SCT014 OVC027 04/03 A2955 RMK AO2 P0005,KS39,2024-05-05T00:55:00Z,44.2858,-120.901,4,3,290,11,17,4,29.55,,,TRUE,TRUE,,,,,,-RA,SCT,1400,OVC,2700,,,,,MVFR,,,,,,0.05,,,,,,METAR,987
KS34 050055Z AUTO VRB03KT 10SM FEW038 SCT060 OVC070 17/03 A2958 RMK AO2,KS34,2024-05-05T00:55:00Z,47.4718,-114.901,17,3,VRB,3,,10+,29.58,,,TRUE,TRUE,,,,,,,FEW,3800,SCT,6000,OVC,7000,,,VFR,,,,,,,,,,,,METAR,750
KS33 050055Z AUTO 00000KT 10SM RA SCT035 OVC045 06/03 A2958 RMK AO2,KS33,2024-05-05T00:55:00Z,44.6653,-121.157,6,3,0,0,,10+,29.58,,,TRUE,TRUE,,,,,,RA,SCT,3500,OVC,4500,,,,,VFR,,,,,,,,,,,,METAR,739
KS32 050055Z AUTO 36004KT 10SM 12/06 A3000 RMK AO2 TSNO,KS32,2024-05-05T00:55:00Z,47.424,-98.11,12,6,360,4,,10+,30.00,,,TRUE,TRUE,,,TRUE,,,,,,,,,,,,VFR,,,,,,,,,,,,METAR,435
KS25 050055Z AUTO 00000KT 10SM CLR 13/01 A2996 RMK AO2,KS25,2024-05-05T00:55:00Z,47.7954,-103.257,13,1,0,0,,10+,29.96,,,TRUE,TRUE,,,,,,,CLR,,,,,,,,VFR,,,,,,,,,,,,METAR,632
KS21 050055Z AUTO 00000KT 9SM SCT029 BKN037 03/01 A2958 RMK AO2 P0001,KS21,2024-05-05T00:55:00Z,43.8801,-121.454,3,1,0,0,,9,29.58,,,TRUE,TRUE,,,,,,,SCT,2900,BKN,3700,,,,,VFR,,,,,,0.01,,,,,,METAR,1269
KS12 050055Z VRB04KT 7SM -RA CLR 10/08 A2968 RMK AO2 P0002 CAUTION: LARGE BIRDS IN VICINITY OF AIRPORT,KS12,2024-05-05T00:55:00Z,44.6394,-123.058,10,8,VRB,4,,7,29.68,,,,TRUE,,,,,,-RA,CLR,,,,,,,,VFR,,,,,,0.02,,,,,,METAR,69
KRZT 050055Z AUTO 18003KT 10SM SCT090 SCT120 17/17 A2993 RMK AO2 P0001 PWINO,KRZT,2024-05-05T00:55:00Z,39.4402,-83.0209,17,17,180,3,,10+,29.93,,,TRUE,TRUE,,,,,TRUE,,SCT,9000,SCT,12000,,,,,VFR,,,,,,0.01,,,,,,METAR,217
KRZR 050055Z AUTO VRB05KT 10SM FEW037 SCT044 BKN050 23/20 A2997 RMK A01,KRZR,2024-05-05T00:55:00Z,35.207,-84.8005,23,20,VRB,5,,10+,29.97,,,TRUE,TRUE,,,,,,,FEW,3700,SCT,4400,BKN,5000,,,VFR,,,,,,,,,,,,METAR,259
KRZN 050055Z AUTO 00000KT 10SM CLR 13/05 A2998 RMK AO2 T01250053,KRZN,2024-05-05T00:55:00Z,45.8229,-92.3706,12.5,5.3,0,0,,10+,29.98,,,TRUE,TRUE,,,,,,,CLR,,,,,,,,VFR,,,,,,,,,,,,METAR,301
KRZL 050055Z AUTO 00000KT 10SM CLR 22/14 A2984 RMK AO2,KRZL,2024-05-05T00:55:00Z,40.9488,-87.1851,22,14,0,0,,10+,29.84,,,TRUE,TRUE,,,,,,,CLR,,,,,,,,VFR,,,,,,,,,,,,METAR,210
KRYV 050055Z AUTO 31007G17KT 10SM SCT036 BKN048 OVC050 14/12 A2989 RMK AO2 T01410122,KRYV,2024-05-05T00:55:00Z,43.1702,-88.7251,14.1,12.2,310,7,17,10+,29.89,,,TRUE,TRUE,,,,,,,SCT,3600,BKN,4800,OVC,5000,,,VFR,,,,,,,,,,,,METAR,249
KRYM 050055Z AUTO 31008KT 10SM CLR 15/02 A2995 RMK AO2 SLP150 T01480020 $,KRYM,2024-05-05T00:55:00Z,46.0878,-94.353,14.8,2,310,8,,10+,29.95,1015,,TRUE,TRUE,TRUE,,,,,,CLR,,,,,,,,VFR,,,,,,,,,,,,METAR,344
KRVL 050055Z AUTO 11003KT 4SM -RA BKN001 OVC012 11/10 A3019 RMK AO2 P0004,KRVL,2024-05-05T00:55:00Z,40.6768,-77.6251,11,10,110,3,,4,30.19,,,TRUE,TRUE,,,,,,-RA,BKN,100,OVC,1200,,,,,LIFR,,,,,,0.04,,,,,,METAR,250
KRVJ 050055Z AUTO 00000KT 10SM SCT034 SCT044 23/22 A3003 RMK AO2 T02290215,KRVJ,2024-05-05T00:55:00Z,32.059,-82.153,22.9,21.5,0,0,,10+,30.03,,,TRUE,TRUE,,,,,,,SCT,3400,SCT,4400,,,,,VFR,,,,,,,,,,,,METAR,60
KRVF 050055Z AUTO 31003KT 10SM CLR 16/M02 A2966 RMK AO2,KRVF,2024-05-05T00:55:00Z,45.534,-112.303,16,-2,310,3,,10+,29.66,,,TRUE,TRUE,,,,,,,CLR,,,,,,,,VFR,,,,,,,,,,,,METAR,1445
KRSN 050055Z AUTO 00000KT 6SM BR CLR 23/23 A2994 RMK AO2 T02330230 $,KRSN,2024-05-05T00:55:00Z,32.5159,-92.5899,23.3,23,0,0,,6,29.94,,,TRUE,TRUE,TRUE,,,,,BR,CLR,,,,,,,,VFR,,,,,,,,,,,,METAR,86
KRRT 050055Z AUTO 33003KT 10SM BKN039 OVC060 10/06 A2999 RMK AO2,KRRT,2024-05-05T00:55:00Z,48.9318,-95.3405,10,6,330,3,,10+,29.99,,,TRUE,TRUE,,,,,,,BKN,3900,OVC,6000,,,,,VFR,,,,,,,,,,,,METAR,327
KRRL 050055Z AUTO 31006KT 10SM OVC036 11/09 A2991 RMK AO2 T01100087 TSNO,KRRL,2024-05-05T00:55:00Z,45.1985,-89.71,11,8.7,310,6,,10+,29.91,,,TRUE,TRUE,,,TRUE,,,,OVC,3600,,,,,,,VFR,,,,,,,,,,,,METAR,397
KRQO 050055Z AUTO 03010KT 10SM CLR 16/13 A2999 RMK AO2 T01640131,KRQO,2024-05-05T00:55:00Z,35.4709,-98.0061,16.4,13.1,30,10,,10+,29.99,,,TRUE,TRUE,,,,,,,CLR,,,,,,,,VFR,,,,,,,,,,,,METAR,431
KRQB 050055Z AUTO 12007KT 100V160 10SM BKN033 BKN038 OVC046 21/15 A2987 RMK AO2 T02050150,KRQB,2024-05-05T00:55:00Z,43.722,-85.498,20.5,15,120,7,,10+,29.87,,,TRUE,TRUE,,,,,,,BKN,3300,BKN,3800,OVC,4600,,,VFR,,,,,,,,,,,,METAR,282
KRPJ 050055Z AUTO 31010G17KT 10SM SCT020 SCT029 BKN043 18/14 A2990 RMK AO2 T01760140,KRPJ,2024-05-05T00:55:00Z,41.8906,-89.0817,17.6,14,310,10,17,10+,29.90,,,TRUE,TRUE,,,,,,,SCT,2000,SCT,2900,BKN,4300,,,VFR,,,,,,,,,,,,METAR,234
KRPH 050055Z AUTO 10006KT 9SM BKN011 BKN022 BKN220 22/21 A2984 RMK AO2 T02210207,KRPH,2024-05-05T00:55:00Z,33.1096,-98.5537,22.1,20.7,100,6,,9,29.84,,,TRUE,TRUE,,,,,,,BKN,1100,BKN,2200,BKN,22000,,,MVFR,,,,,,,,,,,,METAR,341
KRPD 050055Z AUTO 00000KT 7SM CLR 12/05 A2999 RMK AO2 T01220050,KRPD,2024-05-05T00:55:00Z,45.4186,-91.7764,12.2,5,0,0,,7,29.99,,,TRUE,TRUE,,,,,,,CLR,,,,,,,,VFR,,,,,,,,,,,,METAR,334
KROX 050055Z AUTO 32007KT 10SM OVC060 11/06 A2999 RMK AO2,KROX,2024-05-05T00:55:00Z,48.856,-95.6949,11,6,320,7,,10+,29.99,,,TRUE,TRUE,,,,,,,OVC,6000,,,,,,,VFR,,,,,,,,,,,,METAR,320
KROS 050055Z AUTO 00000KT 10SM CLR 15/03 A2997 RMK AO2 T01460028,KROS,2024-05-05T00:55:00Z,45.6962,-92.9543,14.6,2.8,0,0,,10+,29.97,,,TRUE,TRUE,,,,,,,CLR,,,,,,,,VFR,,,,,,,,,,,,METAR,282
KRNP 050055Z AUTO 12004KT 10SM CLR 20/15 A2987 RMK AO2 T01960153,KRNP,2024-05-05T00:55:00Z,42.9937,-84.1347,19.6,15.3,120,4,,10+,29.87,,,TRUE,TRUE,,,,,,,CLR,,,,,,,,VFR,,,,,,,,,,,,METAR,224
KRNO 050055Z 24007G21KT 140V280 10SM SCT033 BKN060 BKN130 06/M04 A2964 RMK AO2 PK WND 28033/0033 RAE2357 SLP013 MTN OBSCD SW VC SH P0000 T00611044 $,KRNO,2024-05-05T00:55:00Z,39.5077,-119.768,6.1,-4.4,240,7,21,10+,29.64,1001.3,,,TRUE,TRUE,,,,,,SCT,3300,BKN,6000,BKN,13000,,,VFR,,,,,,0.005,,,,,,METAR,1344
KRNH 050055Z AUTO 00000KT 10SM CLR 13/04 A2998 RMK AO2 T01300038,KRNH,2024-05-05T00:55:00Z,45.1476,-92.5335,13,3.8,0,0,,10+,29.98,,,TRUE,TRUE,,,,,,,CLR,,,,,,,,VFR,,,,,,,,,,,,METAR,302
KRND 050055Z AUTO 12011KT 10SM CLR 27/20 A2978 RMK AO2 SLP077 T02680199,KRND,2024-05-05T00:55:00Z,29.537,-98.268,26.8,19.9,120,11,,10+,29.78,1007.7,,TRUE,TRUE,,,,,,,CLR,,,,,,,,VFR,,,,,,,,,,,,METAR,224
KRNC 050055Z AUTO 00000KT 10SM FEW120 21/19 A2997 RMK A01,KRNC,2024-05-05T00:55:00Z,35.6991,-85.8402,21,19,0,0,,10+,29.97,,,TRUE,TRUE,,,,,,,FEW,12000,,,,,,,VFR,,,,,,,,,,,,METAR,310
KRMY 050055Z AUTO 14004KT 10SM CLR 19/16 A2988 RMK AO2 T01930156,KRMY,2024-05-05T00:55:00Z,42.2524,-84.9526,19.3,15.6,140,4,,10+,29.88,,,TRUE,TRUE,,,,,,,CLR,,,,,,,,VFR,,,,,,,,,,,,METAR,285
KRMN 050055Z AUTO 07005KT 1 1/2SM DZ OVC005 12/11 A3020 RMK AO2 T01230105,KRMN,2024-05-05T00:55:00Z,38.3941,-77.4523,12.3,10.5,70,5,,1.5,30.20,,,TRUE,TRUE,,,,,,DZ,OVC,500,,,,,,,IFR,,,,,,,,,,,,METAR,50
KRLD 050055Z AUTO 30013KT 10SM BKN090 18/08 A2945 RMK AO2 T01780080,KRLD,2024-05-05T00:55:00Z,46.3086,-119.306,17.8,8,300,13,,10+,29.45,,,TRUE,TRUE,,,,,,,BKN,9000,,,,,,,VFR,,,,,,,,,,,,METAR,118
KRKW 050055Z AUTO VRB05KT 5SM BR FEW031 BKN070 OVC090 19/19 A3001 RMK A01 P0035,KRKW,2024-05-05T00:55:00Z,35.922,-84.689,19,19,VRB,5,,5,30.01,,,TRUE,TRUE,,,,,,BR,FEW,3100,BKN,7000,OVC,9000,,,MVFR,,,,,,0.35,,,,,,METAR,505
KRKR 050055Z AUTO 02006KT 10SM CLR 24/20 A2990 RMK AO2,KRKR,2024-05-05T00:55:00Z,35.0187,-94.6202,24,20,20,6,,10+,29.90,,,TRUE,TRUE,,,,,,,CLR,,,,,,,,VFR,,,,,,,,,,,,METAR,136
KRIV 050055Z 29008KT 10SM SCT025 SCT035 BKN150 18/10 A2987 RMK AO2A SCT025 V BKN SLP111 T01750099,KRIV,2024-05-05T00:55:00Z,33.878,-117.244,17.5,9.9,290,8,,10+,29.87,1011.1,,,TRUE,,,,,,,SCT,2500,SCT,3500,BKN,15000,,,VFR,,,,,,,,,,,,METAR,454
KRGK 050055Z AUTO 00000KT 10SM CLR 14/06 A2998 RMK AO2,KRGK,2024-05-05T00:55:00Z,44.5927,-92.4844,14,6,0,0,,10+,29.98,,,TRUE,TRUE,,,,,,,CLR,,,,,,,,VFR,,,,,,,,,,,,METAR,238
KRGA 050055Z AUTO 21007KT 10SM SCT110 18/17 A2996 RMK AO2,KRGA,2024-05-05T00:55:00Z,37.6305,-84.329,18,17,210,7,,10+,29.96,,,TRUE,TRUE,,,,,,,SCT,11000,,,,,,,VFR,,,,,,,,,,,,METAR,301
KRFI 050055Z AUTO 00000KT 10SM CLR 26/19 A2994 RMK AO2 T02580186,KRFI,2024-05-05T00:55:00Z,32.1441,-94.8539,25.8,18.6,0,0,,10+,29.94,,,TRUE,TRUE,,,,,,,CLR,,,,,,,,VFR,,,,,,,,,,,,METAR,133
KREG 050055Z AUTO 18004KT 10SM CLR 25/21 A2995 RMK AO2 T02510210,KREG,2024-05-05T00:55:00Z,30.1756,-90.9397,25.1,21,180,4,,10+,29.95,,,TRUE,TRUE,,,,,,,CLR,,,,,,,,VFR,,,,,,,,,,,,METAR,3
KRDR 050055Z AUTO 01007KT 10SM BKN050 OVC060 11/06 A2998 RMK AO2 SLP163 T01120055 $,KRDR,2024-05-05T00:55:00Z,47.9477,-97.4029,11.2,5.5,10,7,,10+,29.98,1016.3,,TRUE,TRUE,TRUE,,,,,,BKN,5000,OVC,6000,,,,,VFR,,,,,,,,,,,,METAR,276
KRDK 050055Z AUTO 06004KT 10SM CLR 14/08 A3007 RMK AO2,KRDK,2024-05-05T00:55:00Z,41.0107,-95.2622,14,8,60,4,,10+,30.07,,,TRUE,TRUE,,,,,,,CLR,,,,,,,,VFR,,,,,,,,,,,,METAR,317
KRCX 050055Z AUTO 34005KT 10SM SCT029 10/05 A2999 RMK AO2 T01010050,KRCX,2024-05-05T00:55:00Z,45.4935,-90.9985,10.1,5,340,5,,10+,29.99,,,TRUE,TRUE,,,,,,,SCT,2900,,,,,,,VFR,,,,,,,,,,,,METAR,373
KRCV 050055Z AUTO 27016G26KT 10SM OVC110 12/M01 A3004 RMK AO2 LTG DSNT E T01201011,KRCV,2024-05-05T00:55:00Z,37.7092,-106.355,12,-1.1,270,16,26,10+,30.04,,,TRUE,TRUE,,,,,,,OVC,11000,,,,,,,VFR,,,,,,,,,,,,METAR,2418
KRCR 050055Z AUTO 00000KT 9SM CLR 24/17 A2986 RMK AO2,KRCR,2024-05-05T00:55:00Z,41.0651,-86.1864,24,17,0,0,,9,29.86,,,TRUE,TRUE,,,,,,,CLR,,,,,,,,VFR,,,,,,,,,,,,METAR,240
KRCM 050055Z AUTO 34004KT 10SM OVC026 15/09 A3005 RMK AO2,KRCM,2024-05-05T00:55:00Z,38.7855,-93.8058,15,9,340,4,,10+,30.05,,,TRUE,TRUE,,,,,,,OVC,2600,,,,,,,MVFR,,,,,,,,,,,,METAR,242
KRCE 050055Z AUTO 04011G16KT 10SM CLR 17/13 A2996 RMK AO2 TSNO,KRCE,2024-05-05T00:55:00Z,35.4971,-97.8255,17,13,40,11,16,10+,29.96,,,TRUE,TRUE,,,TRUE,,,,CLR,,,,,,,,VFR,,,,,,,,,,,,METAR,412
KRCA 050055Z AUTO 13013KT 10SM CLR 15/01 A2990 RMK AO2 SLP132 T01480006 $,KRCA,2024-05-05T00:55:00Z,44.155,-103.118,14.8,0.6,130,13,,10+,29.90,1013.2,,TRUE,TRUE,TRUE,,,,,,CLR,,,,,,,,VFR,,,,,,,,,,,,METAR,993
KRBW 050055Z AUTO 15003KT 10SM SCT060 21/21 A3007 RMK AO2,KRBW,2024-05-05T00:55:00Z,32.921,-80.64,21,21,150,3,,10+,30.07,,,TRUE,TRUE,,,,,,,SCT,6000,,,,,,,VFR,,,,,,,,,,,,METAR,30
KRAW 050055Z AUTO 01010KT 10SM SCT023 15/11 A3003 RMK AO2,KRAW,2024-05-05T00:55:00Z,38.3484,-93.3436,15,11,10,10,,10+,30.03,,,TRUE,TRUE,,,,,,,SCT,2300,,,,,,,VFR,,,,,,,,,,,,METAR,285
KRAS 050055Z AUTO 08007KT 5SM BR SCT009 BKN014 OVC031 26/24 A2983 RMK AO2 T02600241,KRAS,2024-05-05T00:55:00Z,27.8083,-97.0853,26,24.1,80,7,,5,29.83,,,TRUE,TRUE,,,,,,BR,SCT,900,BKN,1400,OVC,3100,,,MVFR,,,,,,,,,,,,METAR,3
KQTZ 050055Z 13005KT 9999 SKC 21/18 A2972 RMK SLP067,KQTZ,2024-05-05T00:55:00Z,-99.99,-99.99,21,18,130,5,,6+,29.72,1006.7,,,,,,,,,,SKC,,,,,,,,VFR,,,,,,,,,,,,METAR,9999
KQRH 050055Z AUTO VRB03KT 9999 FEW029 30/27 A2968 RMK AO2 SLP053 WND DATA ESTMD T02960266,KQRH,2024-05-05T00:55:00Z,-99.99,-99.99,29.6,26.6,VRB,3,,6+,29.68,1005.3,,TRUE,TRUE,,,,,,,FEW,2900,,,,,,,VFR,,,,,,,,,,,,METAR,9999
KQN3 050055Z VRB05G12KT 9999 CLR 35/18 A2976 RMK AO2A SLP064 WND DATA ESTMD T03470183,KQN3,2024-05-05T00:55:00Z,-99.99,-99.99,34.7,18.3,VRB,5,12,6+,29.76,1006.4,,,TRUE,,,,,,,CLR,,,,,,,,VFR,,,,,,,,,,,,METAR,9999
KQHY 050055Z AUTO 00000KT 10SM CLR 25/22 A3000 RMK AO2 SLP167 T02490218,KQHY,2024-05-05T00:55:00Z,-99.99,-99.99,24.9,21.8,0,0,,10+,30.00,1016.7,,TRUE,TRUE,,,,,,,CLR,,,,,,,,VFR,,,,,,,,,,,,METAR,9999
KQDG 050055Z AUTO 09007KT 9999 CLR 17/10 A3012 RMK AO2 SLP201 T01710098 $,KQDG,2024-05-05T00:55:00Z,-99.99,-99.99,17.1,9.8,90,7,,6+,30.12,1020.1,,TRUE,TRUE,TRUE,,,,,,CLR,,,,,,,,VFR,,,,,,,,,,,,METAR,9999
KQD3 050055Z VRB03KT 9999 FEW060 28/23 A2974 RMK SLPNO WND DATA ESTMD SLP/ALSTG ESTMD $,KQD3,2024-05-05T00:55:00Z,-99.99,-99.99,28,23,VRB,3,,6+,29.74,,,,,TRUE,,,,,,FEW,6000,,,,,,,VFR,,,,,,,,,,,,METAR,9999
KPZZ 050055Z AUTO 10014KT 9SM CLR 25/23 A2996 RMK A01,KPZZ,2024-05-05T00:55:00Z,28.4344,-91.0344,25,23,100,14,,9,29.96,,,TRUE,TRUE,,,,,,,CLR,,,,,,,,VFR,,,,,,,,,,,,METAR,25
KPZQ 050055Z AUTO 13009KT 10SM CLR 15/12 A2987 RMK AO2 T01460117,KPZQ,2024-05-05T00:55:00Z,45.4085,-83.812,14.6,11.7,130,9,,10+,29.87,,,TRUE,TRUE,,,,,,,CLR,,,,,,,,VFR,,,,,,,,,,,,METAR,199
KPYX 050055Z AUTO 08007KT 10SM OVC026 A3001 RMK AO2 P0001,KPYX,2024-05-05T00:55:00Z,36.4103,-100.751,,,80,7,,10+,30.01,,,TRUE,TRUE,,,,,,,OVC,2600,,,,,,,MVFR,,,,,,0.01,,,,,,METAR,890
KPXE 050055Z AUTO 19006KT 10SM CLR 21/20 A3003 RMK AO2 T02080196,KPXE,2024-05-05T00:55:00Z,32.5072,-83.7656,20.8,19.6,190,6,,10+,30.03,,,TRUE,TRUE,,,,,,,CLR,,,,,,,,VFR,,,,,,,,,,,,METAR,126
KPWD 050055Z AUTO 15006KT 10SM CLR 12/01 A2994 RMK AO2,KPWD,2024-05-05T00:55:00Z,48.7912,-104.525,12,1,150,6,,10+,29.94,,,TRUE,TRUE,,,,,,,CLR,,,,,,,,VFR,,,,,,,,,,,,METAR,690
KPVJ 050055Z AUTO 10SM SCT034 SCT046 SCT060 20/18 A2992 RMK AO2 T01950175,KPVJ,2024-05-05T00:55:00Z,34.7041,-97.2211,19.5,17.5,,,,10+,29.92,,,TRUE,TRUE,,,,,,,SCT,3400,SCT,4600,SCT,6000,,,VFR,,,,,,,,,,,,METAR,287
KPVF 050055Z AUTO 15010KT 5SM OVC005 03/03 A2979 RMK AO1 P0001,KPVF,2024-05-05T00:55:00Z,38.7222,-120.757,3,3,150,10,,5,29.79,,,TRUE,TRUE,,,,,,,OVC,500,,,,,,,IFR,,,,,,0.01,,,,,,METAR,788
KPVE 050055Z AUTO 00000KT 2SM BR BKN043 21/21 A2994 RMK A01,KPVE,2024-05-05T00:55:00Z,35.6592,-88.1929,21,21,0,0,,2,29.94,,,TRUE,TRUE,,,,,,BR,BKN,4300,,,,,,,IFR,,,,,,,,,,,,METAR,146
KPVB 050055Z AUTO 32012KT 10SM OVC026 14/09 A2995 RMK AO1 T01380086,KPVB,2024-05-05T00:55:00Z,42.6909,-90.4413,13.8,8.6,320,12,,10+,29.95,,,TRUE,TRUE,,,,,,,OVC,2600,,,,,,,MVFR,,,,,,,,,,,,METAR,311
KPUJ 050055Z AUTO 00000KT 10SM CLR 21/20 A3002 RMK AO2,KPUJ,2024-05-05T00:55:00Z,33.9085,-84.9369,21,20,0,0,,10+,30.02,,,TRUE,TRUE,,,,,,,CLR,,,,,,,,VFR,,,,,,,,,,,,METAR,385
KPTS 050055Z AUTO 02007KT 10SM CLR 18/12 A3000 RMK AO2 T01820120 PWINO,KPTS,2024-05-05T00:55:00Z,37.4512,-94.7322,18.2,12,20,7,,10+,30.00,,,TRUE,TRUE,,,,,TRUE,,CLR,,,,,,,,VFR,,,,,,,,,,,,METAR,286
KPTD 050055Z AUTO 16006KT 10SM CLR 18/07 A3015 RMK AO2,KPTD,2024-05-05T00:55:00Z,44.6757,-74.9469,18,7,160,6,,10+,30.15,,,TRUE,TRUE,,,,,,,CLR,,,,,,,,VFR,,,,,,,,,,,,METAR,144
KPSO 050055Z AUTO 10004KT 10SM SCT039 BKN065 OVC080 12/03 A3005 RMK AO2 T01180031,KPSO,2024-05-05T00:55:00Z,37.291,-107.056,11.8,3.1,100,4,,10+,30.05,,,TRUE,TRUE,,,,,,,SCT,3900,BKN,6500,OVC,8000,,,VFR,,,,,,,,,,,,METAR,2332
KPSN 050055Z AUTO 11006KT 10SM SCT080 BKN090 25/21 A2988 RMK AO2,KPSN,2024-05-05T00:55:00Z,31.7784,-95.7048,25,21,110,6,,10+,29.88,,,TRUE,TRUE,,,,,,,SCT,8000,BKN,9000,,,,,VFR,,,,,,,,,,,,METAR,124
KPSM 050055Z 11006KT 10SM FEW015 BKN038 BKN150 09/06 A3039 RMK AO2A SLP294 T00860060,KPSM,2024-05-05T00:55:00Z,43.0677,-70.8127,8.6,6,110,6,,10+,30.39,1029.4,,,TRUE,,,,,,,FEW,1500,BKN,3800,BKN,15000,,,VFR,,,,,,,,,,,,METAR,34
KPSK 050055Z AUTO 08004KT 5SM RA OVC003 14/14 A3012 RMK AO2 T01380136,KPSK,2024-05-05T00:55:00Z,37.1337,-80.6789,13.8,13.6,80,4,,5,30.12,,,TRUE,TRUE,,,,,,RA,OVC,300,,,,,,,LIFR,,,,,,,,,,,,METAR,629
KPRS 050055Z AUTO 21005KT 10SM CLR 35/02 A2973 RMK AO2 T03450023,KPRS,2024-05-05T00:55:00Z,29.6346,-104.358,34.5,2.3,210,5,,10+,29.73,,,TRUE,TRUE,,,,,,,CLR,,,,,,,,VFR,,,,,,,,,,,,METAR,890
KPRO 050055Z AUTO 36004KT 10SM CLR 14/07 A3005 RMK AO2 T01400073,KPRO,2024-05-05T00:55:00Z,41.8278,-94.1637,14,7.3,360,4,,10+,30.05,,,TRUE,TRUE,,,,,,,CLR,,,,,,,,VFR,,,,,,,,,,,,METAR,308
KPRG 050055Z AUTO 20006KT 10SM CLR 23/16 A2988 RMK AO2 LTG DSNT W AND NW T02300155,KPRG,2024-05-05T00:55:00Z,39.6982,-87.6669,23,15.5,200,6,,10+,29.88,,,TRUE,TRUE,,,,,,,CLR,,,,,,,,VFR,,,,,,,,,,,,METAR,197
KPPQ 050055Z AUTO 32010KT 10SM OVC030 19/15 A2996 RMK AO2 T01920148,KPPQ,2024-05-05T00:55:00Z,39.6391,-90.7818,19.2,14.8,320,10,,10+,29.96,,,TRUE,TRUE,,,,,,,OVC,3000,,,,,,,MVFR,,,,,,,,,,,,METAR,215
KPPO 050055Z AUTO 00000KT 10SM CLR 24/12 A2985 RMK AO2 LTG DSNT N AND NW T02350116,KPPO,2024-05-05T00:55:00Z,41.5705,-86.7333,23.5,11.6,0,0,,10+,29.85,,,TRUE,TRUE,,,,,,,CLR,,,,,,,,VFR,,,,,,,,,,,,METAR,242
KPPA 050055Z AUTO 08010KT 10SM OVC027 15/11 A3002 RMK AO2 T01450106,KPPA,2024-05-05T00:55:00Z,35.6139,-100.997,14.5,10.6,80,10,,10+,30.02,,,TRUE,TRUE,,,,,,,OVC,2700,,,,,,,MVFR,,,,,,,,,,,,METAR,989
KPOY 050055Z AUTO 13010KT 10SM CLR 13/M09 A2978 RMK AO2,KPOY,2024-05-05T00:55:00Z,44.8641,-108.79,13,-9,130,10,,10+,29.78,,,TRUE,TRUE,,,,,,,CLR,,,,,,,,VFR,,,,,,,,,,,,METAR,1547
KPOV 050055Z AUTO 11009G15KT 10SM OVC008 15/12 A2999 RMK AO2 T01470123 PWINO,KPOV,2024-05-05T00:55:00Z,41.209,-81.2479,14.7,12.3,110,9,15,10+,29.99,,,TRUE,TRUE,,,,,TRUE,,OVC,800,,,,,,,IFR,,,,,,,,,,,,METAR,363
KPOE 050055Z AUTO 15006KT 9SM FEW021 25/21 A2992 RMK AO2 SLP132 T02480207,KPOE,2024-05-05T00:55:00Z,31.047,-93.194,24.8,20.7,150,6,,9,29.92,1013.2,,TRUE,TRUE,,,,,,,FEW,2100,,,,,,,VFR,,,,,,,,,,,,METAR,98
KPOB 050055Z AUTO 05003KT 10SM FEW004 OVC090 20/19 A3008 RMK AO2 DZB16E27 SLP188 P0000 T01990187 $,KPOB,2024-05-05T00:55:00Z,35.175,-79.008,19.9,18.7,50,3,,10+,30.08,1018.8,,TRUE,TRUE,TRUE,,,,,,FEW,400,OVC,9000,,,,,VFR,,,,,,0.005,,,,,,METAR,57
KPO1 050055Z AUTO 11005KT 10SM CLR 14/M02 A2992 RMK AO2,KPO1,2024-05-05T00:55:00Z,48.134,-105.162,14,-2,110,5,,10+,29.92,,,TRUE,TRUE,,,,,,,CLR,,,,,,,,VFR,,,,,,,,,,,,METAR,621
KPNT 050055Z AUTO 28007KT 10SM CLR 20/17 A2988 RMK AO2 LTG DSNT SE T01980168,KPNT,2024-05-05T00:55:00Z,40.9233,-88.6213,19.8,16.8,280,7,,10+,29.88,,,TRUE,TRUE,,,,,,,CLR,,,,,,,,VFR,,,,,,,,,,,,METAR,199
KPNM 050055Z AUTO 28005KT 10SM CLR 15/02 A2998 RMK AO2,KPNM,2024-05-05T00:55:00Z,45.556,-93.608,15,2,280,5,,10+,29.98,,,TRUE,TRUE,,,,,,,CLR,,,,,,,,VFR,,,,,,,,,,,,METAR,298
KPNA 050055Z AUTO 13005KT 10SM BKN090 13/M05 A2984 RMK AO2,KPNA,2024-05-05T00:55:00Z,42.7929,-109.805,13,-5,130,5,,10+,29.84,,,TRUE,TRUE,,,,,,,BKN,9000,,,,,,,VFR,,,,,,,,,,,,METAR,2158
KPMV 050055Z AUTO 00000KT 10SM SCT055 15/06 A3007 RMK AO2 T01500063,KPMV,2024-05-05T00:55:00Z,40.9446,-95.9124,15,6.3,0,0,,10+,30.07,,,TRUE,TRUE,,,,,,,SCT,5500,,,,,,,VFR,,,,,,,,,,,,METAR,365
KPLU 050055Z AUTO 00000KT 7SM -DZ SCT007 OVC016 10/10 A2959 RMK AO2,KPLU,2024-05-05T00:55:00Z,47.1005,-122.285,10,10,0,0,,7,29.59,,,TRUE,TRUE,,,,,,-DZ,SCT,700,OVC,1600,,,,,MVFR,,,,,,,,,,,,METAR,164
KPLR 050055Z AUTO 00000KT 10SM CLR 22/21 A2998 RMK A01,KPLR,2024-05-05T00:55:00Z,33.5608,-86.2463,22,21,0,0,,10+,29.98,,,TRUE,TRUE,,,,,,,CLR,,,,,,,,VFR,,,,,,,,,,,,METAR,145
KPKV 050055Z AUTO 12013KT 10SM SCT012 SCT025 SCT033 27/24 A2984 RMK AO2 T02690240,KPKV,2024-05-05T00:55:00Z,28.6499,-96.6799,26.9,24,120,13,,10+,29.84,,,TRUE,TRUE,,,,,,,SCT,1200,SCT,2500,SCT,3300,,,VFR,,,,,,,,,,,,METAR,8
KPJC 050055Z AUTO 09003KT 10SM BKN008 OVC015 13/12 A3003 RMK AO2,KPJC,2024-05-05T00:55:00Z,40.8009,-80.1624,13,12,90,3,,10+,30.03,,,TRUE,TRUE,,,,,,,BKN,800,OVC,1500,,,,,IFR,,,,,,,,,,,,METAR,273
KPIM 050055Z AUTO 14001KT 10SM CLR 22/20 A3002 RMK AO2,KPIM,2024-05-05T00:55:00Z,32.8421,-84.8766,22,20,140,1,,10+,30.02,,,TRUE,TRUE,,,,,,,CLR,,,,,,,,VFR,,,,,,,,,,,,METAR,274
KPHT 050055Z AUTO 00000KT 10SM CLR 23/18 A2993 RMK A01,KPHT,2024-05-05T00:55:00Z,36.3322,-88.3871,23,18,0,0,,10+,29.93,,,TRUE,TRUE,,,,,,,CLR,,,,,,,,VFR,,,,,,,,,,,,METAR,172
KPHP 050055Z AUTO 10007KT 10SM CLR 14/M01 A2998 RMK AO2 SLP155 T01441006,KPHP,2024-05-05T00:55:00Z,44.051,-101.601,14.4,-0.6,100,7,,10+,29.98,1015.5,,TRUE,TRUE,,,,,,,CLR,,,,,,,,VFR,,,,,,,,,,,,METAR,673
KPEZ 050055Z AUTO 12012G17KT 10SM BKN060 OVC080 28/21 A2981 RMK AO2 T02760206,KPEZ,2024-05-05T00:55:00Z,28.9561,-98.5184,27.6,20.6,120,12,17,10+,29.81,,,TRUE,TRUE,,,,,,,BKN,6000,OVC,8000,,,,,VFR,,,,,,,,,,,,METAR,126
KPEX 050055Z AUTO 29005KT 10SM CLR 14/02 A3000 RMK AO2,KPEX,2024-05-05T00:55:00Z,45.3725,-94.7388,14,2,290,5,,10+,30.00,,,TRUE,TRUE,,,,,,,CLR,,,,,,,,VFR,,,,,,,,,,,,METAR,359
KPEQ 050055Z AUTO 04013KT 10SM CLR 23/13 A2982 RMK AO2 LTG DSNT SE T02320134,KPEQ,2024-05-05T00:55:00Z,31.382,-103.512,23.2,13.4,40,13,,10+,29.82,,,TRUE,TRUE,,,,,,,CLR,,,,,,,,VFR,,,,,,,,,,,,METAR,794
KPEA 050055Z AUTO 32009KT 10SM SCT038 12/09 A3004 RMK AO2 T01220086,KPEA,2024-05-05T00:55:00Z,41.3989,-92.9431,12.2,8.6,320,9,,10+,30.04,,,TRUE,TRUE,,,,,,,SCT,3800,,,,,,,VFR,,,,,,,,,,,,METAR,264
KPDC 050055Z AUTO 30012KT 10SM OVC034 14/08 A2997 RMK AO2 T01360076,KPDC,2024-05-05T00:55:00Z,43.0194,-91.1212,13.6,7.6,300,12,,10+,29.97,,,TRUE,TRUE,,,,,,,OVC,3400,,,,,,,VFR,,,,,,,,,,,,METAR,201
KPCZ 050055Z AUTO 31004KT 10SM CLR 13/08 A2991 RMK AO2 T01320082,KPCZ,2024-05-05T00:55:00Z,44.3342,-89.0203,13.2,8.2,310,4,,10+,29.91,,,TRUE,TRUE,,,,,,,CLR,,,,,,,,VFR,,,,,,,,,,,,METAR,248
KPCW 050055Z AUTO 12005KT 10SM FEW080 OVC095 19/18 A2990 RMK AO2,KPCW,2024-05-05T00:55:00Z,41.5188,-82.8692,19,18,120,5,,10+,29.90,,,TRUE,TRUE,,,,,,,FEW,8000,OVC,9500,,,,,VFR,,,,,,,,,,,,METAR,179
KPCM 050055Z AUTO 11005KT 10SM SCT050 BKN070 27/21 A3004 RMK AO2 P0001,KPCM,2024-05-05T00:55:00Z,28.0013,-82.1593,27,21,110,5,,10+,30.04,,,TRUE,TRUE,,,,,,,SCT,5000,BKN,7000,,,,,VFR,,,,,,0.01,,,,,,METAR,43
KPCD 050055Z AUTO 00000KT 10SM TS SCT070 BKN120 19/17 A2995 RMK AO2 LTG DSNT NE THRU S P0001 T01910173,KPCD,2024-05-05T00:55:00Z,37.8749,-89.8582,19.1,17.3,0,0,,10+,29.95,,,TRUE,TRUE,,,,,,TS,SCT,7000,BKN,12000,,,,,VFR,,,,,,0.01,,,,,,METAR,112
KPBX 050055Z AUTO 14005KT 10SM SCT048 SCT060 BKN070 19/19 A2999 RMK AO2 LTG DSNT NW T01880188,KPBX,2024-05-05T00:55:00Z,37.5587,-82.5674,18.8,18.8,140,5,,10+,29.99,,,TRUE,TRUE,,,,,,,SCT,4800,SCT,6000,BKN,7000,,,VFR,,,,,,,,,,,,METAR,447
KPBH 050055Z AUTO 32006KT 10SM BKN025 09/06 A2996 RMK AO2 T00870058,KPBH,2024-05-05T00:55:00Z,45.7064,-90.4052,8.7,5.8,320,6,,10+,29.96,,,TRUE,TRUE,,,,,,,BKN,2500,,,,,,,MVFR,,,,,,,,,,,,METAR,445
KPAN 050055Z AUTO 21008G16KT 10SM CLR 22/M03 A2993 RMK AO2 PWINO TSNO,KPAN,2024-05-05T00:55:00Z,34.2551,-111.338,22,-3,210,8,16,10+,29.93,,,TRUE,TRUE,,,TRUE,,TRUE,,CLR,,,,,,,,VFR,,,,,,,,,,,,METAR,1575
KPAM 050055Z AUTO 22004KT 10SM CLR 25/21 A3000 RMK AO2 SLP162 T02500213 $,KPAM,2024-05-05T00:55:00Z,30.071,-85.577,25,21.3,220,4,,10+,30.00,1016.2,,TRUE,TRUE,TRUE,,,,,,CLR,,,,,,,,VFR,,,,,,,,,,,,METAR,4
KP58 050055Z AUTO 14005KT 13/11 A2989 RMK AO1 SLP123 T01330111,KP58,2024-05-05T00:55:00Z,44.0217,-82.7929,13.3,11.1,140,5,,,29.89,1012.3,,TRUE,TRUE,,,,,,,,,,,,,,,,,,,,,,,,,,,METAR,180
KOZW 050055Z AUTO 13006KT 10SM SCT036 BKN060 19/17 A2990 RMK AO2 T01940167,KOZW,2024-05-05T00:55:00Z,42.6327,-83.9854,19.4,16.7,130,6,,10+,29.90,,,TRUE,TRUE,,,,,,,SCT,3600,BKN,6000,,,,,VFR,,,,,,,,,,,,METAR,288
KOZS 050055Z AUTO 32009KT 10SM CLR 19/13 A3000 RMK AO2,KOZS,2024-05-05T00:55:00Z,37.9745,-92.6897,19,13,320,9,,10+,30.00,,,TRUE,TRUE,,,,,,,CLR,,,,,,,,VFR,,,,,,,,,,,,METAR,321
KOZR 050055Z AUTO 21005KT 10SM FEW060 27/19 A2998 RMK AO2 SLP152 T02710192,KOZR,2024-05-05T00:55:00Z,31.2767,-85.7105,27.1,19.2,210,5,,10+,29.98,1015.2,,TRUE,TRUE,,,,,,,FEW,6000,,,,,,,VFR,,,,,,,,,,,,METAR,90
KOZA 050055Z AUTO 10007G21KT 2 1/2SM TS HZ SCT026 SCT042 BKN110 23/19 A2984 RMK AO2 VIS 1/4V5 LTG DSNT SW THRU NE,KOZA,2024-05-05T00:55:00Z,30.7312,-101.203,23,19,100,7,21,2.5,29.84,,,TRUE,TRUE,,,,,,TS HZ,SCT,2600,SCT,4200,BKN,11000,,,IFR,,,,,,,,,,,,METAR,721
KOYM 050055Z AUTO 12007KT 10SM OVC007 09/08 A3015 RMK AO2 P0004 PWINO,KOYM,2024-05-05T00:55:00Z,41.4118,-78.5131,9,8,120,7,,10+,30.15,,,TRUE,TRUE,,,,,TRUE,,OVC,700,,,,,,,IFR,,,,,,0.04,,,,,,METAR,582
KOYE 050055Z AUTO 05010KT 6SM BR CLR 25/23 A2997 RMK A01,KOYE,2024-05-05T00:55:00Z,28.8669,-90.4911,25,23,50,10,,6,29.97,,,TRUE,TRUE,,,,,,BR,CLR,,,,,,,,VFR,,,,,,,,,,,,METAR,30
KOXV 050055Z AUTO 34009G17KT 10SM FEW039 13/08 A3004 RMK AO2,KOXV,2024-05-05T00:55:00Z,41.2984,-93.1114,13,8,340,9,17,10+,30.04,,,TRUE,TRUE,,,,,,,FEW,3900,,,,,,,VFR,,,,,,,,,,,,METAR,280
KOXI 050055Z AUTO 19004KT 10SM SCT060 23/09 A2984 RMK AO1,KOXI,2024-05-05T00:55:00Z,41.3275,-86.665,23,9,190,4,,10+,29.84,,,TRUE,TRUE,,,,,,,SCT,6000,,,,,,,VFR,,,,,,,,,,,,METAR,208
KOWP 050055Z AUTO 01003KT 10SM BKN040 21/15 A2999 RMK AO2 T02060153,KOWP,2024-05-05T00:55:00Z,36.1721,-96.1536,20.6,15.3,10,3,,10+,29.99,,,TRUE,TRUE,,,,,,,BKN,4000,,,,,,,VFR,,,,,,,,,,,,METAR,267
KOVL 050055Z AUTO 30005KT 10SM CLR 14/03 A3001 RMK AO2,KOVL,2024-05-05T00:55:00Z,44.7792,-95.0304,14,3,300,5,,10+,30.01,,,TRUE,TRUE,,,,,,,CLR,,,,,,,,VFR,,,,,,,,,,,,METAR,329
KOSC 050055Z AUTO 00000KT 10SM BKN034 OVC041 11/10 A2989 RMK AO2 T01140095,KOSC,2024-05-05T00:55:00Z,44.453,-83.396,11.4,9.5,0,0,,10+,29.89,,,TRUE,TRUE,,,,,,,BKN,3400,OVC,4100,,,,,VFR,,,,,,,,,,,,METAR,191
KOSA 050055Z AUTO 14003KT 10SM SCT055 25/20 A2993 RMK AO2 T02520200,KOSA,2024-05-05T00:55:00Z,33.0936,-94.9601,25.2,20,140,3,,10+,29.93,,,TRUE,TRUE,,,,,,,SCT,5500,,,,,,,VFR,,,,,,,,,,,,METAR,108
KORS 050055Z AUTO 00000KT 10SM BKN080 BKN090 15/09 A2954 RMK AO2,KORS,2024-05-05T00:55:00Z,48.7081,-122.909,15,9,0,0,,10+,29.54,,,TRUE,TRUE,,,,,,,BKN,8000,BKN,9000,,,,,VFR,,,,,,,,,,,,METAR,7
KORK 050055Z AUTO 21004KT 10SM CLR 21/21 A2996 RMK AO2,KORK,2024-05-05T00:55:00Z,34.833,-92.2557,21,21,210,4,,10+,29.96,,,TRUE,TRUE,,,,,,,CLR,,,,,,,,VFR,,,,,,,,,,,,METAR,166
KORG 050055Z AUTO 13005KT 10SM SCT100 BKN120 26/23 A2994 RMK AO2 T02560226,KORG,2024-05-05T00:55:00Z,30.068,-93.8043,25.6,22.6,130,5,,10+,29.94,,,TRUE,TRUE,,,,,,,SCT,10000,BKN,12000,,,,,VFR,,,,,,,,,,,,METAR,2
KOQN 050055Z AUTO 10005KT 10SM DZ BKN008 OVC011 09/08 A3028 RMK AO2 P0001,KOQN,2024-05-05T00:55:00Z,39.9889,-75.5803,9,8,100,5,,10+,30.28,,,TRUE,TRUE,,,,,,DZ,BKN,800,OVC,1100,,,,,IFR,,,,,,0.01,,,,,,METAR,141
KOPN 050055Z AUTO 14003KT 10SM SCT036 SCT050 SCT060 22/17 A3004 RMK AO2,KOPN,2024-05-05T00:55:00Z,32.954,-84.2595,22,17,140,3,,10+,30.04,,,TRUE,TRUE,,,,,,,SCT,3600,SCT,5000,SCT,6000,,,VFR,,,,,,,,,,,,METAR,241
KOOA 050055Z AUTO 33014KT 10SM OVC038 14/09 A3003 RMK AO2 T01430094,KOOA,2024-05-05T00:55:00Z,41.2273,-92.4919,14.3,9.4,330,14,,10+,30.03,,,TRUE,TRUE,,,,,,,OVC,3800,,,,,,,VFR,,,,,,,,,,,,METAR,256
KONZ 050055Z AUTO 00000KT 10SM BKN038 OVC050 18/15 A2991 RMK AO2 T01830150,KONZ,2024-05-05T00:55:00Z,42.0991,-83.161,18.3,15,0,0,,10+,29.91,,,TRUE,TRUE,,,,,,,BKN,3800,OVC,5000,,,,,VFR,,,,,,,,,,,,METAR,179
KONP 050055Z AUTO 30010G15KT 7SM -RA BKN011 BKN017 OVC025 08/07 A2974 RMK AO2 P0002,KONP,2024-05-05T00:55:00Z,44.5825,-124.057,8,7,300,10,15,7,29.74,,,TRUE,TRUE,,,,,,-RA,BKN,1100,BKN,1700,OVC,2500,,,MVFR,,,,,,0.02,,,,,,METAR,43
KONM 050055Z AUTO 17008G11KT 10SM CLR 27/M12 A2985 RMK AO2 T02671116,KONM,2024-05-05T00:55:00Z,34.0263,-106.904,26.7,-11.6,170,8,11,10+,29.85,,,TRUE,TRUE,,,,,,,CLR,,,,,,,,VFR,,,,,,,,,,,,METAR,1467
KONL 050055Z AUTO 06003KT 10SM CLR 14/03 A3006 RMK AO2 T01360029,KONL,2024-05-05T00:55:00Z,42.4691,-98.6903,13.6,2.9,60,3,,10+,30.06,,,TRUE,TRUE,,,,,,,CLR,,,,,,,,VFR,,,,,,,,,,,,METAR,619
KONA 050055Z AUTO 31005KT 10SM CLR 12/06 A2999 RMK AO2,KONA,2024-05-05T00:55:00Z,44.076,-91.707,12,6,310,5,,10+,29.99,,,TRUE,TRUE,,,,,,,CLR,,,,,,,,VFR,,,,,,,,,,,,METAR,200
KOMH 050055Z AUTO 06003KT 2 1/2SM -DZ OVC004 12/12 A3021 RMK AO2 P0001,KOMH,2024-05-05T00:55:00Z,38.2487,-78.0454,12,12,60,3,,2.5,30.21,,,TRUE,TRUE,,,,,,-DZ,OVC,400,,,,,,,LIFR,,,,,,0.01,,,,,,METAR,136
KOLZ 050055Z AUTO 33010KT 10SM CLR 11/09 A3000 RMK A01,KOLZ,2024-05-05T00:55:00Z,42.6831,-91.976,11,9,330,10,,10+,30.00,,,TRUE,TRUE,,,,,,,CLR,,,,,,,,VFR,,,,,,,,,,,,METAR,328
KOLG 050055Z AUTO 00000KT 10SM CLR 10/05 A2997 RMK AO1,KOLG,2024-05-05T00:55:00Z,46.3153,-91.8183,10,5,0,0,,10+,29.97,,,TRUE,TRUE,,,,,,,CLR,,,,,,,,VFR,,,,,,,,,,,,METAR,334
KOLE 050055Z AUTO 16008G14KT 10SM RA OVC011 08/08 A3011 RMK AO2,KOLE,2024-05-05T00:55:00Z,42.2429,-78.3721,8,8,160,8,14,10+,30.11,,,TRUE,TRUE,,,,,,RA,OVC,1100,,,,,,,MVFR,,,,,,,,,,,,METAR,651
KOKZ 050055Z AUTO 17003KT 10SM SCT075 SCT090 BKN120 20/19 A3004 RMK AO2 T01980186,KOKZ,2024-05-05T00:55:00Z,32.9651,-82.8387,19.8,18.6,170,3,,10+,30.04,,,TRUE,TRUE,,,,,,,SCT,7500,SCT,9000,BKN,12000,,,VFR,,,,,,,,,,,,METAR,128
KOKV 050055Z AUTO 09006KT 10SM -DZ SCT005 OVC012 10/10 A3018 RMK AO2,KOKV,2024-05-05T00:55:00Z,39.1406,-78.1391,10,10,90,6,,10+,30.18,,,TRUE,TRUE,,,,,,-DZ,SCT,500,OVC,1200,,,,,MVFR,,,,,,,,,,,,METAR,213
KOKM 050055Z AUTO 36008KT 10SM OVC034 21/16 A2996 RMK AO2 T02080156,KOKM,2024-05-05T00:55:00Z,35.6713,-95.9514,20.8,15.6,360,8,,10+,29.96,,,TRUE,TRUE,,,,,,,OVC,3400,,,,,,,VFR,,,,,,,,,,,,METAR,215
KOJA 050055Z AUTO 05009KT 10SM OVC027 17/12 A2999 RMK AO2 T01680121,KOJA,2024-05-05T00:55:00Z,35.5484,-98.6702,16.8,12.1,50,9,,10+,29.99,,,TRUE,TRUE,,,,,,,OVC,2700,,,,,,,MVFR,,,,,,,,,,,,METAR,490
KOIN 050055Z AUTO 11006KT 10SM CLR 15/04 A3009 RMK AO1 T01470043,KOIN,2024-05-05T00:55:00Z,39.8298,-100.538,14.7,4.3,110,6,,10+,30.09,,,TRUE,TRUE,,,,,,,CLR,,,,,,,,VFR,,,,,,,,,,,,METAR,810
KOIC 050055Z AUTO 19009G14KT 10SM BKN044 BKN060 13/07 A3023 RMK AO2 T01290066,KOIC,2024-05-05T00:55:00Z,42.5642,-75.5269,12.9,6.6,190,9,14,10+,30.23,,,TRUE,TRUE,,,,,,,BKN,4400,BKN,6000,,,,,VFR,,,,,,,,,,,,METAR,311
KOGS 050055Z AUTO VRB03KT 10SM BKN120 18/07 A3011 RMK AO2,KOGS,2024-05-05T00:55:00Z,44.68,-75.4641,18,7,VRB,3,,10+,30.11,,,TRUE,TRUE,,,,,,,BKN,12000,,,,,,,VFR,,,,,,,,,,,,METAR,88
KOGA 050055Z AUTO 15011KT 10SM CLR 15/00 A3003 RMK AO2 T01540002,KOGA,2024-05-05T00:55:00Z,41.1164,-101.768,15.4,0.2,150,11,,10+,30.03,,,TRUE,TRUE,,,,,,,CLR,,,,,,,,VFR,,,,,,,,,,,,METAR,991
KOFF 050055Z AUTO 04003KT 10SM FEW055 15/05 A3005 RMK AO2 SLP182 T01490054 $,KOFF,2024-05-05T00:55:00Z,41.122,-95.91,14.9,5.4,40,3,,10+,30.05,1018.2,,TRUE,TRUE,TRUE,,,,,,FEW,5500,,,,,,,VFR,,,,,,,,,,,,METAR,308
KOEO 050055Z AUTO 00000KT 10SM CLR 14/06 A3000 RMK AO2 T01380056 PWINO,KOEO,2024-05-05T00:55:00Z,45.3108,-92.6948,13.8,5.6,0,0,,10+,30.00,,,TRUE,TRUE,,,,,TRUE,,CLR,,,,,,,,VFR,,,,,,,,,,,,METAR,269
KOEL 050055Z AUTO 13010KT 10SM CLR 16/00 A3005 RMK AO1 T01560004,KOEL,2024-05-05T00:55:00Z,39.1139,-100.819,15.6,0.4,130,10,,10+,30.05,,,TRUE,TRUE,,,,,,,CLR,,,,,,,,VFR,,,,,,,,,,,,METAR,924
KOEB 050055Z AUTO 14005KT 10SM CLR 20/17 A2988 RMK AO2 T02040169,KOEB,2024-05-05T00:55:00Z,41.9308,-85.0544,20.4,16.9,140,5,,10+,29.88,,,TRUE,TRUE,,,,,,,CLR,,,,,,,,VFR,,,,,,,,,,,,METAR,291
KOCQ 050055Z AUTO 31007KT 10SM OVC018 14/12 A2986 RMK AO1 T01350118,KOCQ,2024-05-05T00:55:00Z,44.8749,-87.9084,13.5,11.8,310,7,,10+,29.86,,,TRUE,TRUE,,,,,,,OVC,1800,,,,,,,MVFR,,,,,,,,,,,,METAR,181
KOBE 050055Z AUTO VRB04KT 10SM BKN060 BKN075 24/20 A3001 RMK AO2,KOBE,2024-05-05T00:55:00Z,27.2663,-80.8487,24,20,VRB,4,,10+,30.01,,,TRUE,TRUE,,,,,,,BKN,6000,BKN,7500,,,,,VFR,,,,,,,,,,,,METAR,11
KOAR 050055Z AUTO 27011G16KT 10SM SCT050 11/08 A2989 RMK AO2,KOAR,2024-05-05T00:55:00Z,36.6815,-121.757,11,8,270,11,16,10+,29.89,,,TRUE,TRUE,,,,,,,SCT,5000,,,,,,,VFR,,,,,,,,,,,,METAR,41
KO69 050055Z AUTO 26013G19KT 10SM FEW030 BKN037 BKN050 11/05 A2983 RMK A01,KO69,2024-05-05T00:55:00Z,38.2601,-122.607,11,5,260,13,19,10+,29.83,,,TRUE,TRUE,,,,,,,FEW,3000,BKN,3700,BKN,5000,,,VFR,,,,,,,,,,,,METAR,26
KO54 050055Z AUTO 24006G13KT 10SM FEW024 SCT029 08/01 A2969 RMK A01,KO54,2024-05-05T00:55:00Z,40.746,-122.922,8,1,240,6,13,10+,29.69,,,TRUE,TRUE,,,,,,,FEW,2400,SCT,2900,,,,,VFR,,,,,,,,,,,,METAR,693
KO32 050055Z AUTO 32012G17KT 1 1/2SM RA BR BKN023 BKN038 10/10 A2986 RMK AO2 P0002 T01010101 $,KO32,2024-05-05T00:55:00Z,36.6691,-119.453,10.1,10.1,320,12,17,1.5,29.86,,,TRUE,TRUE,TRUE,,,,,RA BR,BKN,2300,BKN,3800,,,,,IFR,,,,,,0.02,,,,,,METAR,117
KO22 050055Z AUTO 00000KT 10SM 04/04 A2983 RMK A01 P0009,KO22,2024-05-05T00:55:00Z,38.03,-120.415,4,4,0,0,,10+,29.83,,,TRUE,TRUE,,,,,,,,,,,,,,,VFR,,,,,,0.09,,,,,,METAR,637
KNUQ 050055Z AUTO 29008G16KT 10SM SCT036 SCT042 BKN048 12/04 A2987 RMK AO2,KNUQ,2024-05-05T00:55:00Z,37.4059,-122.049,12,4,290,8,16,10+,29.87,,,TRUE,TRUE,,,,,,,SCT,3600,SCT,4200,BKN,4800,,,VFR,,,,,,,,,,,,METAR,9
KNTD 050055Z 24009KT 10SM SCT012 SCT035 BKN050 16/12 A2991 RMK AO2 SLP128 T01610122 PNO $,KNTD,2024-05-05T00:55:00Z,34.124,-119.123,16.1,12.2,240,9,,10+,29.91,1012.8,,,TRUE,TRUE,,,,,,SCT,1200,SCT,3500,BKN,5000,,,VFR,,,,,,,,,,,,METAR,1
KNRN 050055Z AUTO 11007KT 10SM CLR 15/04 A3008 RMK AO2,KNRN,2024-05-05T00:55:00Z,39.8497,-99.8915,15,4,110,7,,10+,30.08,,,TRUE,TRUE,,,,,,,CLR,,,,,,,,VFR,,,,,,,,,,,,METAR,726
KNOW 050055Z AUTO 30008KT 10SM -DZ OVC060 10/10 A2957 RMK AO2 T01010101,KNOW,2024-05-05T00:55:00Z,48.1394,-123.403,10.1,10.1,300,8,,10+,29.57,,,TRUE,TRUE,,,,,,-DZ,OVC,6000,,,,,,,VFR,,,,,,,,,,,,METAR,3
KNKX 050055Z 27008KT 10SM OVC022 14/12 A2991 RMK AO2 SLP126 T01390117,KNKX,2024-05-05T00:55:00Z,32.865,-117.137,13.9,11.7,270,8,,10+,29.91,1012.6,,,TRUE,,,,,,,OVC,2200,,,,,,,MVFR,,,,,,,,,,,,METAR,138
KNFG 050055Z AUTO VRB03KT 10SM FEW020 FEW026 OVC036 18/13 A2991 RMK AO2 SLP127 T01830128,KNFG,2024-05-05T00:55:00Z,33.304,-117.355,18.3,12.8,VRB,3,,10+,29.91,1012.7,,TRUE,TRUE,,,,,,,FEW,2000,FEW,2600,OVC,3600,,,VFR,,,,,,,,,,,,METAR,21
KNBG 050055Z AUTO 15003KT 10SM CLR 26/21 A2997 RMK AO2 SLP146 T02560206 $,KNBG,2024-05-05T00:55:00Z,29.837,-90.024,25.6,20.6,150,3,,10+,29.97,1014.6,,TRUE,TRUE,TRUE,,,,,,CLR,,,,,,,,VFR,,,,,,,,,,,,METAR,
KN79 050055Z AUTO 09005KT 8SM -RA SCT012 10/10 A3021 RMK AO2 P0000 T01010095,KN79,2024-05-05T00:55:00Z,40.8371,-76.546,10.1,9.5,90,5,,8,30.21,,,TRUE,TRUE,,,,,,-RA,SCT,1200,,,,,,,VFR,,,,,,0.005,,,,,,METAR,269
KN38 050055Z AUTO 17012G19KT 8SM -RA OVC007 09/09 A3016 RMK AO2,KN38,2024-05-05T00:55:00Z,41.7287,-77.3958,9,9,170,12,19,8,30.16,,,TRUE,TRUE,,,,,,-RA,OVC,700,,,,,,,IFR,,,,,,,,,,,,METAR,576
KN03 050055Z AUTO 16009G15KT 10SM OVC037 13/06 A3018 RMK AO2,KN03,2024-05-05T00:55:00Z,42.5929,-76.2174,13,6,160,9,15,10+,30.18,,,TRUE,TRUE,,,,,,,OVC,3700,,,,,,,VFR,,,,,,,,,,,,METAR,361
KMZZ 050055Z AUTO 00000KT 7SM CLR 23/18 A2989 RMK AO2 T02250176,KMZZ,2024-05-05T00:55:00Z,40.4863,-85.6859,22.5,17.6,0,0,,7,29.89,,,TRUE,TRUE,,,,,,,CLR,,,,,,,,VFR,,,,,,,,,,,,METAR,260
KMZH 050055Z AUTO 00000KT 10SM CLR 13/03 A2997 RMK AO2,KMZH,2024-05-05T00:55:00Z,46.4163,-92.8049,13,3,0,0,,10+,29.97,,,TRUE,TRUE,,,,,,,CLR,,,,,,,,VFR,,,,,,,,,,,,METAR,331
KMYZ 050055Z AUTO 04005KT 10SM CLR 15/07 A3007 RMK AO2,KMYZ,2024-05-05T00:55:00Z,39.8544,-96.6279,15,7,40,5,,10+,30.07,,,TRUE,TRUE,,,,,,,CLR,,,,,,,,VFR,,,,,,,,,,,,METAR,388
KMYJ 050055Z AUTO 32010KT 10SM SCT021 OVC027 17/13 A3000 RMK AO2,KMYJ,2024-05-05T00:55:00Z,39.1561,-91.8129,17,13,320,10,,10+,30.00,,,TRUE,TRUE,,,,,,,SCT,2100,OVC,2700,,,,,MVFR,,,,,,,,,,,,METAR,249
KMXO 050055Z AUTO 32010G17KT 10SM OVC030 14/10 A2996 RMK AO2,KMXO,2024-05-05T00:55:00Z,42.2203,-91.1604,14,10,320,10,17,10+,29.96,,,TRUE,TRUE,,,,,,,OVC,3000,,,,,,,MVFR,,,,,,,,,,,,METAR,251
KMXF 050055Z AUTO 00000KT 10SM CLR 25/19 A2995 RMK AO2 SLP143 T02540186,KMXF,2024-05-05T00:55:00Z,32.3877,-86.3724,25.4,18.6,0,0,,10+,29.95,1014.3,,TRUE,TRUE,,,,,,,CLR,,,,,,,,VFR,,,,,,,,,,,,METAR,47
KMWO 050055Z AUTO 14006KT 10SM SCT050 22/18 A2991 RMK AO2 LTG DSNT SE T02170177,KMWO,2024-05-05T00:55:00Z,39.5324,-84.3973,21.7,17.7,140,6,,10+,29.91,,,TRUE,TRUE,,,,,,,SCT,5000,,,,,,,VFR,,,,,,,,,,,,METAR,197
KMWM 050055Z AUTO 32007KT 10SM CLR 13/03 A3003 RMK AO2,KMWM,2024-05-05T00:55:00Z,43.91,-95.1073,13,3,320,7,,10+,30.03,,,TRUE,TRUE,,,,,,,CLR,,,,,,,,VFR,,,,,,,,,,,,METAR,427
KMWA 050055Z AUTO 23004KT 10SM CLR 25/18 A2994 RMK AO2 T02450176,KMWA,2024-05-05T00:55:00Z,37.7544,-89.0118,24.5,17.6,230,4,,10+,29.94,,,TRUE,TRUE,,,,,,,CLR,,,,,,,,VFR,,,,,,,,,,,,METAR,142
KMVH 050055Z AUTO 14010KT 10SM CLR 13/M06 A2982 RMK AO2,KMVH,2024-05-05T00:55:00Z,46.838,-108.936,13,-6,140,10,,10+,29.82,,,TRUE,TRUE,,,,,,,CLR,,,,,,,,VFR,,,,,,,,,,,,METAR,1352
KMVE 050055Z AUTO 36004KT 10SM CLR 15/04 A3002 RMK AO2,KMVE,2024-05-05T00:55:00Z,44.9675,-95.7116,15,4,360,4,,10+,30.02,,,TRUE,TRUE,,,,,,,CLR,,,,,,,,VFR,,,,,,,,,,,,METAR,319
KMUT 050055Z AUTO 32015KT 10SM 16/08 A2998 RMK AO2,KMUT,2024-05-05T00:55:00Z,41.367,-91.1406,16,8,320,15,,10+,29.98,,,TRUE,TRUE,,,,,,,,,,,,,,,VFR,,,,,,,,,,,,METAR,166
KMUO 050055Z AUTO 12006KT 9SM -RA FEW013 FEW038 BKN050 BKN080 16/08 A2941 RMK AO2 DZB2355E2359DZB16E27RAB38E39DZB39E40RAB40 SLPNO P0000 T01610076 $,KMUO,2024-05-05T00:55:00Z,43.03,-115.859,16.1,7.6,120,6,,9,29.41,,,TRUE,TRUE,TRUE,,,,,-RA,FEW,1300,FEW,3800,BKN,5000,BKN,8000,VFR,,,,,,0.005,,,,,,METAR,915
KMTV 050055Z AUTO 06003KT 10SM -DZ OVC006 14/13 A3017 RMK AO2 T01420130,KMTV,2024-05-05T00:55:00Z,36.6272,-80.0134,14.2,13,60,3,,10+,30.17,,,TRUE,TRUE,,,,,,-DZ,OVC,600,,,,,,,IFR,,,,,,,,,,,,METAR,276
KMTK 050055Z AUTO 11008KT 10SM FEW022 25/22 A2998 RMK A01,KMTK,2024-05-05T00:55:00Z,28.6967,-89.3958,25,22,110,8,,10+,29.98,,,TRUE,TRUE,,,,,,,FEW,2200,,,,,,,VFR,,,,,,,,,,,,METAR,50
KMRT 050055Z AUTO 18005KT 10SM CLR 20/12 A2992 RMK AO2 T02030122,KMRT,2024-05-05T00:55:00Z,40.2237,-83.3475,20.3,12.2,180,5,,10+,29.92,,,TRUE,TRUE,,,,,,,CLR,,,,,,,,VFR,,,,,,,,,,,,METAR,302
KMRJ 050055Z AUTO 32009G17KT 10SM OVC025 13/08 A2997 RMK AO2 PWINO,KMRJ,2024-05-05T00:55:00Z,42.8875,-90.2315,13,8,320,9,17,10+,29.97,,,TRUE,TRUE,,,,,TRUE,,OVC,2500,,,,,,,MVFR,,,,,,,,,,,,METAR,350
KMQW 050055Z AUTO 00000KT 10SM CLR 22/21 A3002 RMK AO2 T02160211,KMQW,2024-05-05T00:55:00Z,32.0942,-82.882,21.6,21.1,0,0,,10+,30.02,,,TRUE,TRUE,,,,,,,CLR,,,,,,,,VFR,,,,,,,,,,,,METAR,62
KMQS 050055Z AUTO 11008KT 10SM OVC004 09/09 A3026 RMK AO2 P0001,KMQS,2024-05-05T00:55:00Z,39.9773,-75.8605,9,9,110,8,,10+,30.26,,,TRUE,TRUE,,,,,,,OVC,400,,,,,,,LIFR,,,,,,0.01,,,,,,METAR,200
KMQJ 050055Z AUTO 20003KT 10SM CLR 21/17 A2989 RMK AO2 T02130166,KMQJ,2024-05-05T00:55:00Z,39.8402,-85.894,21.3,16.6,200,3,,10+,29.89,,,TRUE,TRUE,,,,,,,CLR,,,,,,,,VFR,,,,,,,,,,,,METAR,262
KMQB 050055Z AUTO 31013G18KT 10SM OVC032 17/10 A2999 RMK AO2 T01650100,KMQB,2024-05-05T00:55:00Z,40.5176,-90.6481,16.5,10,310,13,18,10+,29.99,,,TRUE,TRUE,,,,,,,OVC,3200,,,,,,,VFR,,,,,,,,,,,,METAR,205
KMPZ 050055Z AUTO 33011G17KT 10SM OVC033 15/08 A3000 RMK AO2,KMPZ,2024-05-05T00:55:00Z,40.9453,-91.5122,15,8,330,11,17,10+,30.00,,,TRUE,TRUE,,,,,,,OVC,3300,,,,,,,VFR,,,,,,,,,,,,METAR,222
KMPR 050055Z AUTO 04007KT 10SM CLR 15/08 A3004 RMK AO2 T01530078,KMPR,2024-05-05T00:55:00Z,38.3491,-97.6883,15.3,7.8,40,7,,10+,30.04,,,TRUE,TRUE,,,,,,,CLR,,,,,,,,VFR,,,,,,,,,,,,METAR,455
KMOX 050055Z AUTO 32007KT 10SM CLR 14/04 A2998 RMK AO2,KMOX,2024-05-05T00:55:00Z,45.5677,-95.9659,14,4,320,7,,10+,29.98,,,TRUE,TRUE,,,,,,,CLR,,,,,,,,VFR,,,,,,,,,,,,METAR,346
KMOR 050055Z AUTO 11003KT 10SM FEW041 SCT080 BKN100 20/20 A3000 RMK A01,KMOR,2024-05-05T00:55:00Z,36.1746,-83.3853,20,20,110,3,,10+,30.00,,,TRUE,TRUE,,,,,,,FEW,4100,SCT,8000,BKN,10000,,,VFR,,,,,,,,,,,,METAR,393
KMOP 050055Z AUTO 00000KT 10SM CLR 18/14 A2987 RMK AO2 T01770140,KMOP,2024-05-05T00:55:00Z,43.6229,-84.743,17.7,14,0,0,,10+,29.87,,,TRUE,TRUE,,,,,,,CLR,,,,,,,,VFR,,,,,,,,,,,,METAR,229
KMNZ 050055Z AUTO 07009G14KT 3SM -RA BKN004 OVC030 21/21 A2983 RMK AO2 P0001 T02110211 TSNO,KMNZ,2024-05-05T00:55:00Z,31.6697,-98.1462,21.1,21.1,70,9,14,3,29.83,,,TRUE,TRUE,,,TRUE,,,-RA,BKN,400,OVC,3000,,,,,LIFR,,,,,,0.01,,,,,,METAR,397
KMNV 050055Z AUTO 00000KT 10SM SCT043 BKN048 BKN055 20/20 A3000 RMK A01,KMNV,2024-05-05T00:55:00Z,35.5429,-84.3808,20,20,0,0,,10+,30.00,,,TRUE,TRUE,,,,,,,SCT,4300,BKN,4800,BKN,5500,,,VFR,,,,,,,,,,,,METAR,306
KMNI 050055Z AUTO 00000KT 10SM SCT036 20/19 A3006 RMK AO2,KMNI,2024-05-05T00:55:00Z,33.5882,-80.2059,20,19,0,0,,10+,30.06,,,TRUE,TRUE,,,,,,,SCT,3600,,,,,,,VFR,,,,,,,,,,,,METAR,29
KMNH 050055Z AUTO 18015G20KT 10SM CLR 10/M01 A3003 RMK AO2,KMNH,2024-05-05T00:55:00Z,39.2232,-104.642,10,-1,180,15,20,10+,30.03,,,TRUE,TRUE,,,,,,,CLR,,,,,,,,VFR,,,,,,,,,,,,METAR,2152
KMNE 050055Z AUTO 00000KT 10SM CLR 24/17 A2993 RMK AO2,KMNE,2024-05-05T00:55:00Z,32.6433,-93.2972,24,17,0,0,,10+,29.93,,,TRUE,TRUE,,,,,,,CLR,,,,,,,,VFR,,,,,,,,,,,,METAR,84
KMMI 050055Z AUTO 00000KT 9SM FEW050 FEW060 FEW075 21/20 A3001 RMK A01,KMMI,2024-05-05T00:55:00Z,35.3952,-84.5612,21,20,0,0,,9,30.01,,,TRUE,TRUE,,,,,,,FEW,5000,FEW,6000,FEW,7500,,,VFR,,,,,,,,,,,,METAR,252
KMMH 050055Z AUTO 00000KT 3SM -SN BKN009 OVC015 01/00 A2965 RMK AO2 P0002 T00140001,KMMH,2024-05-05T00:55:00Z,37.6253,-118.838,1.4,0.1,0,0,,3,29.65,,,TRUE,TRUE,,,,,,-SN,BKN,900,OVC,1500,,,,,IFR,,,,,,0.02,,,,,,METAR,2167
KMLJ 050055Z AUTO 00000KT 10SM FEW041 SCT048 SCT055 22/20 A3002 RMK AO2,KMLJ,2024-05-05T00:55:00Z,33.153,-83.242,22,20,0,0,,10+,30.02,,,TRUE,TRUE,,,,,,,FEW,4100,SCT,4800,SCT,5500,,,VFR,,,,,,,,,,,,METAR,115
KMLE 050055Z AUTO 00000KT 10SM SCT050 15/04 A3007 RMK AO2 T01500038,KMLE,2024-05-05T00:55:00Z,41.1981,-96.1131,15,3.8,0,0,,10+,30.07,,,TRUE,TRUE,,,,,,,SCT,5000,,,,,,,VFR,,,,,,,,,,,,METAR,318
KMKS 050055Z AUTO 00000KT 10SM CLR 21/20 A3006 RMK AO2,KMKS,2024-05-05T00:55:00Z,33.1874,-80.0363,21,20,0,0,,10+,30.06,,,TRUE,TRUE,,,,,,,CLR,,,,,,,,VFR,,,,,,,,,,,,METAR,22
KMKN 050055Z AUTO 10011G18KT 5SM -TSRA OVC003 21/21 A2985 RMK AO2 LTG DSNT ALQS P0002 T02070207,KMKN,2024-05-05T00:55:00Z,31.924,-98.5978,20.7,20.7,100,11,18,5,29.85,,,TRUE,TRUE,,,,,,-TSRA,OVC,300,,,,,,,LIFR,,,,,,0.02,,,,,,METAR,428
KMKJ 050055Z AUTO 08004KT 10SM DZ BKN006 BKN029 OVC110 15/15 A3013 RMK AO2 P0001 T01520152,KMKJ,2024-05-05T00:55:00Z,36.8944,-81.3449,15.2,15.2,80,4,,10+,30.13,,,TRUE,TRUE,,,,,,DZ,BKN,600,BKN,2900,OVC,11000,,,IFR,,,,,,0.01,,,,,,METAR,777
KMKG 050055Z 09003KT 10SM TS SCT030CB OVC200 22/12 A2984 RMK AO2 LTG DSNT W TSB50 SLP102 OCNL LTGICCA W TS W MOV E T02170122 $,KMKG,2024-05-05T00:55:00Z,43.1711,-86.2368,21.7,12.2,90,3,,10+,29.84,1010.2,,,TRUE,TRUE,,,,,TS,SCT,3000,OVC,20000,,,,,VFR,,,,,,,,,,,,METAR,190
KMJQ 050055Z AUTO 33004KT 10SM CLR 12/05 A3004 RMK AO2,KMJQ,2024-05-05T00:55:00Z,43.6496,-94.9885,12,5,330,4,,10+,30.04,,,TRUE,TRUE,,,,,,,CLR,,,,,,,,VFR,,,,,,,,,,,,METAR,439
KMJD 050055Z AUTO 00000KT 10SM CLR 24/23 A2996 RMK AO2,KMJD,2024-05-05T00:55:00Z,30.494,-89.6535,24,23,0,0,,10+,29.96,,,TRUE,TRUE,,,,,,,CLR,,,,,,,,VFR,,,,,,,,,,,,METAR,17
KMIO 050055Z AUTO A2998 RMK AO2 PWINO,KMIO,2024-05-05T00:55:00Z,36.9128,-94.8893,,,,,,,29.98,,,TRUE,TRUE,,,,,TRUE,,,,,,,,,,,,,,,,,,,,,,METAR,245
KMIB 050055Z 11003KT 10SM BKN049 BKN080 12/01 A2995 RMK AO2A SLP155 T01240011,KMIB,2024-05-05T00:55:00Z,48.4062,-101.341,12.4,1.1,110,3,,10+,29.95,1015.5,,,TRUE,,,,,,,BKN,4900,BKN,8000,,,,,VFR,,,,,,,,,,,,METAR,505
KMHR 050055Z AUTO 20014G21KT 10SM FEW030 FEW043 SCT110 12/07 A2977 RMK A01 LTG DSNT N,KMHR,2024-05-05T00:55:00Z,38.56,-121.284,12,7,200,14,21,10+,29.77,,,TRUE,TRUE,,,,,,,FEW,3000,FEW,4300,SCT,11000,,,VFR,,,,,,,,,,,,METAR,30
KMHP 050055Z AUTO 24003KT 10SM -RA SCT080 SCT100 21/20 A3003 RMK AO2 T02120204,KMHP,2024-05-05T00:55:00Z,32.374,-82.079,21.2,20.4,240,3,,10+,30.03,,,TRUE,TRUE,,,,,,-RA,SCT,8000,SCT,10000,,,,,VFR,,,,,,,,,,,,METAR,60
KMHL 050055Z AUTO 10SM OVC025 OVC025 A3004 RMK AO2,KMHL,2024-05-05T00:55:00Z,39.093,-93.2024,,,,,,10+,30.04,,,TRUE,TRUE,,,,,,,OVC,2500,OVC,2500,,,,,MVFR,,,,,,,,,,,,METAR,236
KMGR 050055Z AUTO 00000KT 9SM -RA BKN120 BKN140 BKN170 20/20 A3005 RMK AO2 LTG DSNT S - W RAB0053 P0000 T02050205 $,KMGR,2024-05-05T00:55:00Z,31.0835,-83.8035,20.5,20.5,0,0,,9,30.05,,,TRUE,TRUE,TRUE,,,,,-RA,BKN,12000,BKN,14000,BKN,17000,,,VFR,,,,,,0.005,,,,,,METAR,86
KMGN 050055Z AUTO 10004KT 10SM CLR 18/11 A2981 RMK AO2 T01830110,KMGN,2024-05-05T00:55:00Z,45.4241,-84.913,18.3,11,100,4,,10+,29.81,,,TRUE,TRUE,,,,,,,CLR,,,,,,,,VFR,,,,,,,,,,,,METAR,205
KMGG 050055Z AUTO 28004KT 10SM CLR 15/02 A3000 RMK AO2 T01490015,KMGG,2024-05-05T00:55:00Z,45.2354,-93.9896,14.9,1.5,280,4,,10+,30.00,,,TRUE,TRUE,,,,,,,CLR,,,,,,,,VFR,,,,,,,,,,,,METAR,310
KMGE 050055Z AUTO 15004KT 10SM CLR 23/18 A3000 RMK AO2 SLP153 T02290182,KMGE,2024-05-05T00:55:00Z,33.9189,-84.5266,22.9,18.2,150,4,,10+,30.00,1015.3,,TRUE,TRUE,,,,,,,CLR,,,,,,,,VFR,,,,,,,,,,,,METAR,309
KMGC 050055Z AUTO 10SM SCT075 21/13 A2983 RMK AO2,KMGC,2024-05-05T00:55:00Z,41.7048,-86.8183,21,13,,,,10+,29.83,,,TRUE,TRUE,,,,,,,SCT,7500,,,,,,,VFR,,,,,,,,,,,,METAR,199
KMEZ 050055Z AUTO 29006KT 1 1/4SM +RA BR SCT026 BKN039 22/21 A2997 RMK AO2 VIS 3/4V4 RAB0023 P0012 T02170210,KMEZ,2024-05-05T00:55:00Z,34.5414,-94.1918,21.7,21,290,6,,1.25,29.97,,,TRUE,TRUE,,,,,,+RA BR,SCT,2600,BKN,3900,,,,,IFR,,,,,,0.12,,,,,,METAR,320
KMDZ 050055Z AUTO 31007KT 10SM BKN026 10/06 A2994 RMK AO2 T01020058 PWINO,KMDZ,2024-05-05T00:55:00Z,45.1013,-90.3064,10.2,5.8,310,7,,10+,29.94,,,TRUE,TRUE,,,,,TRUE,,BKN,2600,,,,,,,MVFR,,,,,,,,,,,,METAR,446
KMDS 050055Z AUTO 32003KT 10SM 13/03 A3004 RMK AO2 TSNO,KMDS,2024-05-05T00:55:00Z,44.0141,-97.0817,13,3,320,3,,10+,30.04,,,TRUE,TRUE,,,TRUE,,,,,,,,,,,,VFR,,,,,,,,,,,,METAR,524
KMDQ 050055Z AUTO 00000KT 10SM CLR 22/19 A2997 RMK A02 LTG DSNT NE T02210192,KMDQ,2024-05-05T00:55:00Z,34.866,-86.559,22.1,19.2,0,0,,10+,29.97,,,TRUE,TRUE,,,,,,,CLR,,,,,,,,VFR,,,,,,,,,,,,METAR,221
KMDD 050055Z AUTO 07014G20KT 10SM CLR 18/14 A2987 RMK AO2 LTG DSNT N THRU SE T01780144,KMDD,2024-05-05T00:55:00Z,32.0359,-102.1,17.8,14.4,70,14,20,10+,29.87,,,TRUE,TRUE,,,,,,,CLR,,,,,,,,VFR,,,,,,,,,,,,METAR,853
KMCJ 050055Z AUTO 12014KT 10SM BKN021 BKN028 BKN048 25/22 A2988 RMK A01,KMCJ,2024-05-05T00:55:00Z,29.7139,-95.3967,25,22,120,14,,10+,29.88,,,TRUE,TRUE,,,,,,,BKN,2100,BKN,2800,BKN,4800,,,MVFR,,,,,,,,,,,,METAR,70
KMCF 050055Z AUTO 32003KT 10SM SCT047 SCT055 26/20 A3000 RMK AO2 SLP162 T02600198 FZRANO $,KMCF,2024-05-05T00:55:00Z,27.8598,-82.5133,26,19.8,320,3,,10+,30.00,1016.2,,TRUE,TRUE,TRUE,,,TRUE,,,SCT,4700,SCT,5500,,,,,VFR,,,,,,,,,,,,METAR,3
KMCD 050055Z AUTO 10008G14KT 1/2SM FG OVC001 07/07 A2983 RMK AO2 T00730073,KMCD,2024-05-05T00:55:00Z,45.866,-84.634,7.3,7.3,100,8,14,0.5,29.83,,,TRUE,TRUE,,,,,,FG,OVC,100,,,,,,,LIFR,,,,,,,,,,,,METAR,228
KMCC 050055Z AUTO 19020KT 10SM FEW029 SCT035 BKN060 13/07 A2976 RMK AO2 P0003,KMCC,2024-05-05T00:55:00Z,38.678,-121.403,13,7,190,20,,10+,29.76,,,TRUE,TRUE,,,,,,,FEW,2900,SCT,3500,BKN,6000,,,VFR,,,,,,0.03,,,,,,METAR,21
KMBY 050055Z AUTO 33013KT 10SM OVC030 16/10 A3002 RMK AO2,KMBY,2024-05-05T00:55:00Z,39.464,-92.4244,16,10,330,13,,10+,30.02,,,TRUE,TRUE,,,,,,,OVC,3000,,,,,,,MVFR,,,,,,,,,,,,METAR,263
KMBT 050055Z AUTO 00000KT 10SM FEW036 FEW043 FEW060 21/20 A2995 RMK A01,KMBT,2024-05-05T00:55:00Z,35.8767,-86.3793,21,20,0,0,,10+,29.95,,,TRUE,TRUE,,,,,,,FEW,3600,FEW,4300,FEW,6000,,,VFR,,,,,,,,,,,,METAR,187
KMAW 050055Z AUTO 26008KT 10SM CLR 25/17 A2994 RMK AO1,KMAW,2024-05-05T00:55:00Z,36.5945,-89.9865,25,17,260,8,,10+,29.94,,,TRUE,TRUE,,,,,,,CLR,,,,,,,,VFR,,,,,,,,,,,,METAR,88
KMAO 050055Z AUTO 14003KT 10SM SCT050 20/20 A3009 RMK AO2,KMAO,2024-05-05T00:55:00Z,34.1852,-79.3341,20,20,140,3,,10+,30.09,,,TRUE,TRUE,,,,,,,SCT,5000,,,,,,,VFR,,,,,,,,,,,,METAR,27
KMAN 050055Z AUTO 35010KT 10SM FEW048 SCT055 OVC070 16/06 A2943 RMK A01,KMAN,2024-05-05T00:55:00Z,43.582,-116.521,16,6,350,10,,10+,29.43,,,TRUE,TRUE,,,,,,,FEW,4800,SCT,5500,OVC,7000,,,VFR,,,,,,,,,,,,METAR,773
KM91 050055Z AUTO 18005KT 10SM CLR 22/20 A2993 RMK A01,KM91,2024-05-05T00:55:00Z,36.5363,-86.919,22,20,180,5,,10+,29.93,,,TRUE,TRUE,,,,,,,CLR,,,,,,,,VFR,,,,,,,,,,,,METAR,214
KM75 050055Z AUTO 11006KT 10SM CLR 15/M03 A2985 RMK A01,KM75,2024-05-05T00:55:00Z,48.3686,-107.919,15,-3,110,6,,10+,29.85,,,TRUE,TRUE,,,,,,,CLR,,,,,,,,VFR,,,,,,,,,,,,METAR,687
KM40 050055Z AUTO 00000KT 9SM CLR 23/22 A2997 RMK AO2,KM40,2024-05-05T00:55:00Z,33.8755,-88.4872,23,22,0,0,,9,29.97,,,TRUE,TRUE,,,,,,,CLR,,,,,,,,VFR,,,,,,,,,,,,METAR,68
KM30 050055Z AUTO 00000KT 10SM SCT047 25/16 A2993 RMK AO2 T02460163,KM30,2024-05-05T00:55:00Z,37.1824,-88.7487,24.6,16.3,0,0,,10+,29.93,,,TRUE,TRUE,,,,,,,SCT,4700,,,,,,,VFR,,,,,,,,,,,,METAR,116
KM21 050055Z AUTO 00000KT 10SM CLR 23/20 A2992 RMK AO2 T02300197,KM21,2024-05-05T00:55:00Z,37.2291,-87.1542,23,19.7,0,0,,10+,29.92,,,TRUE,TRUE,,,,,,,CLR,,,,,,,,VFR,,,,,,,,,,,,METAR,127
KM01 050055Z AUTO 23004KT 10SM CLR 22/21 A2993 RMK AO2 T02250206 $,KM01,2024-05-05T00:55:00Z,35.2004,-90.0548,22.5,20.6,230,4,,10+,29.93,,,TRUE,TRUE,TRUE,,,,,,CLR,,,,,,,,VFR,,,,,,,,,,,,METAR,68
KLYV 050055Z AUTO 32005KT 10SM CLR 13/01 A3005 RMK AO2,KLYV,2024-05-05T00:55:00Z,43.6217,-96.214,13,1,320,5,,10+,30.05,,,TRUE,TRUE,,,,,,,CLR,,,,,,,,VFR,,,,,,,,,,,,METAR,435
KLYO 050055Z AUTO 06007KT 10SM CLR 16/07 A3004 RMK AO2 T01590066,KLYO,2024-05-05T00:55:00Z,38.343,-98.2266,15.9,6.6,60,7,,10+,30.04,,,TRUE,TRUE,,,,,,,CLR,,,,,,,,VFR,,,,,,,,,,,,METAR,515
KLXN 050055Z AUTO 11006KT 10SM CLR 15/04 A3006 RMK AO2 T01450038,KLXN,2024-05-05T00:55:00Z,40.7915,-99.775,14.5,3.8,110,6,,10+,30.06,,,TRUE,TRUE,,,,,,,CLR,,,,,,,,VFR,,,,,,,,,,,,METAR,734
KLXL 050055Z AUTO 30005KT 10SM CLR 15/01 A2998 RMK AO2,KLXL,2024-05-05T00:55:00Z,45.9509,-94.3441,15,1,300,5,,10+,29.98,,,TRUE,TRUE,,,,,,,CLR,,,,,,,,VFR,,,,,,,,,,,,METAR,335
KLWB 050055Z AUTO 13003KT 10SM BKN027 BKN035 BKN095 15/14 A3011 RMK AO2 T01510136,KLWB,2024-05-05T00:55:00Z,37.8633,-80.3923,15.1,13.6,130,3,,10+,30.11,,,TRUE,TRUE,,,,,,,BKN,2700,BKN,3500,BKN,9500,,,MVFR,,,,,,,,,,,,METAR,702
KLWA 050055Z AUTO 00000KT 10SM CLR 20/16 A2984 RMK AO2 T02020163,KLWA,2024-05-05T00:55:00Z,42.3476,-86.2578,20.2,16.3,0,0,,10+,29.84,,,TRUE,TRUE,,,,,,,CLR,,,,,,,,VFR,,,,,,,,,,,,METAR,199
KLVN 050055Z AUTO 00000KT 10SM SCT060 14/05 A3000 RMK AO2,KLVN,2024-05-05T00:55:00Z,44.6252,-93.2273,14,5,0,0,,10+,30.00,,,TRUE,TRUE,,,,,,,SCT,6000,,,,,,,VFR,,,,,,,,,,,,METAR,292
KLVL 050055Z AUTO 03003KT OVC006 17/17 A3014 RMK AO1 T01740165,KLVL,2024-05-05T00:55:00Z,36.7723,-77.7925,17.4,16.5,30,3,,,30.14,,,TRUE,TRUE,,,,,,,OVC,600,,,,,,,,,,,,,,,,,,,METAR,98
KLUX 050055Z AUTO 00000KT 10SM OVC070 20/19 A3005 RMK AO2 LTG DSNT SW AND W,KLUX,2024-05-05T00:55:00Z,34.508,-81.949,20,19,0,0,,10+,30.05,,,TRUE,TRUE,,,,,,,OVC,7000,,,,,,,VFR,,,,,,,,,,,,METAR,213
KLUV 050055Z AUTO 07017KT 10SM SCT100 16/15 A2987 RMK AO2 LTG DSNT NE P0001,KLUV,2024-05-05T00:55:00Z,32.7481,-101.913,16,15,70,17,,10+,29.87,,,TRUE,TRUE,,,,,,,SCT,10000,,,,,,,VFR,,,,,,0.01,,,,,,METAR,910
KLUM 050055Z AUTO 31006KT 10SM CLR 13/04 A2998 RMK AO2 T01330038 PWINO,KLUM,2024-05-05T00:55:00Z,44.8936,-91.8665,13.3,3.8,310,6,,10+,29.98,,,TRUE,TRUE,,,,,TRUE,,CLR,,,,,,,,VFR,,,,,,,,,,,,METAR,271
KLUL 050055Z AUTO 18006KT 10SM CLR 27/21 A2997 RMK A02 T02670206,KLUL,2024-05-05T00:55:00Z,31.6682,-89.1705,26.7,20.6,180,6,,10+,29.97,,,TRUE,TRUE,,,,,,,CLR,,,,,,,,VFR,,,,,,,,,,,,METAR,74
KLUG 050055Z AUTO 00000KT 10SM FEW042 SCT070 22/20 A2995 RMK A01 P0001,KLUG,2024-05-05T00:55:00Z,35.5082,-86.8055,22,20,0,0,,10+,29.95,,,TRUE,TRUE,,,,,,,FEW,4200,SCT,7000,,,,,VFR,,,,,,0.01,,,,,,METAR,218
KLUF 050055Z AUTO 24015KT 10SM CLR 33/M06 A2966 RMK AO2 SLPNO T03311056 $,KLUF,2024-05-05T00:55:00Z,33.538,-112.38,33.1,-5.6,240,15,,10+,29.66,,,TRUE,TRUE,TRUE,,,,,,CLR,,,,,,,,VFR,,,,,,,,,,,,METAR,333
KLUD 050055Z AUTO 11005KT 5SM BR SCT009 SCT014 BKN023 22/20 A2991 RMK AO2 T02200203,KLUD,2024-05-05T00:55:00Z,33.2568,-97.5826,22,20.3,110,5,,5,29.91,,,TRUE,TRUE,,,,,,BR,SCT,900,SCT,1400,BKN,2300,,,MVFR,,,,,,,,,,,,METAR,319
KLUA 050055Z AUTO 02003KT 10SM 13/12 A3017 RMK AO2,KLUA,2024-05-05T00:55:00Z,38.667,-78.501,13,12,20,3,,10+,30.17,,,TRUE,TRUE,,,,,,,,,,,,,,,VFR,,,,,,,,,,,,METAR,273
KLTS 050055Z AUTO 04013G22KT 10SM BKN022 18/13 A2993 RMK AO2 BKN V OVC CIG 021 RWY36L CIG 021 RWY36R SLP127 T01790130 $,KLTS,2024-05-05T00:55:00Z,34.666,-99.27,17.9,13,40,13,22,10+,29.93,1012.7,,TRUE,TRUE,TRUE,,,,,,BKN,2200,,,,,,,MVFR,,,,,,,,,,,,METAR,416
KLSV 050055Z AUTO 20017KT 10SM SCT180 29/M04 A2953 RMK AO2 PK WND 21033/34 SLPNO T02901045 $,KLSV,2024-05-05T00:55:00Z,36.236,-115.034,29,-4.5,200,17,,10+,29.53,,,TRUE,TRUE,TRUE,,,,,,SCT,18000,,,,,,,VFR,,,,,,,,,,,,METAR,563
KLSF 050055Z AUTO 00000KT 10SM CLR 22/19 A2997 RMK AO2 RAB20E47 SLP152 P0000 T02230191 RVRNO VISNO RWY33 $,KLSF,2024-05-05T00:55:00Z,32.3239,-84.9826,22.3,19.1,0,0,,10+,29.97,1015.2,,TRUE,TRUE,TRUE,,,,,,CLR,,,,,,,,VFR,,,,,,0.005,,,,,,METAR,68
KLRY 050055Z AUTO 02006KT 10SM OVC025 16/10 A3007 RMK AO2,KLRY,2024-05-05T00:55:00Z,38.6074,-94.3453,16,10,20,6,,10+,30.07,,,TRUE,TRUE,,,,,,,OVC,2500,,,,,,,MVFR,,,,,,,,,,,,METAR,272
KLRU 050055Z AUTO 22014G18KT 10SM CLR 29/M10 A2986 RMK AO2 T02851096,KLRU,2024-05-05T00:55:00Z,32.2884,-106.913,28.5,-9.6,220,14,18,10+,29.86,,,TRUE,TRUE,,,,,,,CLR,,,,,,,,VFR,,,,,,,,,,,,METAR,1355
KLRO 050055Z AUTO 00000KT 10SM CLR 23/22 A3006 RMK AO2,KLRO,2024-05-05T00:55:00Z,32.8982,-79.7796,23,22,0,0,,10+,30.06,,,TRUE,TRUE,,,,,,,CLR,,,,,,,,VFR,,,,,,,,,,,,METAR,3
KLRJ 050055Z AUTO 35004KT 10SM OVC060 A3004 RMK AO2,KLRJ,2024-05-05T00:55:00Z,42.7771,-96.195,,,350,4,,10+,30.04,,,TRUE,TRUE,,,,,,,OVC,6000,,,,,,,VFR,,,,,,,,,,,,METAR,363
KLRF 050055Z AUTO 00000KT 10SM BKN210 23/21 A2993 RMK AO2 LTG DSNT NW SLP136 T02280205 $,KLRF,2024-05-05T00:55:00Z,34.92,-92.131,22.8,20.5,0,0,,10+,29.93,1013.6,,TRUE,TRUE,TRUE,,,,,,BKN,21000,,,,,,,VFR,,,,,,,,,,,,METAR,85
KLQK 050055Z AUTO 00000KT 4SM BR SCT080 SCT085 OVC110 18/18 A3004 RMK AO2 T01790179,KLQK,2024-05-05T00:55:00Z,34.8069,-82.7047,17.9,17.9,0,0,,4,30.04,,,TRUE,TRUE,,,,,,BR,SCT,8000,SCT,8500,OVC,11000,,,MVFR,,,,,,,,,,,,METAR,291
KLOR 050055Z AUTO 00000KT 10SM BKN060 BKN075 26/20 A2998 RMK AO2 LTG DSNT SE SLP134 T02610202,KLOR,2024-05-05T00:55:00Z,31.36,-85.749,26.1,20.2,0,0,,10+,29.98,1013.4,,TRUE,TRUE,,,,,,,BKN,6000,BKN,7500,,,,,VFR,,,,,,,,,,,,METAR,92
KLOM 050055Z AUTO 09007KT 10SM DZ OVC008 09/09 A3029 RMK AO2 T00940091,KLOM,2024-05-05T00:55:00Z,40.1376,-75.2684,9.4,9.1,90,7,,10+,30.29,,,TRUE,TRUE,,,,,,DZ,OVC,800,,,,,,,IFR,,,,,,,,,,,,METAR,87
KLNP 050055Z AUTO 16004KT 10SM SCT028 BKN033 BKN043 16/16 A3008 RMK AO2 LTG DSNT NW,KLNP,2024-05-05T00:55:00Z,36.9884,-82.524,16,16,160,4,,10+,30.08,,,TRUE,TRUE,,,,,,,SCT,2800,BKN,3300,BKN,4300,,,VFR,,,,,,,,,,,,METAR,817
KLNN 050055Z AUTO 15012KT 10SM SCT017 SCT070 SCT120 17/15 A2996 RMK AO1 T01690146,KLNN,2024-05-05T00:55:00Z,41.6839,-81.3896,16.9,14.6,150,12,,10+,29.96,,,TRUE,TRUE,,,,,,,SCT,1700,SCT,7000,SCT,12000,,,VFR,,,,,,,,,,,,METAR,190
KLNL 050055Z AUTO 32007KT 10SM BKN010 OVC014 08/08 A2994 RMK AO2 T00760076,KLNL,2024-05-05T00:55:00Z,46.1515,-89.2108,7.6,7.6,320,7,,10+,29.94,,,TRUE,TRUE,,,,,,,BKN,1000,OVC,1400,,,,,MVFR,,,,,,,,,,,,METAR,517
KLNC 050055Z AUTO 00000KT 10SM BKN065 BKN085 25/20 A2989 RMK AO2 LTG DSNT NW T02450195,KLNC,2024-05-05T00:55:00Z,32.5832,-96.7209,24.5,19.5,0,0,,10+,29.89,,,TRUE,TRUE,,,,,,,BKN,6500,BKN,8500,,,,,VFR,,,,,,,,,,,,METAR,152
KLNA 050055Z AUTO 11009KT 10SM CLR 26/21 A3003 RMK AO2 T02640205 TSNO,KLNA,2024-05-05T00:55:00Z,26.5925,-80.0848,26.4,20.5,110,9,,10+,30.03,,,TRUE,TRUE,,,TRUE,,,,CLR,,,,,,,,VFR,,,,,,,,,,,,METAR,3
KLMS 050055Z AUTO 00000KT 10SM CLR 23/20 A3001 RMK AO2,KLMS,2024-05-05T00:55:00Z,33.15,-89.063,23,20,0,0,,10+,30.01,,,TRUE,TRUE,,,,,,,CLR,,,,,,,,VFR,,,,,,,,,,,,METAR,169
KLMO 050055Z AUTO 31004KT 10SM CLR 17/01 A2994 RMK AO2 T01740011,KLMO,2024-05-05T00:55:00Z,40.1612,-105.16,17.4,1.1,310,4,,10+,29.94,,,TRUE,TRUE,,,,,,,CLR,,,,,,,,VFR,,,,,,,,,,,,METAR,1535
KLLN 050055Z AUTO 05018KT 10SM OVC013 16/12 A2996 RMK AO2,KLLN,2024-05-05T00:55:00Z,33.556,-102.375,16,12,50,18,,10+,29.96,,,TRUE,TRUE,,,,,,,OVC,1300,,,,,,,MVFR,,,,,,,,,,,,METAR,1071
KLLJ 050055Z AUTO 15016G28KT 10SM CLR 17/M03 A2954 RMK AO2 PK WND 17030/0008 SLP978 T01671033,KLLJ,2024-05-05T00:55:00Z,44.523,-114.216,16.7,-3.3,150,16,28,10+,29.54,997.8,,TRUE,TRUE,,,,,,,CLR,,,,,,,,VFR,,,,,,,,,,,,METAR,1535
KLKU 050055Z AUTO 06006KT 3SM -RA BR OVC003 13/13 A3018 RMK AO2 T01290127,KLKU,2024-05-05T00:55:00Z,38.0085,-77.9681,12.9,12.7,60,6,,3,30.18,,,TRUE,TRUE,,,,,,-RA BR,OVC,300,,,,,,,LIFR,,,,,,,,,,,,METAR,146
KLKR 050055Z AUTO 00000KT 7SM -RA BKN035 BKN045 OVC110 20/19 A3007 RMK AO2,KLKR,2024-05-05T00:55:00Z,34.7266,-80.8532,20,19,0,0,,7,30.07,,,TRUE,TRUE,,,,,,-RA,BKN,3500,BKN,4500,OVC,11000,,,VFR,,,,,,,,,,,,METAR,166
KLJF 050055Z AUTO 31004KT 10SM CLR 14/01 A3000 RMK AO2,KLJF,2024-05-05T00:55:00Z,45.0948,-94.5084,14,1,310,4,,10+,30.00,,,TRUE,TRUE,,,,,,,CLR,,,,,,,,VFR,,,,,,,,,,,,METAR,347
KLIC 050055Z AUTO 17018G26KT 10SM CLR 14/M03 A3000 RMK AO2 PK WND 16027/0017 SLP136 T01441033,KLIC,2024-05-05T00:55:00Z,39.2733,-103.667,14.4,-3.3,170,18,26,10+,30.00,1013.6,,TRUE,TRUE,,,,,,,CLR,,,,,,,,VFR,,,,,,,,,,,,METAR,1635
KLHW 050055Z AUTO 13004KT 10SM SCT110 23/22 A3001 RMK AO2 SLP165 T02250216 $,KLHW,2024-05-05T00:55:00Z,31.8872,-81.5625,22.5,21.6,130,4,,10+,30.01,1016.5,,TRUE,TRUE,TRUE,,,,,,SCT,11000,,,,,,,VFR,,,,,,,,,,,,METAR,14
KLHM 050055Z AUTO 20008KT 7SM BKN025 OVC041 10/07 A2977 RMK AO1,KLHM,2024-05-05T00:55:00Z,38.9148,-121.352,10,7,200,8,,7,29.77,,,TRUE,TRUE,,,,,,,BKN,2500,OVC,4100,,,,,MVFR,,,,,,,,,,,,METAR,36
KLHB 050055Z AUTO 08006KT 10SM SCT044 SCT060 BKN075 26/22 A2986 RMK AO2 LTG DSNT W T02560220,KLHB,2024-05-05T00:55:00Z,30.8693,-96.6207,25.6,22,80,6,,10+,29.86,,,TRUE,TRUE,,,,,,,SCT,4400,SCT,6000,BKN,7500,,,VFR,,,,,,,,,,,,METAR,83
KLGF 050055Z AUTO 22011G20KT 7SM CLR 33/01 A2966 RMK AO2 SLPNO T03260006 $,KLGF,2024-05-05T00:55:00Z,32.868,-114.393,32.6,0.6,220,11,20,7,29.66,,,TRUE,TRUE,TRUE,,,,,,CLR,,,,,,,,VFR,,,,,,,,,,,,METAR,118
KLGC 050055Z AUTO 00000KT 10SM CLR 21/20 A3001 RMK AO2 T02120201,KLGC,2024-05-05T00:55:00Z,33.0093,-85.0717,21.2,20.1,0,0,,10+,30.01,,,TRUE,TRUE,,,,,,,CLR,,,,,,,,VFR,,,,,,,,,,,,METAR,209
KLFI 050055Z 11007KT 10SM FEW009 OVC025 16/14 A3016 RMK AO2A SLP220 T01650140 $,KLFI,2024-05-05T00:55:00Z,37.088,-76.349,16.5,14,110,7,,10+,30.16,1022,,,TRUE,TRUE,,,,,,FEW,900,OVC,2500,,,,,MVFR,,,,,,,,,,,,METAR,2
KLDM 050055Z AUTO 17003KT 10SM BKN065 BKN075 BKN095 21/11 A2982 RMK AO2 T02110107,KLDM,2024-05-05T00:55:00Z,43.9614,-86.4107,21.1,10.7,170,3,,10+,29.82,,,TRUE,TRUE,,,,,,,BKN,6500,BKN,7500,BKN,9500,,,VFR,,,,,,,,,,,,METAR,194
KLDJ 050055Z AUTO 15008KT 10SM OVC050 12/07 A3033 RMK AO2 T01150065,KLDJ,2024-05-05T00:55:00Z,40.6162,-74.2451,11.5,6.5,150,8,,10+,30.33,,,TRUE,TRUE,,,,,,,OVC,5000,,,,,,,VFR,,,,,,,,,,,,METAR,6
KLCQ 050055Z AUTO 36003KT 10SM CLR 23/21 A3003 RMK AO2 LTG DSNT NE,KLCQ,2024-05-05T00:55:00Z,30.1838,-82.5684,23,21,360,3,,10+,30.03,,,TRUE,TRUE,,,,,,,CLR,,,,,,,,VFR,,,,,,,,,,,,METAR,59
KLCK 050055Z AUTO 15007KT 10SM -RA BKN014 BKN026 OVC110 20/19 A2992 RMK AO2 LTG DSNT S P0001 T02000190,KLCK,2024-05-05T00:55:00Z,39.83,-82.919,20,19,150,7,,10+,29.92,,,TRUE,TRUE,,,,,,-RA,BKN,1400,BKN,2600,OVC,11000,,,MVFR,,,,,,0.01,,,,,,METAR,225
KLBO 050055Z AUTO 34005KT 10SM SCT025 20/16 A2999 RMK AO2,KLBO,2024-05-05T00:55:00Z,37.6449,-92.6544,20,16,340,5,,10+,29.99,,,TRUE,TRUE,,,,,,,SCT,2500,,,,,,,VFR,,,,,,,,,,,,METAR,399
KLAM 050055Z AUTO 27020G24KT 6SM -RA FEW031 BKN055 BKN070 OVC090 13/02 A3007 RMK AO2 PRESRR P0000 T01320018 $,KLAM,2024-05-05T00:55:00Z,35.8789,-106.262,13.2,1.8,270,20,24,6,30.07,,,TRUE,TRUE,TRUE,,,,,-RA,FEW,3100,BKN,5500,BKN,7000,OVC,9000,VFR,,,,,,0.005,,,,,,METAR,2166
KL35 050055Z AUTO 26010KT 10SM CLR 06/M01 A2994 RMK AO2,KL35,2024-05-05T00:55:00Z,34.2626,-116.855,6,-1,260,10,,10+,29.94,,,TRUE,TRUE,,,,,,,CLR,,,,,,,,VFR,,,,,,,,,,,,METAR,2062
KL18 050055Z AUTO 24007KT 10SM SCT017 BKN027 OVC034 15/12 A2991 RMK AO2,KL18,2024-05-05T00:55:00Z,33.3551,-117.249,15,12,240,7,,10+,29.91,,,TRUE,TRUE,,,,,,,SCT,1700,BKN,2700,OVC,3400,,,MVFR,,,,,,,,,,,,METAR,215
KL08 050055Z AUTO 33011G17KT 10SM CLR 26/05 A2973 RMK AO2,KL08,2024-05-05T00:55:00Z,33.2604,-116.323,26,5,330,11,17,10+,29.73,,,TRUE,TRUE,,,,,,,CLR,,,,,,,,VFR,,,,,,,,,,,,METAR,156
KKY8 050055Z AUTO 20003KT 10SM BKN050 BKN065 23/20 A2991 RMK A01,KKY8,2024-05-05T00:55:00Z,37.953,-86.8592,23,20,200,3,,10+,29.91,,,TRUE,TRUE,,,,,,,BKN,5000,BKN,6500,,,,,VFR,,,,,,,,,,,,METAR,124
KKNB 050055Z AUTO 23018G24KT 10SM CLR 23/M03 A2977 RMK A01,KKNB,2024-05-05T00:55:00Z,37.0078,-112.53,23,-3,230,18,24,10+,29.77,,,TRUE,TRUE,,,,,,,CLR,,,,,,,,VFR,,,,,,,,,,,,METAR,1476
KK88 050055Z AUTO 36006G09KT 10SM CLR 16/10 A3004 RMK AO1 T01600104,KK88,2024-05-05T00:55:00Z,37.8692,-95.384,16,10.4,360,6,9,10+,30.04,,,TRUE,TRUE,,,,,,,CLR,,,,,,,,VFR,,,,,,,,,,,,METAR,308
KK83 050055Z AUTO 06006KT 10SM CLR 13/09 A3008 RMK AO2 T01320092,KK83,2024-05-05T00:55:00Z,39.9053,-95.7747,13.2,9.2,60,6,,10+,30.08,,,TRUE,TRUE,,,,,,,CLR,,,,,,,,VFR,,,,,,,,,,,,METAR,405
KK82 050055Z AUTO 08006KT 10SM CLR 15/07 A3007 RMK AO2 TSNO T01460066,KK82,2024-05-05T00:55:00Z,39.7606,-98.7957,14.6,6.6,80,6,,10+,30.07,,,TRUE,TRUE,,,TRUE,,,,CLR,,,,,,,,VFR,,,,,,,,,,,,METAR,548
KK62 050055Z AUTO 32004G14KT 10SM SCT019 BKN027 OVC042 20/18 A2994 RMK AO2,KK62,2024-05-05T00:55:00Z,38.7018,-84.3964,20,18,320,4,14,10+,29.94,,,TRUE,TRUE,,,,,,,SCT,1900,BKN,2700,OVC,4200,,,MVFR,,,,,,,,,,,,METAR,274
KJZP 050055Z AUTO 12004KT 10SM OVC090 20/17 A3005 RMK AO2 T02000172,KJZP,2024-05-05T00:55:00Z,34.4542,-84.4597,20,17.2,120,4,,10+,30.05,,,TRUE,TRUE,,,,,,,OVC,9000,,,,,,,VFR,,,,,,,,,,,,METAR,462
KJZI 050055Z AUTO 13006KT 10SM CLR 23/21 A3007 RMK AO2,KJZI,2024-05-05T00:55:00Z,32.7025,-80.0058,23,21,130,6,,10+,30.07,,,TRUE,TRUE,,,,,,,CLR,,,,,,,,VFR,,,,,,,,,,,,METAR,5
KJYR 050055Z AUTO 07006KT 10SM CLR 13/04 A3007 RMK AO2,KJYR,2024-05-05T00:55:00Z,40.8942,-97.6258,13,4,70,6,,10+,30.07,,,TRUE,TRUE,,,,,,,CLR,,,,,,,,VFR,,,,,,,,,,,,METAR,508
KJYO 050055Z AUTO 11007KT 5SM -DZ OVC004 11/11 A3023 RMK AO2 P0001,KJYO,2024-05-05T00:55:00Z,39.0826,-77.5605,11,11,110,7,,5,30.23,,,TRUE,TRUE,,,,,,-DZ,OVC,400,,,,,,,LIFR,,,,,,0.01,,,,,,METAR,112
KJYM 050055Z AUTO 12005KT 10SM BKN120 18/14 A2990 RMK AO2 T01810143,KJYM,2024-05-05T00:55:00Z,41.9197,-84.5853,18.1,14.3,120,5,,10+,29.90,,,TRUE,TRUE,,,,,,,BKN,12000,,,,,,,VFR,,,,,,,,,,,,METAR,357
KJYL 050055Z AUTO 10003KT 7SM RA SCT060 SCT075 BKN090 21/20 A3006 RMK AO2 T02050201,KJYL,2024-05-05T00:55:00Z,32.6459,-81.5894,20.5,20.1,100,3,,7,30.06,,,TRUE,TRUE,,,,,,RA,SCT,6000,SCT,7500,BKN,9000,,,VFR,,,,,,,,,,,,METAR,54
KJYG 050055Z AUTO 33007KT 10SM CLR 14/08 A3002 RMK AO2,KJYG,2024-05-05T00:55:00Z,43.9855,-94.5527,14,8,330,7,,10+,30.02,,,TRUE,TRUE,,,,,,,CLR,,,,,,,,VFR,,,,,,,,,,,,METAR,323
KJXI 050055Z AUTO 00000KT 10SM CLR 26/19 A2993 RMK AO2 T02550187,KJXI,2024-05-05T00:55:00Z,32.7036,-94.9471,25.5,18.7,0,0,,10+,29.93,,,TRUE,TRUE,,,,,,,CLR,,,,,,,,VFR,,,,,,,,,,,,METAR,130
KJWY 050055Z AUTO 00000KT 10SM SCT065 OVC100 23/20 A2990 RMK AO2 T02300201,KJWY,2024-05-05T00:55:00Z,32.456,-96.914,23,20.1,0,0,,10+,29.90,,,TRUE,TRUE,,,,,,,SCT,6500,OVC,10000,,,,,VFR,,,,,,,,,,,,METAR,211
KJWG 050055Z AUTO 03009KT 10SM BKN034 17/12 A3000 RMK AO2 T01660121,KJWG,2024-05-05T00:55:00Z,35.863,-98.423,16.6,12.1,30,9,,10+,30.00,,,TRUE,TRUE,,,,,,,BKN,3400,,,,,,,VFR,,,,,,,,,,,,METAR,469
KJVY 050055Z 18006KT 10SM FEW044 FEW050 SCT065 23/20 A2989 RMK AO2 PRACTICE APPRCH/ TCH AND GOS/ OTHR FLT TRN N/A WED 5/1 1200L THRU SUN 5/5 2100L,KJVY,2024-05-05T00:55:00Z,38.3692,-85.7366,23,20,180,6,,10+,29.89,,,,TRUE,,,,,,,FEW,4400,FEW,5000,SCT,6500,,,VFR,,,,,,,,,,,,METAR,141
KJSO 050055Z AUTO 16003KT 10SM CLR 23/20 A2995 RMK AO2 T02270195,KJSO,2024-05-05T00:55:00Z,31.869,-95.2145,22.7,19.5,160,3,,10+,29.95,,,TRUE,TRUE,,,,,,,CLR,,,,,,,,VFR,,,,,,,,,,,,METAR,204
KJPX 050055Z AUTO 11006G15KT 10SM OVC009 08/06 A3035 RMK AO2 T00820055,KJPX,2024-05-05T00:55:00Z,40.9605,-72.2511,8.2,5.5,110,6,15,10+,30.35,,,TRUE,TRUE,,,,,,,OVC,900,,,,,,,IFR,,,,,,,,,,,,METAR,10
KJOT 050055Z AUTO 29005KT 10SM CLR 20/18 A2986 RMK AO2 P0010 T01960180,KJOT,2024-05-05T00:55:00Z,41.5176,-88.179,19.6,18,290,5,,10+,29.86,,,TRUE,TRUE,,,,,,,CLR,,,,,,,,VFR,,,,,,0.1,,,,,,METAR,175
KJMR 050055Z AUTO 34004KT 10SM CLR 13/02 A3001 RMK AO2,KJMR,2024-05-05T00:55:00Z,45.8885,-93.269,13,2,340,4,,10+,30.01,,,TRUE,TRUE,,,,,,,CLR,,,,,,,,VFR,,,,,,,,,,,,METAR,301
KJKJ 050055Z AUTO 31005KT 10SM CLR 13/03 A3000 RMK AO2,KJKJ,2024-05-05T00:55:00Z,46.8404,-96.6545,13,3,310,5,,10+,30.00,,,TRUE,TRUE,,,,,,,CLR,,,,,,,,VFR,,,,,,,,,,,,METAR,280
KJHN 050055Z AUTO 11011KT 10SM CLR 15/05 A3002 RMK AO2 T01500050,KJHN,2024-05-05T00:55:00Z,37.5782,-101.73,15,5,110,11,,10+,30.02,,,TRUE,TRUE,,,,,,,CLR,,,,,,,,VFR,,,,,,,,,,,,METAR,1013
KJFZ 050055Z AUTO 00000KT 10SM BKN090 A3008 RMK AO2 LTG DSNT NW,KJFZ,2024-05-05T00:55:00Z,37.0634,-81.7969,,,0,0,,10+,30.08,,,TRUE,TRUE,,,,,,,BKN,9000,,,,,,,VFR,,,,,,,,,,,,METAR,809
KJFX 050055Z AUTO 00000KT 10SM CLR 22/22 A2996 RMK AO2,KJFX,2024-05-05T00:55:00Z,33.9008,-87.3092,22,22,0,0,,10+,29.96,,,TRUE,TRUE,,,,,,,CLR,,,,,,,,VFR,,,,,,,,,,,,METAR,144
KJES 050055Z AUTO 00000KT 10SM CLR 23/19 A3006 RMK AO2,KJES,2024-05-05T00:55:00Z,31.5521,-81.8896,23,19,0,0,,10+,30.06,,,TRUE,TRUE,,,,,,,CLR,,,,,,,,VFR,,,,,,,,,,,,METAR,26
KJDD 050055Z AUTO 00000KT 10SM BKN037 BKN045 BKN075 25/21 A2992 RMK AO2,KJDD,2024-05-05T00:55:00Z,32.7403,-95.4945,25,21,0,0,,10+,29.92,,,TRUE,TRUE,,,,,,,BKN,3700,BKN,4500,BKN,7500,,,VFR,,,,,,,,,,,,METAR,127
KJCA 050055Z AUTO 16003KT 10SM BKN048 BKN075 OVC100 20/19 A3005 RMK AO2 T02020193,KJCA,2024-05-05T00:55:00Z,34.1739,-83.5583,20.2,19.3,160,3,,10+,30.05,,,TRUE,TRUE,,,,,,,BKN,4800,BKN,7500,OVC,10000,,,VFR,,,,,,,,,,,,METAR,287
KJAS 050055Z AUTO 00000KT 8SM CLR 23/23 A2992 RMK AO2,KJAS,2024-05-05T00:55:00Z,30.8904,-94.0332,23,23,0,0,,8,29.92,,,TRUE,TRUE,,,,,,,CLR,,,,,,,,VFR,,,,,,,,,,,,METAR,60
KJAQ 050055Z AUTO 00000KT 10SM OVC011 07/07 A2981 RMK AO1 T00650065,KJAQ,2024-05-05T00:55:00Z,38.3742,-120.794,6.5,6.5,0,0,,10+,29.81,,,TRUE,TRUE,,,,,,,OVC,1100,,,,,,,MVFR,,,,,,,,,,,,METAR,518
KIZA 050055Z AUTO 25009KT 10SM FEW021 FEW028 OVC042 15/11 A2988 RMK AO2,KIZA,2024-05-05T00:55:00Z,34.6059,-120.076,15,11,250,9,,10+,29.88,,,TRUE,TRUE,,,,,,,FEW,2100,FEW,2800,OVC,4200,,,VFR,,,,,,,,,,,,METAR,200
KIYA 050055Z AUTO 15007KT 10SM CLR 24/23 A2994 RMK AO2 T02430234,KIYA,2024-05-05T00:55:00Z,29.976,-92.0826,24.3,23.4,150,7,,10+,29.94,,,TRUE,TRUE,,,,,,,CLR,,,,,,,,VFR,,,,,,,,,,,,METAR,4
KIXA 050055Z AUTO 04003KT 10SM -RA SCT007 OVC010 17/17 A3012 RMK AO2 P0002,KIXA,2024-05-05T00:55:00Z,36.331,-77.6333,17,17,40,3,,10+,30.12,,,TRUE,TRUE,,,,,,-RA,SCT,700,OVC,1000,,,,,MVFR,,,,,,0.02,,,,,,METAR,43
KIUA 050055Z AUTO 17011G19KT 130V200 10SM SCT080 SCT095 OVC110 14/08 A3012 RMK AO2 T01430075,KIUA,2024-05-05T00:55:00Z,42.9058,-77.3227,14.3,7.5,170,11,19,10+,30.12,,,TRUE,TRUE,,,,,,,SCT,8000,SCT,9500,OVC,11000,,,VFR,,,,,,,,,,,,METAR,248
KISQ 050055Z AUTO 11009KT 10SM -RA OVC060 11/09 A2979 RMK AO2 T01090091,KISQ,2024-05-05T00:55:00Z,45.9729,-86.1728,10.9,9.1,110,9,,10+,29.79,,,TRUE,TRUE,,,,,,-RA,OVC,6000,,,,,,,VFR,,,,,,,,,,,,METAR,206
KIRS 050055Z AUTO 15007KT 10SM CLR 21/17 A2987 RMK AO2 T02050166,KIRS,2024-05-05T00:55:00Z,41.8154,-85.4376,20.5,16.6,150,7,,10+,29.87,,,TRUE,TRUE,,,,,,,CLR,,,,,,,,VFR,,,,,,,,,,,,METAR,282
KIRK 050055Z AUTO 33009G19KT 10SM OVC028 14/09 A3003 RMK AO2 SLP169 T01390094,KIRK,2024-05-05T00:55:00Z,40.0966,-92.5469,13.9,9.4,330,9,19,10+,30.03,1016.9,,TRUE,TRUE,,,,,,,OVC,2800,,,,,,,MVFR,,,,,,,,,,,,METAR,292
KIOB 050055Z AUTO 00000KT 10SM BKN027 BKN042 21/17 A2997 RMK AO2 PWINO,KIOB,2024-05-05T00:55:00Z,38.0574,-83.9829,21,17,0,0,,10+,29.97,,,TRUE,TRUE,,,,,TRUE,,BKN,2700,BKN,4200,,,,,MVFR,,,,,,,,,,,,METAR,301
KINS 050055Z AUTO 19015KT 10SM BKN150 25/M06 A2959 RMK AO2 PK WND 21030/06 SLPNO T02461057 $,KINS,2024-05-05T00:55:00Z,36.586,-115.69,24.6,-5.7,190,15,,10+,29.59,,,TRUE,TRUE,TRUE,,,,,,BKN,15000,,,,,,,VFR,,,,,,,,,,,,METAR,954
KINJ 050055Z AUTO 00000KT 10SM OVC046 24/21 A2988 RMK AO2 LTG DSNT SW T02380207,KINJ,2024-05-05T00:55:00Z,32.0844,-97.0959,23.8,20.7,0,0,,10+,29.88,,,TRUE,TRUE,,,,,,,OVC,4600,,,,,,,VFR,,,,,,,,,,,,METAR,208
KINF 050055Z AUTO 00000KT 7SM SCT038 23/20 A3003 RMK AO2,KINF,2024-05-05T00:55:00Z,28.8062,-82.319,23,20,0,0,,7,30.03,,,TRUE,TRUE,,,,,,,SCT,3800,,,,,,,VFR,,,,,,,,,,,,METAR,14
KIMS 050055Z AUTO 00000KT 10SM CLR 21/20 A2993 RMK AO2,KIMS,2024-05-05T00:55:00Z,38.7515,-85.4689,21,20,0,0,,10+,29.93,,,TRUE,TRUE,,,,,,,CLR,,,,,,,,VFR,,,,,,,,,,,,METAR,244
KIKW 050055Z AUTO 08007KT 10SM CLR 14/12 A2986 RMK AO2 T01400121,KIKW,2024-05-05T00:55:00Z,43.6643,-84.2613,14,12.1,80,7,,10+,29.86,,,TRUE,TRUE,,,,,,,CLR,,,,,,,,VFR,,,,,,,,,,,,METAR,190
KIKV 050055Z AUTO 02004KT 9SM CLR 13/07 A3005 RMK AO2,KIKV,2024-05-05T00:55:00Z,41.6878,-93.5695,13,7,20,4,,9,30.05,,,TRUE,TRUE,,,,,,,CLR,,,,,,,,VFR,,,,,,,,,,,,METAR,270
KIKT 050055Z AUTO 10007KT 10SM CLR 25/23 A3000 RMK A01,KIKT,2024-05-05T00:55:00Z,28.5208,-88.2889,25,23,100,7,,10+,30.00,,,TRUE,TRUE,,,,,,,CLR,,,,,,,,VFR,,,,,,,,,,,,METAR,36
KIKK 050055Z AUTO 29013G16KT 10SM SCT060 SCT075 21/16 A2985 RMK AO2 LTG DSNT SW T02080160 PWINO,KIKK,2024-05-05T00:55:00Z,41.0687,-87.8537,20.8,16,290,13,16,10+,29.85,,,TRUE,TRUE,,,,,TRUE,,SCT,6000,SCT,7500,,,,,VFR,,,,,,,,,,,,METAR,188
KIKG 050055Z AUTO 09011KT 10SM SCT021 SCT031 BKN075 27/22 A2978 RMK AO2 T02660222,KIKG,2024-05-05T00:55:00Z,27.5464,-98.0292,26.6,22.2,90,11,,10+,29.78,,,TRUE,TRUE,,,,,,,SCT,2100,SCT,3100,BKN,7500,,,VFR,,,,,,,,,,,,METAR,37
KIJX 050055Z AUTO 31014KT 10SM SCT085 19/15 A2993 RMK AO2 T01890147,KIJX,2024-05-05T00:55:00Z,39.774,-90.2419,18.9,14.7,310,14,,10+,29.93,,,TRUE,TRUE,,,,,,,SCT,8500,,,,,,,VFR,,,,,,,,,,,,METAR,187
KIIY 050055Z AUTO 06004KT 10SM SCT027 BKN032 OVC060 21/20 A3004 RMK AO2 T02140204,KIIY,2024-05-05T00:55:00Z,33.7797,-82.8135,21.4,20.4,60,4,,10+,30.04,,,TRUE,TRUE,,,,,,,SCT,2700,BKN,3200,OVC,6000,,,VFR,,,,,,,,,,,,METAR,192
KIIB 050055Z AUTO 33013G21KT 10SM BKN034 12/07 A3002 RMK AO2 T01160073,KIIB,2024-05-05T00:55:00Z,42.4544,-91.9504,11.6,7.3,330,13,21,10+,30.02,,,TRUE,TRUE,,,,,,,BKN,3400,,,,,,,VFR,,,,,,,,,,,,METAR,294
KIGQ 050055Z AUTO 28011G20KT 7SM -VCTSRA SCT040 BKN055 OVC065 19/18 A2986 RMK AO2 LTG DSNT ALQS P0005 T01930184,KIGQ,2024-05-05T00:55:00Z,41.5412,-87.5282,19.3,18.4,280,11,20,7,29.86,,,TRUE,TRUE,,,,,,VCTS -RA,SCT,4000,BKN,5500,OVC,6500,,,VFR,,,,,,0.05,,,,,,METAR,187
KIFP 050055Z AUTO 17023G31KT 10SM CLR 32/M06 A2956 RMK AO2,KIFP,2024-05-05T00:55:00Z,35.1487,-114.561,32,-6,170,23,31,10+,29.56,,,TRUE,TRUE,,,,,,,CLR,,,,,,,,VFR,,,,,,,,,,,,METAR,210
KIFA 050055Z AUTO 33006KT 10SM CLR 13/07 A3004 RMK AO2 T01300071,KIFA,2024-05-05T00:55:00Z,42.4691,-93.2651,13,7.1,330,6,,10+,30.04,,,TRUE,TRUE,,,,,,,CLR,,,,,,,,VFR,,,,,,,,,,,,METAR,344
KIER 050055Z AUTO 20003KT 10SM CLR 25/22 A2993 RMK AO2 T02540216,KIER,2024-05-05T00:55:00Z,31.736,-93.1003,25.4,21.6,200,3,,10+,29.93,,,TRUE,TRUE,,,,,,,CLR,,,,,,,,VFR,,,,,,,,,,,,METAR,35
KIDP 050055Z AUTO 02008KT 10SM CLR 18/13 A3000 RMK AO2 T01840127,KIDP,2024-05-05T00:55:00Z,37.1566,-95.7792,18.4,12.7,20,8,,10+,30.00,,,TRUE,TRUE,,,,,,,CLR,,,,,,,,VFR,,,,,,,,,,,,METAR,252
KIDI 050055Z AUTO 11009KT 10SM FEW012 OVC027 11/11 A3012 RMK A01,KIDI,2024-05-05T00:55:00Z,40.6337,-79.1036,11,11,110,9,,10+,30.12,,,TRUE,TRUE,,,,,,,FEW,1200,OVC,2700,,,,,MVFR,,,,,,,,,,,,METAR,425
KICL 050055Z AUTO 09003KT 10SM CLR 14/07 A3009 RMK AO2,KICL,2024-05-05T00:55:00Z,40.7242,-95.0222,14,7,90,3,,10+,30.09,,,TRUE,TRUE,,,,,,,CLR,,,,,,,,VFR,,,,,,,,,,,,METAR,299
KIBM 050055Z AUTO 15012G16KT 10SM CLR 14/00 A2998 RMK AO2 T01361005,KIBM,2024-05-05T00:55:00Z,41.1894,-103.671,13.6,-0.5,150,12,16,10+,29.98,,,TRUE,TRUE,,,,,,,CLR,,,,,,,,VFR,,,,,,,,,,,,METAR,1494
KIAB 050055Z AUTO 04010KT 10SM OVC060 17/10 A3001 RMK AO2 SLP162 T01700104 $,KIAB,2024-05-05T00:55:00Z,37.622,-97.268,17,10.4,40,10,,10+,30.01,1016.2,,TRUE,TRUE,TRUE,,,,,,OVC,6000,,,,,,,VFR,,,,,,,,,,,,METAR,413
KI95 050055Z AUTO 14005KT 10SM FEW075 FEW090 20/20 A2988 RMK A01,KI95,2024-05-05T00:55:00Z,40.6142,-83.6374,20,20,140,5,,10+,29.88,,,TRUE,TRUE,,,,,,,FEW,7500,FEW,9000,,,,,VFR,,,,,,,,,,,,METAR,312
KI75 050055Z AUTO 32007KT 10SM SCT040 13/08 A3005 RMK AO2 T01300075,KI75,2024-05-05T00:55:00Z,41.0472,-93.6876,13,7.5,320,7,,10+,30.05,,,TRUE,TRUE,,,,,,,SCT,4000,,,,,,,VFR,,,,,,,,,,,,METAR,336
KI74 050055Z AUTO 12005KT 10SM -DZ SCT120 19/16 A2990 RMK AO2,KI74,2024-05-05T00:55:00Z,40.1314,-83.757,19,16,120,5,,10+,29.90,,,TRUE,TRUE,,,,,,-DZ,SCT,12000,,,,,,,VFR,,,,,,,,,,,,METAR,322
KI68 050055Z AUTO 13004KT 9SM CLR 20/20 A2989 RMK AO2,KI68,2024-05-05T00:55:00Z,39.4664,-84.2532,20,20,130,4,,9,29.89,,,TRUE,TRUE,,,,,,,CLR,,,,,,,,VFR,,,,,,,,,,,,METAR,274
KI67 050055Z AUTO 00000KT 10SM BKN038 BKN046 22/18 A2990 RMK AO1,KI67,2024-05-05T00:55:00Z,39.2565,-84.7753,22,18,0,0,,10+,29.90,,,TRUE,TRUE,,,,,,,BKN,3800,BKN,4600,,,,,VFR,,,,,,,,,,,,METAR,177
KI63 050055Z AUTO 32016G20KT 10SM OVC023 17/12 A2997 RMK AO2 T01660122,KI63,2024-05-05T00:55:00Z,39.9883,-90.8023,16.6,12.2,320,16,20,10+,29.97,,,TRUE,TRUE,,,,,,,OVC,2300,,,,,,,MVFR,,,,,,,,,,,,METAR,221
KI35 050055Z AUTO 00000KT 10SM SCT120 22/20 A3001 RMK AO2 T02160195,KI35,2024-05-05T00:55:00Z,36.8577,-83.3586,21.6,19.5,0,0,,10+,30.01,,,TRUE,TRUE,,,,,,,SCT,12000,,,,,,,VFR,,,,,,,,,,,,METAR,467
KI23 050055Z AUTO 14004KT 10SM SCT060 SCT070 OVC110 18/17 A2991 RMK AO1,KI23,2024-05-05T00:55:00Z,39.5697,-83.4239,18,17,140,4,,10+,29.91,,,TRUE,TRUE,,,,,,,SCT,6000,SCT,7000,OVC,11000,,,VFR,,,,,,,,,,,,METAR,298
KHZX 050055Z AUTO 30006KT 10SM CLR 13/02 A2997 RMK AO2,KHZX,2024-05-05T00:55:00Z,46.6189,-93.3128,13,2,300,6,,10+,29.97,,,TRUE,TRUE,,,,,,,CLR,,,,,,,,VFR,,,,,,,,,,,,METAR,374
KHZR 050055Z AUTO 21003KT 10SM BKN048 25/22 A2996 RMK AO2 T02460220,KHZR,2024-05-05T00:55:00Z,30.718,-91.48,24.6,22,210,3,,10+,29.96,,,TRUE,TRUE,,,,,,,BKN,4800,,,,,,,VFR,,,,,,,,,,,,METAR,11
KHZL 050055Z AUTO 13009G16KT 100V180 7SM -RA OVC007 08/07 A3026 RMK AO2 P0003,KHZL,2024-05-05T00:55:00Z,40.9845,-75.9901,8,7,130,9,16,7,30.26,,,TRUE,TRUE,,,,,,-RA,OVC,700,,,,,,,IFR,,,,,,0.03,,,,,,METAR,481
KHZE 050055Z AUTO 08006KT 10SM CLR 12/02 A2999 RMK AO2,KHZE,2024-05-05T00:55:00Z,47.288,-101.577,12,2,80,6,,10+,29.99,,,TRUE,TRUE,,,,,,,CLR,,,,,,,,VFR,,,,,,,,,,,,METAR,542
KHZD 050055Z AUTO 00000KT 10SM CLR 24/19 A2993 RMK A01,KHZD,2024-05-05T00:55:00Z,36.089,-88.4654,24,19,0,0,,10+,29.93,,,TRUE,TRUE,,,,,,,CLR,,,,,,,,VFR,,,,,,,,,,,,METAR,147
KHYX 050055Z AUTO 06003KT 10SM OVC029 15/14 A2988 RMK AO2,KHYX,2024-05-05T00:55:00Z,43.4319,-83.8648,15,14,60,3,,10+,29.88,,,TRUE,TRUE,,,,,,,OVC,2900,,,,,,,MVFR,,,,,,,,,,,,METAR,181
KHYW 050055Z AUTO 00000KT 10SM CLR 21/18 A3009 RMK AO2,KHYW,2024-05-05T00:55:00Z,33.8256,-79.1259,21,18,0,0,,10+,30.09,,,TRUE,TRUE,,,,,,,CLR,,,,,,,,VFR,,,,,,,,,,,,METAR,10
KHXD 050055Z AUTO VRB03KT 10SM FEW018 BKN100 24/20 A3007 RMK AO2,KHXD,2024-05-05T00:55:00Z,32.2263,-80.6949,24,20,VRB,3,,10+,30.07,,,TRUE,TRUE,,,,,,,FEW,1800,BKN,10000,,,,,VFR,,,,,,,,,,,,METAR,5
KHWY 050055Z AUTO 07003KT 2 1/2SM BR OVC005 13/11 A3021 RMK AO2 T01250111,KHWY,2024-05-05T00:55:00Z,38.5876,-77.715,12.5,11.1,70,3,,2.5,30.21,,,TRUE,TRUE,,,,,,BR,OVC,500,,,,,,,IFR,,,,,,,,,,,,METAR,93
KHVS 050055Z AUTO 00000KT 10SM OVC055 20/19 A3007 RMK AO2,KHVS,2024-05-05T00:55:00Z,34.4065,-80.1198,20,19,0,0,,10+,30.07,,,TRUE,TRUE,,,,,,,OVC,5500,,,,,,,VFR,,,,,,,,,,,,METAR,110
KHVC 050055Z AUTO 00000KT 9SM CLR 24/20 A2992 RMK AO2,KHVC,2024-05-05T00:55:00Z,36.8603,-87.4478,24,20,0,0,,9,29.92,,,TRUE,TRUE,,,,,,,CLR,,,,,,,,VFR,,,,,,,,,,,,METAR,171
KHUM 050055Z AUTO 14004KT 7SM CLR 24/21 A2998 RMK AO2 T02390213,KHUM,2024-05-05T00:55:00Z,29.5634,-90.6629,23.9,21.3,140,4,,7,29.98,,,TRUE,TRUE,,,,,,,CLR,,,,,,,,VFR,,,,,,,,,,,,METAR,1
KHTH 050055Z AUTO 21026G34KT 10SM BKN060 14/M01 A2955 RMK A01,KHTH,2024-05-05T00:55:00Z,38.5448,-118.631,14,-1,210,26,34,10+,29.55,,,TRUE,TRUE,,,,,,,BKN,6000,,,,,,,VFR,,,,,,,,,,,,METAR,1281
KHST 050055Z AUTO 08009KT 10SM SCT022 26/21 A3000 RMK AO2 SLP162 T02610208,KHST,2024-05-05T00:55:00Z,25.49,-80.379,26.1,20.8,80,9,,10+,30.00,1016.2,,TRUE,TRUE,,,,,,,SCT,2200,,,,,,,VFR,,,,,,,,,,,,METAR,1
KHSP 050055Z AUTO 12006KT 1/4SM -RA OVC001 12/12 A3016 RMK AO2 T01200120,KHSP,2024-05-05T00:55:00Z,37.9531,-79.8285,12,12,120,6,,0.25,30.16,,,TRUE,TRUE,,,,,,-RA,OVC,100,,,,,,,LIFR,,,,,,,,,,,,METAR,1148
KHSG 050055Z AUTO 18007KT 10SM CLR 17/M02 A2978 RMK AO2 T01711022,KHSG,2024-05-05T00:55:00Z,43.7178,-108.385,17.1,-2.2,180,7,,10+,29.78,,,TRUE,TRUE,,,,,,,CLR,,,,,,,,VFR,,,,,,,,,,,,METAR,1497
KHSD 050055Z AUTO 04011KT 10SM CLR 17/13 A2995 RMK A01,KHSD,2024-05-05T00:55:00Z,35.6018,-97.7093,17,13,40,11,,10+,29.95,,,TRUE,TRUE,,,,,,,CLR,,,,,,,,VFR,,,,,,,,,,,,METAR,358
KHRX 050055Z AUTO 10009KT 10SM BKN019 15/11 A3000 RMK AO2 T01540105 TSNO,KHRX,2024-05-05T00:55:00Z,34.8628,-102.32,15.4,10.5,100,9,,10+,30.00,,,TRUE,TRUE,,,TRUE,,,,BKN,1900,,,,,,,MVFR,,,,,,,,,,,,METAR,1153
KHRT 050055Z AUTO 22004KT 10SM CLR 25/21 A2998 RMK AO2 SLP150 T02510212 $,KHRT,2024-05-05T00:55:00Z,30.428,-86.69,25.1,21.2,220,4,,10+,29.98,1015,,TRUE,TRUE,TRUE,,,,,,CLR,,,,,,,,VFR,,,,,,,,,,,,METAR,10
KHRF 050055Z AUTO 07007KT 10SM BKN110 15/02 A2957 RMK AO2 Hamilton ,KHRF,2024-05-05T00:55:00Z,46.2575,-114.127,15,2,70,7,,10+,29.57,,,TRUE,TRUE,,,,,,,BKN,11000,,,,,,,VFR,,,,,,,,,,,,METAR,1112
KHQU 050055Z AUTO 18006G18KT 10SM SCT025 BKN038 OVC080 21/19 A3003 RMK AO2 LTG DSNT NE T02130188,KHQU,2024-05-05T00:55:00Z,33.5279,-82.518,21.3,18.8,180,6,18,10+,30.03,,,TRUE,TRUE,,,,,,,SCT,2500,BKN,3800,OVC,8000,,,VFR,,,,,,,,,,,,METAR,141
KHQG 050055Z AUTO 11010KT 10SM OVC038 15/08 A3002 RMK AO2 P0001 T01480081 PWINO,KHQG,2024-05-05T00:55:00Z,37.1647,-101.371,14.8,8.1,110,10,,10+,30.02,,,TRUE,TRUE,,,,,TRUE,,OVC,3800,,,,,,,VFR,,,,,,0.01,,,,,,METAR,956
KHPT 050055Z AUTO 35006KT 10SM CLR 11/06 A3002 RMK AO2,KHPT,2024-05-05T00:55:00Z,42.7175,-93.2244,11,6,350,6,,10+,30.02,,,TRUE,TRUE,,,,,,,CLR,,,,,,,,VFR,,,,,,,,,,,,METAR,354
KHOP 050055Z AUTO 17005KT 10SM CLR 24/19 A2991 RMK AO2 SLP126 T02380193,KHOP,2024-05-05T00:55:00Z,36.672,-87.495,23.8,19.3,170,5,,10+,29.91,1012.6,,TRUE,TRUE,,,,,,,CLR,,,,,,,,VFR,,,,,,,,,,,,METAR,170
KHON 050055Z AUTO 28004KT 10SM CLR 15/02 A3003 RMK AO2 SLP173 T01500022,KHON,2024-05-05T00:55:00Z,44.3792,-98.2227,15,2.2,280,4,,10+,30.03,1017.3,,TRUE,TRUE,,,,,,,CLR,,,,,,,,VFR,,,,,,,,,,,,METAR,391
KHOE 050055Z AUTO 00000KT 10SM CLR 19/17 A3003 RMK AO2 T01940180,KHOE,2024-05-05T00:55:00Z,31.0561,-82.7726,19.4,18,0,0,,10+,30.03,,,TRUE,TRUE,,,,,,,CLR,,,,,,,,VFR,,,,,,,,,,,,METAR,56
KHOB 050055Z AUTO 06014KT 10SM OVC019 18/13 A2992 RMK AO2,KHOB,2024-05-05T00:55:00Z,32.6797,-103.222,18,13,60,14,,10+,29.92,,,TRUE,TRUE,,,,,,,OVC,1900,,,,,,,MVFR,,,,,,,,,,,,METAR,1112
KHNR 050055Z AUTO 04003KT 10SM SCT049 BKN055 14/08 A3006 RMK A01,KHNR,2024-05-05T00:55:00Z,41.5841,-95.3358,14,8,40,3,,10+,30.06,,,TRUE,TRUE,,,,,,,SCT,4900,BKN,5500,,,,,VFR,,,,,,,,,,,,METAR,364
KHMZ 050055Z AUTO 14003KT 7SM -SN OVC008 10/10 A3017 RMK AO2 P0004 T00980095,KHMZ,2024-05-05T00:55:00Z,40.0863,-78.5167,9.8,9.5,140,3,,7,30.17,,,TRUE,TRUE,,,,,,-SN,OVC,800,,,,,,,IFR,,,,,,0.04,,,,,,METAR,351
KHMP 050055Z AUTO 00000KT 10SM CLR 22/19 A3006 RMK AO2 T02170192,KHMP,2024-05-05T00:55:00Z,33.3916,-84.3312,21.7,19.2,0,0,,10+,30.06,,,TRUE,TRUE,,,,,,,CLR,,,,,,,,VFR,,,,,,,,,,,,METAR,263
KHMN 050055Z AUTO 20016KT 10SM CLR 29/M15 A2985 RMK AO2 SLPNO T02851148 $,KHMN,2024-05-05T00:55:00Z,32.852,-106.108,28.5,-14.8,200,16,,10+,29.85,,,TRUE,TRUE,TRUE,,,,,,CLR,,,,,,,,VFR,,,,,,,,,,,,METAR,1240
KHLX 050055Z AUTO 15003KT 10SM RA OVC004 14/14 A3012 RMK AO2 P0002 T01440142,KHLX,2024-05-05T00:55:00Z,36.7637,-80.8211,14.4,14.2,150,3,,10+,30.12,,,TRUE,TRUE,,,,,,RA,OVC,400,,,,,,,LIFR,,,,,,0.02,,,,,,METAR,819
KHJH 050055Z AUTO 06004KT 10SM CLR 15/06 A3007 RMK AO2 T01510063,KHJH,2024-05-05T00:55:00Z,40.1493,-97.5872,15.1,6.3,60,4,,10+,30.07,,,TRUE,TRUE,,,,,,,CLR,,,,,,,,VFR,,,,,,,,,,,,METAR,449
KHII 050055Z AUTO 19015G21KT 10SM 32/00 A2962 RMK AO1,KHII,2024-05-05T00:55:00Z,34.5659,-114.352,32,0,190,15,21,10+,29.62,,,TRUE,TRUE,,,,,,,,,,,,,,,VFR,,,,,,,,,,,,METAR,241
KHIF 050055Z AUTO 18014G24KT 10SM FEW110 22/M02 A2956 RMK AO2 PK WND 17031/21 SLPNO T02161023,KHIF,2024-05-05T00:55:00Z,41.111,-111.962,21.6,-2.3,180,14,24,10+,29.56,,,TRUE,TRUE,,,,,,,FEW,11000,,,,,,,VFR,,,,,,,,,,,,METAR,1461
KHHW 050055Z AUTO 00000KT 10SM SCT060 20/15 A2994 RMK AO2,KHHW,2024-05-05T00:55:00Z,34.0308,-95.5401,20,15,0,0,,10+,29.94,,,TRUE,TRUE,,,,,,,SCT,6000,,,,,,,VFR,,,,,,,,,,,,METAR,178
KHHV 050055Z AUTO 2SM BR BKN014 25/23 A2980 RMK A01,KHHV,2024-05-05T00:55:00Z,26.9392,-94.6886,25,23,,,,2,29.80,,,TRUE,TRUE,,,,,,BR,BKN,1400,,,,,,,IFR,,,,,,,,,,,,METAR,25
KHHG 050055Z AUTO 10SM RMK AO2 PNO,KHHG,2024-05-05T00:55:00Z,40.8543,-85.4543,,,,,,10+,0.00,,,TRUE,TRUE,,,,,,,,,,,,,,,VFR,,,,,,,,,,,,METAR,247
KHHF 050055Z AUTO 07005KT 10SM SCT028 OVC036 16/10 A3000 RMK AO2 T01570101,KHHF,2024-05-05T00:55:00Z,35.8929,-100.405,15.7,10.1,70,5,,10+,30.00,,,TRUE,TRUE,,,,,,,SCT,2800,OVC,3600,,,,,VFR,,,,,,,,,,,,METAR,729
KHFJ 050055Z AUTO 35009KT 10SM CLR 19/16 A2999 RMK AO2,KHFJ,2024-05-05T00:55:00Z,36.9105,-94.0099,19,16,350,9,,10+,29.99,,,TRUE,TRUE,,,,,,,CLR,,,,,,,,VFR,,,,,,,,,,,,METAR,398
KHFF 050055Z AUTO 14004KT 10SM SCT085 OVC110 20/20 A3006 RMK AO2 SLP180 T02030195 $,KHFF,2024-05-05T00:55:00Z,35.0424,-79.4973,20.3,19.5,140,4,,10+,30.06,1018,,TRUE,TRUE,TRUE,,,,,,SCT,8500,OVC,11000,,,,,VFR,,,,,,,,,,,,METAR,100
KHEY 050055Z AUTO 23003KT 10SM SCT060 27/22 A2996 RMK AO2 LTG DSNT E-SE SLP145 T02720217,KHEY,2024-05-05T00:55:00Z,31.348,-85.655,27.2,21.7,230,3,,10+,29.96,1014.5,,TRUE,TRUE,,,,,,,SCT,6000,,,,,,,VFR,,,,,,,,,,,,METAR,95
KHEQ 050055Z AUTO 16012KT 10SM CLR 15/00 A3003 RMK AO2,KHEQ,2024-05-05T00:55:00Z,40.5715,-102.277,15,0,160,12,,10+,30.03,,,TRUE,TRUE,,,,,,,CLR,,,,,,,,VFR,,,,,,,,,,,,METAR,1136
KHEG 050055Z AUTO 11008G14KT 10SM CLR 24/19 A3006 RMK AO2 LTG DSNT W,KHEG,2024-05-05T00:55:00Z,30.2771,-81.8087,24,19,110,8,14,10+,30.06,,,TRUE,TRUE,,,,,,,CLR,,,,,,,,VFR,,,,,,,,,,,,METAR,25
KHDL 050055Z AUTO 08005KT 10SM BKN041 BKN050 OVC060 25/20 A2999 RMK AO2 LTG DSNT E-SW,KHDL,2024-05-05T00:55:00Z,31.3641,-85.3112,25,20,80,5,,10+,29.99,,,TRUE,TRUE,,,,,,,BKN,4100,BKN,5000,OVC,6000,,,VFR,,,,,,,,,,,,METAR,109
KHDE 050055Z AUTO 09006KT 10SM CLR 14/06 A3006 RMK AO2 T01350061,KHDE,2024-05-05T00:55:00Z,40.4496,-99.3363,13.5,6.1,90,6,,10+,30.06,,,TRUE,TRUE,,,,,,,CLR,,,,,,,,VFR,,,,,,,,,,,,METAR,703
KHDC 050055Z AUTO 15005KT 10SM CLR 25/22 A2996 RMK AO2 T02460218,KHDC,2024-05-05T00:55:00Z,30.5237,-90.4176,24.6,21.8,150,5,,10+,29.96,,,TRUE,TRUE,,,,,,,CLR,,,,,,,,VFR,,,,,,,,,,,,METAR,12
KHCR 050055Z AUTO 16011G21KT 10SM OVC110 19/M04 A2966 RMK AO2 T01881042 $,KHCR,2024-05-05T00:55:00Z,40.4774,-111.433,18.8,-4.2,160,11,21,10+,29.66,,,TRUE,TRUE,TRUE,,,,,,OVC,11000,,,,,,,VFR,,,,,,,,,,,,METAR,1708
KHCO 050055Z AUTO 32004KT 10SM BKN060 12/06 A3000 RMK AO2,KHCO,2024-05-05T00:55:00Z,48.7524,-96.9376,12,6,320,4,,10+,30.00,,,TRUE,TRUE,,,,,,,BKN,6000,,,,,,,VFR,,,,,,,,,,,,METAR,250
KHCD 050055Z AUTO 29006KT 10SM CLR 14/02 A3002 RMK AO2 T01440022,KHCD,2024-05-05T00:55:00Z,44.8597,-94.3855,14.4,2.2,290,6,,10+,30.02,,,TRUE,TRUE,,,,,,,CLR,,,,,,,,VFR,,,,,,,,,,,,METAR,320
KHAI 050055Z AUTO 13005KT 10SM CLR 21/16 A2987 RMK AO2 T02110160,KHAI,2024-05-05T00:55:00Z,41.9591,-85.5933,21.1,16,130,5,,10+,29.87,,,TRUE,TRUE,,,,,,,CLR,,,,,,,,VFR,,,,,,,,,,,,METAR,250
KHAF 050055Z AUTO 30006KT 7SM FEW035 SCT050 BKN075 11/09 A2988 RMK AO2,KHAF,2024-05-05T00:55:00Z,37.5136,-122.5,11,9,300,6,,7,29.88,,,TRUE,TRUE,,,,,,,FEW,3500,SCT,5000,BKN,7500,,,VFR,,,,,,,,,,,,METAR,11
KHAE 050055Z AUTO 32008KT 10SM OVC027 17/11 A3000 RMK AO2,KHAE,2024-05-05T00:55:00Z,39.7262,-91.4425,17,11,320,8,,10+,30.00,,,TRUE,TRUE,,,,,,,OVC,2700,,,,,,,MVFR,,,,,,,,,,,,METAR,230
KGZS 050055Z AUTO 31004KT 10SM FEW090 21/21 A2996 RMK A01,KGZS,2024-05-05T00:55:00Z,35.1533,-87.0543,21,21,310,4,,10+,29.96,,,TRUE,TRUE,,,,,,,FEW,9000,,,,,,,VFR,,,,,,,,,,,,METAR,198
KGZL 050055Z AUTO 00000KT 10SM CLR 23/21 A2992 RMK AO2,KGZL,2024-05-05T00:55:00Z,35.2913,-95.0956,23,21,0,0,,10+,29.92,,,TRUE,TRUE,,,,,,,CLR,,,,,,,,VFR,,,,,,,,,,,,METAR,176
KGYL 050055Z AUTO 30006KT 10SM CLR 14/03 A3000 RMK AO2 T01400033,KGYL,2024-05-05T00:55:00Z,44.7588,-94.0905,14,3.3,300,6,,10+,30.00,,,TRUE,TRUE,,,,,,,CLR,,,,,,,,VFR,,,,,,,,,,,,METAR,304
KGYI 050055Z AUTO 12004KT 7SM OVC049 25/19 A2993 RMK AO2 T02500193 TSNO,KGYI,2024-05-05T00:55:00Z,33.7231,-96.6714,25,19.3,120,4,,7,29.93,,,TRUE,TRUE,,,TRUE,,,,OVC,4900,,,,,,,VFR,,,,,,,,,,,,METAR,227
KGYF 050055Z AUTO 13019G29KT 10SM OVC011 26/23 A2980 RMK AO2 PWINO T02550234,KGYF,2024-05-05T00:55:00Z,26.1292,-94.8981,25.5,23.4,130,19,29,10+,29.80,,,TRUE,TRUE,,,,,TRUE,,OVC,1100,,,,,,,MVFR,,,,,,,,,,,,METAR,65
KGXF 050055Z AUTO 21013KT 10SM CLR 34/00 A2968 RMK AO2 SLPNO T03370003 FZRANO $,KGXF,2024-05-05T00:55:00Z,32.885,-112.721,33.7,0.3,210,13,,10+,29.68,,,TRUE,TRUE,TRUE,,,TRUE,,,CLR,,,,,,,,VFR,,,,,,,,,,,,METAR,261
KGXA 050055Z AUTO 27013G18KT 10SM CLR 18/01 A2976 RMK AO2 PK WND 28026/23 SLPNO WND DATA ESTMD T01800009,KGXA,2024-05-05T00:55:00Z,34.565,-117.669,18,0.9,270,13,18,10+,29.76,,,TRUE,TRUE,,,,,,,CLR,,,,,,,,VFR,,,,,,,,,,,,METAR,927
KGWR 050055Z AUTO 35009KT 10SM CLR 13/03 A3000 RMK A01,KGWR,2024-05-05T00:55:00Z,46.2185,-97.6396,13,3,350,9,,10+,30.00,,,TRUE,TRUE,,,,,,,CLR,,,,,,,,VFR,,,,,,,,,,,,METAR,381
KGWB 050055Z AUTO 11003KT 10SM CLR 20/17 A2989 RMK AO2,KGWB,2024-05-05T00:55:00Z,41.3061,-85.0585,20,17,110,3,,10+,29.89,,,TRUE,TRUE,,,,,,,CLR,,,,,,,,VFR,,,,,,,,,,,,METAR,268
KGVW 050055Z AUTO 10012KT 4SM BR BKN009 OVC040 24/23 A2991 RMK A01,KGVW,2024-05-05T00:55:00Z,29.1303,-94.5466,24,23,100,12,,4,29.91,,,TRUE,TRUE,,,,,,BR,BKN,900,OVC,4000,,,,,IFR,,,,,,,,,,,,METAR,37
KGVT 050055Z AUTO 09004KT 10SM OVC070 25/21 A2991 RMK AO2 TSNO T02490207,KGVT,2024-05-05T00:55:00Z,33.0669,-96.0614,24.9,20.7,90,4,,10+,29.91,,,TRUE,TRUE,,,TRUE,,,,OVC,7000,,,,,,,VFR,,,,,,,,,,,,METAR,165
KGVE 050055Z AUTO 04004KT 2 1/2SM OVC004 13/12 A3018 RMK AO1 T01270124,KGVE,2024-05-05T00:55:00Z,38.1569,-78.1656,12.7,12.4,40,4,,2.5,30.18,,,TRUE,TRUE,,,,,,,OVC,400,,,,,,,LIFR,,,,,,,,,,,,METAR,138
KGUS 050055Z AUTO 19003KT 10SM CLR 23/14 A2985 RMK AO2 SLP107 T02310144 $,KGUS,2024-05-05T00:55:00Z,40.6375,-86.1631,23.1,14.4,190,3,,10+,29.85,1010.7,,TRUE,TRUE,TRUE,,,,,,CLR,,,,,,,,VFR,,,,,,,,,,,,METAR,245
KGUR 050055Z AUTO 15011KT 9SM CLR 18/M01 A2988 RMK AO2 SLPNO T01751012,KGUR,2024-05-05T00:55:00Z,42.261,-104.732,17.5,-1.2,150,11,,9,29.88,,,TRUE,TRUE,,,,,,,CLR,,,,,,,,VFR,,,,,,,,,,,,METAR,1341
KGTB 050055Z AUTO 15004KT 10SM OVC110 18/08 A3011 RMK AO2 RAB06E07DZB07E15RAB15E16 SLP196 P0000 T01780075,KGTB,2024-05-05T00:55:00Z,44.0617,-75.7218,17.8,7.5,150,4,,10+,30.11,1019.6,,TRUE,TRUE,,,,,,,OVC,11000,,,,,,,VFR,,,,,,0.005,,,,,,METAR,206
KGSB 050055Z AUTO 15003KT 10SM OVC055 24/18 A3007 RMK AO2 SLP186 T02360176 $,KGSB,2024-05-05T00:55:00Z,35.3446,-77.9458,23.6,17.6,150,3,,10+,30.07,1018.6,,TRUE,TRUE,TRUE,,,,,,OVC,5500,,,,,,,VFR,,,,,,,,,,,,METAR,33
KGRY 050055Z AUTO 11009KT 10SM FEW013 24/22 A2997 RMK A01,KGRY,2024-05-05T00:55:00Z,27.6247,-90.4411,24,22,110,9,,10+,29.97,,,TRUE,TRUE,,,,,,,FEW,1300,,,,,,,VFR,,,,,,,,,,,,METAR,58
KGRN 050055Z AUTO 17007KT 10SM CLR 15/00 A2998 RMK AO2 T01501002,KGRN,2024-05-05T00:55:00Z,42.8039,-102.181,15,-0.2,170,7,,10+,29.98,,,TRUE,TRUE,,,,,,,CLR,,,,,,,,VFR,,,,,,,,,,,,METAR,1080
KGRF 050055Z AUTO 17007KT 10SM -RA BKN008 OVC018 11/09 A2956 RMK AO2 SLPNO P0002 T01060092 $,KGRF,2024-05-05T00:55:00Z,47.079,-122.58,10.6,9.2,170,7,,10+,29.56,,,TRUE,TRUE,TRUE,,,,,-RA,BKN,800,OVC,1800,,,,,IFR,,,,,,0.02,,,,,,METAR,91
KGPI 050055Z 00000KT 10SM FEW090 18/M01 A2960 RMK AO2 SLP024 T01831011 $,KGPI,2024-05-05T00:55:00Z,48.3041,-114.264,18.3,-1.1,0,0,,10+,29.60,1002.4,,,TRUE,TRUE,,,,,,FEW,9000,,,,,,,VFR,,,,,,,,,,,,METAR,903
KGPC 050055Z AUTO 21004KT 10SM CLR 22/15 A2988 RMK AO2 T02230150,KGPC,2024-05-05T00:55:00Z,39.635,-86.816,22.3,15,210,4,,10+,29.88,,,TRUE,TRUE,,,,,,,CLR,,,,,,,,VFR,,,,,,,,,,,,METAR,254
KGOV 050055Z AUTO 19005KT 9SM FEW210 18/14 A2985 RMK AO2 SLP116 T01840141 $,KGOV,2024-05-05T00:55:00Z,44.681,-84.727,18.4,14.1,190,5,,9,29.85,1011.6,,TRUE,TRUE,TRUE,,,,,,FEW,21000,,,,,,,VFR,,,,,,,,,,,,METAR,350
KGOP 050055Z AUTO 07007G12KT 10SM 22/22 A2982 RMK AO2 LTG DSNT SW-NW,KGOP,2024-05-05T00:55:00Z,31.4208,-97.7951,22,22,70,7,12,10+,29.82,,,TRUE,TRUE,,,,,,,,,,,,,,,VFR,,,,,,,,,,,,METAR,272
KGOO 050055Z AUTO 14004KT OVC002 01/01 A2973 RMK A01,KGOO,2024-05-05T00:55:00Z,39.224,-121.003,1,1,140,4,,,29.73,,,TRUE,TRUE,,,,,,,OVC,200,,,,,,,,,,,,,,,,,,,METAR,950
KGNT 050055Z AUTO 15012KT 10SM BKN120 19/M05 A2997 RMK AO2 T01851048,KGNT,2024-05-05T00:55:00Z,35.1653,-107.902,18.5,-4.8,150,12,,10+,29.97,,,TRUE,TRUE,,,,,,,BKN,12000,,,,,,,VFR,,,,,,,,,,,,METAR,1988
KGNG 050055Z AUTO 11010G15KT 10SM BKN110 18/01 A2947 RMK AO2,KGNG,2024-05-05T00:55:00Z,42.9155,-114.765,18,1,110,10,15,10+,29.47,,,TRUE,TRUE,,,,,,,BKN,11000,,,,,,,VFR,,,,,,,,,,,,METAR,1128
KGNC 050055Z AUTO 03010G15KT 10SM BKN007 17/15 A2994 RMK AO2 T01660150,KGNC,2024-05-05T00:55:00Z,32.678,-102.65,16.6,15,30,10,15,10+,29.94,,,TRUE,TRUE,,,,,,,BKN,700,,,,,,,IFR,,,,,,,,,,,,METAR,1002
KGNB 050055Z AUTO 00000KT 10SM SCT100 A2995 RMK AO2,KGNB,2024-05-05T00:55:00Z,40.0904,-105.911,,,0,0,,10+,29.95,,,TRUE,TRUE,,,,,,,SCT,10000,,,,,,,VFR,,,,,,,,,,,,METAR,2500
KGMJ 050055Z AUTO 01006KT 10SM CLR 20/17 A2996 RMK AO2 TSNO,KGMJ,2024-05-05T00:55:00Z,36.607,-94.7369,20,17,10,6,,10+,29.96,,,TRUE,TRUE,,,TRUE,,,,CLR,,,,,,,,VFR,,,,,,,,,,,,METAR,251
KGLY 050055Z AUTO 34009KT 10SM OVC025 16/12 A3002 RMK AO2,KGLY,2024-05-05T00:55:00Z,38.3572,-93.6774,16,12,340,9,,10+,30.02,,,TRUE,TRUE,,,,,,,OVC,2500,,,,,,,MVFR,,,,,,,,,,,,METAR,247
KGLW 050055Z AUTO 00000KT 10SM CLR 21/21 A2994 RMK AO2 LTG DSNT SE T02070205,KGLW,2024-05-05T00:55:00Z,37.0337,-85.9523,20.7,20.5,0,0,,10+,29.94,,,TRUE,TRUE,,,,,,,CLR,,,,,,,,VFR,,,,,,,,,,,,METAR,216
KGLE 050055Z AUTO 13006KT 10SM BKN050 BKN065 OVC075 24/21 A2992 RMK AO2 T02400209,KGLE,2024-05-05T00:55:00Z,33.6525,-97.1981,24,20.9,130,6,,10+,29.92,,,TRUE,TRUE,,,,,,,BKN,5000,BKN,6500,OVC,7500,,,VFR,,,,,,,,,,,,METAR,250
KGKT 050055Z AUTO 00000KT 10SM SCT080 SCT090 21/19 A3000 RMK A01,KGKT,2024-05-05T00:55:00Z,35.8568,-83.5333,21,19,0,0,,10+,30.00,,,TRUE,TRUE,,,,,,,SCT,8000,SCT,9000,,,,,VFR,,,,,,,,,,,,METAR,305
KGIC 050055Z AUTO 31004KT 10SM SCT070 OVC090 15/00 A2950 RMK AO1,KGIC,2024-05-05T00:55:00Z,45.9411,-116.133,15,0,310,4,,10+,29.50,,,TRUE,TRUE,,,,,,,SCT,7000,OVC,9000,,,,,VFR,,,,,,,,,,,,METAR,1002
KGHW 050055Z AUTO 28008KT 10SM CLR 13/02 A3001 RMK AO2,KGHW,2024-05-05T00:55:00Z,45.6456,-95.3187,13,2,280,8,,10+,30.01,,,TRUE,TRUE,,,,,,,CLR,,,,,,,,VFR,,,,,,,,,,,,METAR,423
KGHG 050055Z AUTO 07007KT 10SM SCT009 OVC035 09/06 A3038 RMK AO2,KGHG,2024-05-05T00:55:00Z,42.0961,-70.6769,9,6,70,7,,10+,30.38,,,TRUE,TRUE,,,,,,,SCT,900,OVC,3500,,,,,VFR,,,,,,,,,,,,METAR,3
KGGP 050055Z AUTO 18004KT 10SM CLR 22/15 A2987 RMK AO2,KGGP,2024-05-05T00:55:00Z,40.7127,-86.3673,22,15,180,4,,10+,29.87,,,TRUE,TRUE,,,,,,,CLR,,,,,,,,VFR,,,,,,,,,,,,METAR,224
KGGI 050055Z AUTO 31012KT 10SM BKN036 13/10 A3004 RMK AO2 T01330095,KGGI,2024-05-05T00:55:00Z,41.7097,-92.7332,13.3,9.5,310,12,,10+,30.04,,,TRUE,TRUE,,,,,,,BKN,3600,,,,,,,VFR,,,,,,,,,,,,METAR,305
KGGF 050055Z AUTO 14010G15KT 10SM CLR 15/01 A3002 RMK AO2,KGGF,2024-05-05T00:55:00Z,40.871,-101.734,15,1,140,10,15,10+,30.02,,,TRUE,TRUE,,,,,,,CLR,,,,,,,,VFR,,,,,,,,,,,,METAR,1044
KGGE 050055Z AUTO 13005KT 10SM CLR 21/18 A3009 RMK AO2,KGGE,2024-05-05T00:55:00Z,33.3138,-79.3187,21,18,130,5,,10+,30.09,,,TRUE,TRUE,,,,,,,CLR,,,,,,,,VFR,,,,,,,,,,,,METAR,9
KGFA 050055Z AUTO 11017KT 10SM CLR 16/M01 A2968 RMK AO2 SLPNO T01601007 $,KGFA,2024-05-05T00:55:00Z,47.505,-111.187,16,-0.7,110,17,,10+,29.68,,,TRUE,TRUE,TRUE,,,,,,CLR,,,,,,,,VFR,,,,,,,,,,,,METAR,1058
KGDK 050055Z AUTO 18004KT 10SM CLR 20/20 A2989 RMK AO2,KGDK,2024-05-05T00:55:00Z,39.6935,-83.9896,20,20,180,4,,10+,29.89,,,TRUE,TRUE,,,,,,,CLR,,,,,,,,VFR,,,,,,,,,,,,METAR,284
KGDJ 050055Z AUTO 14010KT 10SM BKN034 BKN055 OVC085 22/20 A2988 RMK AO2 LTG DSNT SW THRU N T02170198,KGDJ,2024-05-05T00:55:00Z,32.4469,-97.817,21.7,19.8,140,10,,10+,29.88,,,TRUE,TRUE,,,,,,,BKN,3400,BKN,5500,OVC,8500,,,VFR,,,,,,,,,,,,METAR,235
KGDB 050055Z AUTO 31003KT 10SM SCT065 16/04 A3003 RMK AO2 T01560035,KGDB,2024-05-05T00:55:00Z,44.7521,-95.5591,15.6,3.5,310,3,,10+,30.03,,,TRUE,TRUE,,,,,,,SCT,6500,,,,,,,VFR,,,,,,,,,,,,METAR,316
KGDA 050055Z AUTO 00000KT 10SM SCT045 23/18 A2993 RMK AO2 T02330181 PWINO,KGDA,2024-05-05T00:55:00Z,37.3344,-88.1095,23.3,18.1,0,0,,10+,29.93,,,TRUE,TRUE,,,,,TRUE,,SCT,4500,,,,,,,VFR,,,,,,,,,,,,METAR,199
KGCY 050055Z AUTO 00000KT 10SM BKN095 19/17 A3002 RMK A01,KGCY,2024-05-05T00:55:00Z,36.1924,-82.8135,19,17,0,0,,10+,30.02,,,TRUE,TRUE,,,,,,,BKN,9500,,,,,,,VFR,,,,,,,,,,,,METAR,488
KGCM 050055Z AUTO 36008KT 10SM BKN040 20/18 A2996 RMK AO2,KGCM,2024-05-05T00:55:00Z,36.2918,-95.4825,20,18,360,8,,10+,29.96,,,TRUE,TRUE,,,,,,,BKN,4000,,,,,,,VFR,,,,,,,,,,,,METAR,215
KGCD 050055Z AUTO 10004G16KT 10SM BKN038 BKN065 BKN080 11/03 A2948 RMK AO2 T01100034,KGCD,2024-05-05T00:55:00Z,44.4029,-118.967,11,3.4,100,4,16,10+,29.48,,,TRUE,TRUE,,,,,,,BKN,3800,BKN,6500,BKN,8000,,,VFR,,,,,,,,,,,,METAR,1122
KGBG 050055Z AUTO 30010G15KT 10SM BKN036 OVC045 17/13 A2997 RMK AO2 T01680127,KGBG,2024-05-05T00:55:00Z,40.9329,-90.4334,16.8,12.7,300,10,15,10+,29.97,,,TRUE,TRUE,,,,,,,BKN,3600,OVC,4500,,,,,VFR,,,,,,,,,,,,METAR,230
KGAO 050055Z AUTO 00000KT 10SM CLR 23/21 A2997 RMK AO2 T02320205,KGAO,2024-05-05T00:55:00Z,29.4352,-90.2599,23.2,20.5,0,0,,10+,29.97,,,TRUE,TRUE,,,,,,,CLR,,,,,,,,VFR,,,,,,,,,,,,METAR,
KGAF 050055Z AUTO 00000KT 10SM CLR 12/06 A3001 RMK AO2,KGAF,2024-05-05T00:55:00Z,48.4081,-97.3694,12,6,0,0,,10+,30.01,,,TRUE,TRUE,,,,,,,CLR,,,,,,,,VFR,,,,,,,,,,,,METAR,250
KFZG 050055Z AUTO 00000KT 10SM SCT120 21/19 A3004 RMK AO2 T02100185,KFZG,2024-05-05T00:55:00Z,31.684,-83.2712,21,18.5,0,0,,10+,30.04,,,TRUE,TRUE,,,,,,,SCT,12000,,,,,,,VFR,,,,,,,,,,,,METAR,105
KFYM 050055Z AUTO 00000KT 8SM CLR 21/20 A2999 RMK A01,KFYM,2024-05-05T00:55:00Z,35.0603,-86.5656,21,20,0,0,,8,29.99,,,TRUE,TRUE,,,,,,,CLR,,,,,,,,VFR,,,,,,,,,,,,METAR,297
KFYJ 050055Z AUTO 00000KT 10SM OVC010 15/14 A3019 RMK AO1 T01460135,KFYJ,2024-05-05T00:55:00Z,37.5224,-76.7663,14.6,13.5,0,0,,10+,30.19,,,TRUE,TRUE,,,,,,,OVC,1000,,,,,,,MVFR,,,,,,,,,,,,METAR,3
KFYG 050055Z AUTO 30009KT 10SM 21/21 A2995 RMK AO2,KFYG,2024-05-05T00:55:00Z,38.5877,-90.9915,21,21,300,9,,10+,29.95,,,TRUE,TRUE,,,,,,,,,,,,,,,VFR,,,,,,,,,,,,METAR,147
KFXY 050055Z AUTO 00000KT 10SM CLR 11/06 A3003 RMK AO2,KFXY,2024-05-05T00:55:00Z,43.2323,-93.6237,11,6,0,0,,10+,30.03,,,TRUE,TRUE,,,,,,,CLR,,,,,,,,VFR,,,,,,,,,,,,METAR,366
KFWS 050055Z AUTO 00000KT 5SM BR SCT090 23/22 A2988 RMK AO2 LTG DSNT SW T02280216,KFWS,2024-05-05T00:55:00Z,32.558,-97.308,22.8,21.6,0,0,,5,29.88,,,TRUE,TRUE,,,,,,BR,SCT,9000,,,,,,,MVFR,,,,,,,,,,,,METAR,211
KFWC 050055Z AUTO 27015G29KT 230V310 10SM SCT039 SCT050 BKN075 23/16 A2993 RMK AO2 LTG DSNT W AND NW T02340156,KFWC,2024-05-05T00:55:00Z,38.3796,-88.4135,23.4,15.6,270,15,29,10+,29.93,,,TRUE,TRUE,,,,,,,SCT,3900,SCT,5000,BKN,7500,,,VFR,,,,,,,,,,,,METAR,131
KFWB 050055Z AUTO 23003KT 7SM BKN041 BKN050 BKN090 21/18 A2997 RMK AO2,KFWB,2024-05-05T00:55:00Z,36.6933,-93.4049,21,18,230,3,,7,29.97,,,TRUE,TRUE,,,,,,,BKN,4100,BKN,5000,BKN,9000,,,VFR,,,,,,,,,,,,METAR,392
KFVX 050055Z AUTO 02005KT 7SM -RA BKN004 OVC011 14/14 A3014 RMK AO2 P0019 T01370137,KFVX,2024-05-05T00:55:00Z,37.363,-78.4372,13.7,13.7,20,5,,7,30.14,,,TRUE,TRUE,,,,,,-RA,BKN,400,OVC,1100,,,,,LIFR,,,,,,0.19,,,,,,METAR,129
KFTK 050055Z AUTO 19006KT 10SM CLR 21/18 A2990 RMK AO2 SLP123 T02110179 $,KFTK,2024-05-05T00:55:00Z,37.907,-85.973,21.1,17.9,190,6,,10+,29.90,1012.3,,TRUE,TRUE,TRUE,,,,,,CLR,,,,,,,,VFR,,,,,,,,,,,,METAR,225
KFSW 050055Z AUTO 32011KT 10SM SCT024 15/10 A2998 RMK AO2,KFSW,2024-05-05T00:55:00Z,40.6615,-91.3267,15,10,320,11,,10+,29.98,,,TRUE,TRUE,,,,,,,SCT,2400,,,,,,,VFR,,,,,,,,,,,,METAR,219
KFSO 050055Z AUTO 13006KT 10SM OVC080 18/10 A3020 RMK AO2 T01790097,KFSO,2024-05-05T00:55:00Z,44.9411,-73.0997,17.9,9.7,130,6,,10+,30.20,,,TRUE,TRUE,,,,,,,OVC,8000,,,,,,,VFR,,,,,,,,,,,,METAR,70
KFSK 050055Z AUTO 01008KT 10SM CLR 17/12 A3002 RMK AO2 T01670120,KFSK,2024-05-05T00:55:00Z,37.796,-94.7676,16.7,12,10,8,,10+,30.02,,,TRUE,TRUE,,,,,,,CLR,,,,,,,,VFR,,,,,,,,,,,,METAR,276
KFSI 050055Z AUTO 03014KT 10SM FEW022 SCT028 BKN035 18/14 A2991 RMK AO2 SLP123 T01820141 FZRANO $,KFSI,2024-05-05T00:55:00Z,34.6457,-98.404,18.2,14.1,30,14,,10+,29.91,1012.3,,TRUE,TRUE,TRUE,,,TRUE,,,FEW,2200,SCT,2800,BKN,3500,,,VFR,,,,,,,,,,,,METAR,360
KFSE 050055Z AUTO 01006KT 10SM OVC055 11/05 A3000 RMK AO2,KFSE,2024-05-05T00:55:00Z,47.589,-95.773,11,5,10,6,,10+,30.00,,,TRUE,TRUE,,,,,,,OVC,5500,,,,,,,VFR,,,,,,,,,,,,METAR,389
KFRR 050055Z AUTO 09005KT 10SM 12/11 A3017 RMK AO1,KFRR,2024-05-05T00:55:00Z,38.9169,-78.2487,12,11,90,5,,10+,30.17,,,TRUE,TRUE,,,,,,,,,,,,,,,VFR,,,,,,,,,,,,METAR,213
KFRI 050055Z AUTO 03005KT 10SM CLR 16/08 A3004 RMK AO2 SLP170 T01630078 PNO $,KFRI,2024-05-05T00:55:00Z,39.0568,-96.7617,16.3,7.8,30,5,,10+,30.04,1017,,TRUE,TRUE,TRUE,,,,,,CLR,,,,,,,,VFR,,,,,,,,,,,,METAR,232
KFRH 050055Z AUTO 00000KT 10SM CLR 22/17 A2991 RMK AO1,KFRH,2024-05-05T00:55:00Z,38.5034,-86.6442,22,17,0,0,,10+,29.91,,,TRUE,TRUE,,,,,,,CLR,,,,,,,,VFR,,,,,,,,,,,,METAR,241
KFPY 050055Z AUTO 00000KT 10SM CLR 23/21 A3004 RMK AO2 T02320209,KFPY,2024-05-05T00:55:00Z,30.0719,-83.5731,23.2,20.9,0,0,,10+,30.04,,,TRUE,TRUE,,,,,,,CLR,,,,,,,,VFR,,,,,,,,,,,,METAR,12
KFPK 050055Z AUTO VRB05KT 10SM CLR 19/16 A2986 RMK AO2,KFPK,2024-05-05T00:55:00Z,42.5764,-84.8125,19,16,VRB,5,,10+,29.86,,,TRUE,TRUE,,,,,,,CLR,,,,,,,,VFR,,,,,,,,,,,,METAR,269
KFOT 050055Z AUTO 28007KT 4SM FEW018 BKN035 OVC045 08/08 A2982 RMK AO1 P0001,KFOT,2024-05-05T00:55:00Z,40.5529,-124.134,8,8,280,7,,4,29.82,,,TRUE,TRUE,,,,,,,FEW,1800,BKN,3500,OVC,4500,,,MVFR,,,,,,0.01,,,,,,METAR,118
KFOM 050055Z AUTO 10SM SCT110 22/M02 A2967 RMK AO1,KFOM,2024-05-05T00:55:00Z,38.9618,-112.36,22,-2,,,,10+,29.67,,,TRUE,TRUE,,,,,,,SCT,11000,,,,,,,VFR,,,,,,,,,,,,METAR,1519
KFOA 050055Z AUTO 27016G26KT 10SM SCT039 BKN047 BKN060 23/17 A2993 RMK AO2,KFOA,2024-05-05T00:55:00Z,38.6673,-88.4527,23,17,270,16,26,10+,29.93,,,TRUE,TRUE,,,,,,,SCT,3900,BKN,4700,BKN,6000,,,VFR,,,,,,,,,,,,METAR,141
KFMM 050055Z AUTO 15013G18KT 10SM CLR 16/01 A2996 RMK AO2,KFMM,2024-05-05T00:55:00Z,40.3315,-103.807,16,1,150,13,18,10+,29.96,,,TRUE,TRUE,,,,,,,CLR,,,,,,,,VFR,,,,,,,,,,,,METAR,1376
KFLY 050055Z AUTO 17009G22KT 10SM CLR 10/M03 A3006 RMK AO2 T01011027,KFLY,2024-05-05T00:55:00Z,38.9439,-104.568,10.1,-2.7,170,9,22,10+,30.06,,,TRUE,TRUE,,,,,,,CLR,,,,,,,,VFR,,,,,,,,,,,,METAR,2096
KFKS 050055Z AUTO 00000KT 10SM OVC065 20/12 A2982 RMK AO2 T01970120,KFKS,2024-05-05T00:55:00Z,44.6246,-86.1985,19.7,12,0,0,,10+,29.82,,,TRUE,TRUE,,,,,,,OVC,6500,,,,,,,VFR,,,,,,,,,,,,METAR,189
KFKR 050055Z AUTO 10SM CLR 23/16 A2985 RMK AO2,KFKR,2024-05-05T00:55:00Z,40.2748,-86.5644,23,16,,,,10+,29.85,,,TRUE,TRUE,,,,,,,CLR,,,,,,,,VFR,,,,,,,,,,,,METAR,260
KFKN 050055Z AUTO 36003KT 10SM RA BKN011 BKN027 OVC041 16/14 A3016 RMK AO2 T01640140,KFKN,2024-05-05T00:55:00Z,36.6984,-76.9032,16.4,14,360,3,,10+,30.16,,,TRUE,TRUE,,,,,,RA,BKN,1100,BKN,2700,OVC,4100,,,MVFR,,,,,,,,,,,,METAR,9
KFKA 050055Z AUTO 35007KT 10SM CLR 11/08 A2999 RMK AO2,KFKA,2024-05-05T00:55:00Z,43.677,-92.174,11,8,350,7,,10+,29.99,,,TRUE,TRUE,,,,,,,CLR,,,,,,,,VFR,,,,,,,,,,,,METAR,388
KFHB 050055Z AUTO 13008KT 10SM CLR 23/20 A3004 RMK AO2,KFHB,2024-05-05T00:55:00Z,30.6131,-81.4623,23,20,130,8,,10+,30.04,,,TRUE,TRUE,,,,,,,CLR,,,,,,,,VFR,,,,,,,,,,,,METAR,4
KFGX 050055Z AUTO 12006KT 10SM SCT026 SCT033 SCT060 20/19 A2996 RMK AO2 T01980185,KFGX,2024-05-05T00:55:00Z,38.5383,-83.7467,19.8,18.5,120,6,,10+,29.96,,,TRUE,TRUE,,,,,,,SCT,2600,SCT,3300,SCT,6000,,,VFR,,,,,,,,,,,,METAR,279
KFGN 050055Z AUTO 27004KT 10SM OVC065 09/04 A2998 RMK AO2,KFGN,2024-05-05T00:55:00Z,49.318,-94.902,9,4,270,4,,10+,29.98,,,TRUE,TRUE,,,,,,,OVC,6500,,,,,,,VFR,,,,,,,,,,,,METAR,327
KFFX 050055Z AUTO 16003KT 10SM CLR 21/12 A2984 RMK AO2 T02140121,KFFX,2024-05-05T00:55:00Z,43.4417,-85.9936,21.4,12.1,160,3,,10+,29.84,,,TRUE,TRUE,,,,,,,CLR,,,,,,,,VFR,,,,,,,,,,,,METAR,234
KFFO 050055Z 16009KT 10SM SCT110 21/18 A2988 RMK AO2A SLP118 T02120182,KFFO,2024-05-05T00:55:00Z,39.837,-84.035,21.2,18.2,160,9,,10+,29.88,1011.8,,,TRUE,,,,,,,SCT,11000,,,,,,,VFR,,,,,,,,,,,,METAR,250
KFFM 050055Z AUTO 32010KT 10SM SCT060 14/03 A3000 RMK AO2,KFFM,2024-05-05T00:55:00Z,46.2865,-96.1534,14,3,320,10,,10+,30.00,,,TRUE,TRUE,,,,,,,SCT,6000,,,,,,,VFR,,,,,,,,,,,,METAR,362
KFFL 050055Z AUTO 32013G18KT 10SM OVC035 14/08 A3000 RMK A01,KFFL,2024-05-05T00:55:00Z,41.0521,-91.9834,14,8,320,13,18,10+,30.00,,,TRUE,TRUE,,,,,,,OVC,3500,,,,,,,VFR,,,,,,,,,,,,METAR,240
KFEW 050055Z AUTO 15014G20KT 10SM FEW120 13/M03 A2997 RMK AO2 SLPNO T01331031 $,KFEW,2024-05-05T00:55:00Z,41.141,-104.869,13.3,-3.1,150,14,20,10+,29.97,,,TRUE,TRUE,TRUE,,,,,,FEW,12000,,,,,,,VFR,,,,,,,,,,,,METAR,1877
KFET 050055Z AUTO 06003KT 10SM CLR 15/04 A3007 RMK AO2 T01500041,KFET,2024-05-05T00:55:00Z,41.4489,-96.5237,15,4.1,60,3,,10+,30.07,,,TRUE,TRUE,,,,,,,CLR,,,,,,,,VFR,,,,,,,,,,,,METAR,366
KFEP 050055Z AUTO 31009KT SCT016 OVC045 15/12 A2994 RMK AO2 T01490118,KFEP,2024-05-05T00:55:00Z,42.2475,-89.581,14.9,11.8,310,9,,,29.94,,,TRUE,TRUE,,,,,,,SCT,1600,OVC,4500,,,,,,,,,,,,,,,,,METAR,255
KFDW 050055Z AUTO 00000KT 10SM -DZ OVC080 19/18 A3006 RMK AO1 P0001,KFDW,2024-05-05T00:55:00Z,34.3151,-81.1119,19,18,0,0,,10+,30.06,,,TRUE,TRUE,,,,,,-DZ,OVC,8000,,,,,,,VFR,,,,,,0.01,,,,,,METAR,174
KFCS 050055Z AUTO 16012KT 10SM BKN120 OVC140 13/M03 A2998 RMK AO2 SLP147 T01301033 $,KFCS,2024-05-05T00:55:00Z,38.6756,-104.751,13,-3.3,160,12,,10+,29.98,1014.7,,TRUE,TRUE,TRUE,,,,,,BKN,12000,OVC,14000,,,,,VFR,,,,,,,,,,,,METAR,1789
KFCH 050055Z AUTO 32008KT 2SM BR FEW012 SCT019 BKN025 10/10 A2989 RMK A01,KFCH,2024-05-05T00:55:00Z,36.7338,-119.82,10,10,320,8,,2,29.89,,,TRUE,TRUE,,,,,,BR,FEW,1200,SCT,1900,BKN,2500,,,IFR,,,,,,,,,,,,METAR,85
KFBR 050055Z AUTO 21011KT 10SM CLR 17/M08 A2982 RMK AO2 T01671081,KFBR,2024-05-05T00:55:00Z,41.3941,-110.406,16.7,-8.1,210,11,,10+,29.82,,,TRUE,TRUE,,,,,,,CLR,,,,,,,,VFR,,,,,,,,,,,,METAR,2140
KFBL 050055Z AUTO 25004KT 10SM CLR 14/06 A3000 RMK AO2,KFBL,2024-05-05T00:55:00Z,44.3298,-93.3119,14,6,250,4,,10+,30.00,,,TRUE,TRUE,,,,,,,CLR,,,,,,,,VFR,,,,,,,,,,,,METAR,318
KFBG 050055Z AUTO 00000KT 10SM SCT002 BKN095 20/19 A3007 RMK AO2 SLP184 T02010193 $,KFBG,2024-05-05T00:55:00Z,35.131,-78.932,20.1,19.3,0,0,,10+,30.07,1018.4,,TRUE,TRUE,TRUE,,,,,,SCT,200,BKN,9500,,,,,VFR,,,,,,,,,,,,METAR,69
KFAF 050055Z AUTO 08006KT 10SM SCT008 BKN024 OVC048 16/14 A3014 RMK AO2 CIG 008V024 SLP210 T01630139 TSNO $,KFAF,2024-05-05T00:55:00Z,37.134,-76.61,16.3,13.9,80,6,,10+,30.14,1021,,TRUE,TRUE,TRUE,,TRUE,,,,SCT,800,BKN,2400,OVC,4800,,,MVFR,,,,,,,,,,,,METAR,3
KF70 050055Z AUTO 22009G14KT 10SM OVC020 15/11 A2990 RMK AO2,KF70,2024-05-05T00:55:00Z,33.577,-117.126,15,11,220,9,14,10+,29.90,,,TRUE,TRUE,,,,,,,OVC,2000,,,,,,,MVFR,,,,,,,,,,,,METAR,406
KF46 050055Z AUTO 00000KT 10SM SCT045 OVC055 25/20 A2991 RMK AO2 LTG DSNT NW T02530195 PWINO,KF46,2024-05-05T00:55:00Z,32.9322,-96.4349,25.3,19.5,0,0,,10+,29.91,,,TRUE,TRUE,,,,,TRUE,,SCT,4500,OVC,5500,,,,,VFR,,,,,,,,,,,,METAR,175
KF45 050055Z AUTO 10006KT 10SM OVC022 24/22 A3002 RMK AO2 TSNO,KF45,2024-05-05T00:55:00Z,26.8419,-80.224,24,22,100,6,,10+,30.02,,,TRUE,TRUE,,,TRUE,,,,OVC,2200,,,,,,,MVFR,,,,,,,,,,,,METAR,6
KF44 050055Z AUTO 10SM SCT090 24/19 A2988 RMK AO2,KF44,2024-05-05T00:55:00Z,32.165,-95.829,24,19,,,,10+,29.88,,,TRUE,TRUE,,,,,,,SCT,9000,,,,,,,VFR,,,,,,,,,,,,METAR,137
KF17 050055Z AUTO 00000KT 10SM CLR 24/20 A2994 RMK AO2,KF17,2024-05-05T00:55:00Z,31.8277,-94.154,24,20,0,0,,10+,29.94,,,TRUE,TRUE,,,,,,,CLR,,,,,,,,VFR,,,,,,,,,,,,METAR,93
KF05 050055Z AUTO 03011G19KT 10SM OVC020 19/15 A2993 RMK AO2 LTG DSNT SE THRU SW T01900152,KF05,2024-05-05T00:55:00Z,34.2283,-99.2834,19,15.2,30,11,19,10+,29.93,,,TRUE,TRUE,,,,,,,OVC,2000,,,,,,,MVFR,,,,,,,,,,,,METAR,384
KF00 050055Z AUTO 11004KT 10SM SCT050 SCT065 24/21 A2992 RMK AO2 T02440210,KF00,2024-05-05T00:55:00Z,33.6158,-96.1809,24.4,21,110,4,,10+,29.92,,,TRUE,TRUE,,,,,,,SCT,5000,SCT,6500,,,,,VFR,,,,,,,,,,,,METAR,189
KEZZ 050055Z AUTO 36011KT 10SM OVC033 14/10 A3006 RMK AO2 T01360098,KEZZ,2024-05-05T00:55:00Z,39.729,-94.2785,13.6,9.8,360,11,,10+,30.06,,,TRUE,TRUE,,,,,,,OVC,3300,,,,,,,VFR,,,,,,,,,,,,METAR,317
KEZS 050055Z AUTO 31010G18KT 10SM BKN018 OVC024 13/10 A2989 RMK AO2 T01340102,KEZS,2024-05-05T00:55:00Z,44.787,-88.5639,13.4,10.2,310,10,18,10+,29.89,,,TRUE,TRUE,,,,,,,BKN,1800,OVC,2400,,,,,MVFR,,,,,,,,,,,,METAR,247
KEZP 050055Z AUTO 13017KT 10SM CLR 25/23 A2992 RMK A01,KEZP,2024-05-05T00:55:00Z,28.2198,-92.7944,25,23,130,17,,10+,29.92,,,TRUE,TRUE,,,,,,,CLR,,,,,,,,VFR,,,,,,,,,,,,METAR,30
KEZM 050055Z AUTO 00000KT 10SM SCT120 20/20 A3006 RMK AO2,KEZM,2024-05-05T00:55:00Z,32.2136,-83.1321,20,20,0,0,,10+,30.06,,,TRUE,TRUE,,,,,,,SCT,12000,,,,,,,VFR,,,,,,,,,,,,METAR,86
KEZF 050055Z AUTO 06006KT 10SM -DZ OVC004 13/13 A3019 RMK AO2 T01270127,KEZF,2024-05-05T00:55:00Z,38.2685,-77.448,12.7,12.7,60,6,,10+,30.19,,,TRUE,TRUE,,,,,,-DZ,OVC,400,,,,,,,LIFR,,,,,,,,,,,,METAR,26
KEVU 050055Z AUTO 02005KT 10SM CLR 13/08 A3007 RMK AO2 T01360084,KEVU,2024-05-05T00:55:00Z,40.3524,-94.9137,13.6,8.4,20,5,,10+,30.07,,,TRUE,TRUE,,,,,,,CLR,,,,,,,,VFR,,,,,,,,,,,,METAR,351
KEVM 050055Z AUTO 27003KT 10SM SCT044 BKN060 OVC080 11/06 A2996 RMK AO2 T01090055,KEVM,2024-05-05T00:55:00Z,47.4274,-92.4972,10.9,5.5,270,3,,10+,29.96,,,TRUE,TRUE,,,,,,,SCT,4400,BKN,6000,OVC,8000,,,VFR,,,,,,,,,,,,METAR,419
KETO 050055Z AUTO 00000KT 10SM CLR 27/23 A2998 RMK A01,KETO,2024-05-05T00:55:00Z,28.0336,-89.1008,27,23,0,0,,10+,29.98,,,TRUE,TRUE,,,,,,,CLR,,,,,,,,VFR,,,,,,,,,,,,METAR,42
KETN 050055Z AUTO 12014G24KT 5SM -VCTSRA BR SCT015 SCT070 OVC100 20/20 A2982 RMK AO2 LTG DSNT ALQDS P0002 T02010199,KETN,2024-05-05T00:55:00Z,32.4164,-98.8113,20.1,19.9,120,14,24,5,29.82,,,TRUE,TRUE,,,,,,VCTS -RA BR,SCT,1500,SCT,7000,OVC,10000,,,MVFR,,,,,,0.02,,,,,,METAR,445
KETB 050055Z AUTO 32011G16KT 10SM -RA OVC020 16/15 A2987 RMK AO2 P0004,KETB,2024-05-05T00:55:00Z,43.4225,-88.1326,16,15,320,11,16,10+,29.87,,,TRUE,TRUE,,,,,,-RA,OVC,2000,,,,,,,MVFR,,,,,,0.04,,,,,,METAR,269
KERY 050055Z AUTO 11007KT 10SM OVC080 15/11 A2980 RMK AO2 T01540109,KERY,2024-05-05T00:55:00Z,46.3151,-85.4568,15.4,10.9,110,7,,10+,29.80,,,TRUE,TRUE,,,,,,,OVC,8000,,,,,,,VFR,,,,,,,,,,,,METAR,261
KERV 050055Z AUTO 11004KT 5SM BR SCT011 SCT021 OVC042 23/21 A2983 RMK AO2 LTG DSNT N T02260214,KERV,2024-05-05T00:55:00Z,29.9779,-99.0872,22.6,21.4,110,4,,5,29.83,,,TRUE,TRUE,,,,,,BR,SCT,1100,SCT,2100,OVC,4200,,,MVFR,,,,,,,,,,,,METAR,483
KEQA 050055Z AUTO 03008KT 10SM SCT065 16/11 A3002 RMK AO2,KEQA,2024-05-05T00:55:00Z,37.7753,-96.8145,16,11,30,8,,10+,30.02,,,TRUE,TRUE,,,,,,,SCT,6500,,,,,,,VFR,,,,,,,,,,,,METAR,422
KEOK 050055Z AUTO 33008G17KT 10SM BKN028 BKN033 15/10 A2999 RMK A01,KEOK,2024-05-05T00:55:00Z,40.4615,-91.4274,15,10,330,8,17,10+,29.99,,,TRUE,TRUE,,,,,,,BKN,2800,BKN,3300,,,,,MVFR,,,,,,,,,,,,METAR,206
KENL 050055Z AUTO 28005KT 10SM -TSRA SCT065 OVC090 19/17 A2994 RMK AO2 LTG DSNT ALQDS P0025 T01860170,KENL,2024-05-05T00:55:00Z,38.5095,-89.09,18.6,17,280,5,,10+,29.94,,,TRUE,TRUE,,,,,,-TSRA,SCT,6500,OVC,9000,,,,,VFR,,,,,,0.25,,,,,,METAR,161
KEND 050055Z AUTO 03009KT 10SM CLR 18/12 A2997 RMK AO2 SLP145 T01790119 $,KEND,2024-05-05T00:55:00Z,36.338,-97.919,17.9,11.9,30,9,,10+,29.97,1014.5,,TRUE,TRUE,TRUE,,,,,,CLR,,,,,,,,VFR,,,,,,,,,,,,METAR,392
KEMV 050055Z AUTO 00000KT 4SM RA SCT012 SCT075 OVC100 17/17 A3014 RMK AO2 P0016 T01730171,KEMV,2024-05-05T00:55:00Z,36.6858,-77.485,17.3,17.1,0,0,,4,30.14,,,TRUE,TRUE,,,,,,RA,SCT,1200,SCT,7500,OVC,10000,,,MVFR,,,,,,0.16,,,,,,METAR,35
KEMM 050055Z AUTO 21004KT 10SM CLR 15/M06 A2980 RMK AO2,KEMM,2024-05-05T00:55:00Z,41.8224,-110.555,15,-6,210,4,,10+,29.80,,,TRUE,TRUE,,,,,,,CLR,,,,,,,,VFR,,,,,,,,,,,,METAR,2219
KELO 050055Z AUTO 00000KT 10SM CLR 08/07 A2995 RMK AO2,KELO,2024-05-05T00:55:00Z,47.8287,-91.8371,8,7,0,0,,10+,29.95,,,TRUE,TRUE,,,,,,,CLR,,,,,,,,VFR,,,,,,,,,,,,METAR,438
KELK 050055Z AUTO 05013KT 10SM OVC025 16/14 A2998 RMK AO2 T01640142 $,KELK,2024-05-05T00:55:00Z,35.4261,-99.3926,16.4,14.2,50,13,,10+,29.98,,,TRUE,TRUE,TRUE,,,,,,OVC,2500,,,,,,,MVFR,,,,,,,,,,,,METAR,603
KELA 050055Z AUTO 12008KT 10SM SCT110 24/21 A2985 RMK AO2 P0001 T02350208,KELA,2024-05-05T00:55:00Z,29.602,-96.3239,23.5,20.8,120,8,,10+,29.85,,,TRUE,TRUE,,,,,,,SCT,11000,,,,,,,VFR,,,,,,0.01,,,,,,METAR,56
KEKX 050055Z AUTO 22005KT 10SM CLR 20/18 A2992 RMK AO2 T01950178,KEKX,2024-05-05T00:55:00Z,37.6924,-85.9204,19.5,17.8,220,5,,10+,29.92,,,TRUE,TRUE,,,,,,,CLR,,,,,,,,VFR,,,,,,,,,,,,METAR,234
KEKM 050055Z 12003KT 10SM CLR 22/15 A2986 RMK AO2 T02200150 $,KEKM,2024-05-05T00:55:00Z,41.7222,-86,22,15,120,3,,10+,29.86,,,,TRUE,TRUE,,,,,,CLR,,,,,,,,VFR,,,,,,,,,,,,METAR,236
KEKE 050055Z AUTO 07013KT 7SM BKN009 BKN014 25/23 A2988 RMK A01,KEKE,2024-05-05T00:55:00Z,28.4971,-91.5702,25,23,70,13,,7,29.88,,,TRUE,TRUE,,,,,,,BKN,900,BKN,1400,,,,,IFR,,,,,,,,,,,,METAR,31
KEIK 050055Z AUTO 32008KT 10SM CLR 16/03 A2991 RMK AO2 T01580026 $,KEIK,2024-05-05T00:55:00Z,40.0117,-105.05,15.8,2.6,320,8,,10+,29.91,,,TRUE,TRUE,TRUE,,,,,,CLR,,,,,,,,VFR,,,,,,,,,,,,METAR,1551
KEHY 050055Z AUTO 14005KT 10SM CLR 14/M15 A2990 RMK AO2 PWINO,KEHY,2024-05-05T00:55:00Z,41.725,-106.459,14,-15,140,5,,10+,29.90,,,TRUE,TRUE,,,,,TRUE,,CLR,,,,,,,,VFR,,,,,,,,,,,,METAR,2239
KEHA 050055Z AUTO 12009KT 10SM OVC031 14/08 A3005 RMK AO2 T01380078,KEHA,2024-05-05T00:55:00Z,37.0011,-101.88,13.8,7.8,120,9,,10+,30.05,,,TRUE,TRUE,,,,,,,OVC,3100,,,,,,,VFR,,,,,,,,,,,,METAR,1103
KEGV 050055Z AUTO 33003KT 10SM UP BKN010 BKN016 OVC022 08/08 A2992 RMK AO2 T00800080,KEGV,2024-05-05T00:55:00Z,45.9309,-89.267,8,8,330,3,,10+,29.92,,,TRUE,TRUE,,,,,,UP,BKN,1000,BKN,1600,OVC,2200,,,MVFR,,,,,,,,,,,,METAR,499
KEGT 050055Z AUTO 03006KT 10SM SCT050 17/12 A3002 RMK AO2 T01690119,KEGT,2024-05-05T00:55:00Z,37.3251,-97.3901,16.9,11.9,30,6,,10+,30.02,,,TRUE,TRUE,,,,,,,SCT,5000,,,,,,,VFR,,,,,,,,,,,,METAR,387
KEGI 050055Z AUTO 19005KT 10SM CLR 26/19 A2999 RMK AO2 SLP155 T02550187 $,KEGI,2024-05-05T00:55:00Z,30.653,-86.525,25.5,18.7,190,5,,10+,29.99,1015.5,,TRUE,TRUE,TRUE,,,,,,CLR,,,,,,,,VFR,,,,,,,,,,,,METAR,59
KEFK 050055Z AUTO 14008KT 10SM BKN075 13/08 A3027 RMK AO2 T01330076,KEFK,2024-05-05T00:55:00Z,44.8886,-72.2296,13.3,7.6,140,8,,10+,30.27,,,TRUE,TRUE,,,,,,,BKN,7500,,,,,,,VFR,,,,,,,,,,,,METAR,282
KEDW 050055Z 23027G32KT 40SM FEW030 SCT150 BKN200 17/06 A2977 RMK AO2A PK WND 24035/52 SLP071 T01710057,KEDW,2024-05-05T00:55:00Z,34.908,-117.874,17.1,5.7,230,27,32,40,29.77,1007.1,,,TRUE,,,,,,,FEW,3000,SCT,15000,BKN,20000,,,VFR,,,,,,,,,,,,METAR,698
KEDU 050055Z AUTO 10SM FEW050 SCT070 14/05 A2978 RMK AO1,KEDU,2024-05-05T00:55:00Z,38.53,-121.788,14,5,,,,10+,29.78,,,TRUE,TRUE,,,,,,,FEW,5000,SCT,7000,,,,,VFR,,,,,,,,,,,,METAR,20
KEDN 050055Z AUTO 00000KT 10SM SCT065 BKN070 BKN090 26/20 A2998 RMK AO2 T02570197 PWINO,KEDN,2024-05-05T00:55:00Z,31.299,-85.9,25.7,19.7,0,0,,10+,29.98,,,TRUE,TRUE,,,,,TRUE,,SCT,6500,BKN,7000,BKN,9000,,,VFR,,,,,,,,,,,,METAR,103
KEDJ 050055Z AUTO 14005KT 10SM CLR 20/20 A2991 RMK A01,KEDJ,2024-05-05T00:55:00Z,40.3714,-83.8142,20,20,140,5,,10+,29.91,,,TRUE,TRUE,,,,,,,CLR,,,,,,,,VFR,,,,,,,,,,,,METAR,341
KEDC 050055Z AUTO 09006KT 3SM BR SCT041 BKN060 OVC110 24/24 A2980 RMK AO2,KEDC,2024-05-05T00:55:00Z,30.3926,-97.5621,24,24,90,6,,3,29.80,,,TRUE,TRUE,,,,,,BR,SCT,4100,BKN,6000,OVC,11000,,,MVFR,,,,,,,,,,,,METAR,184
KECU 050055Z AUTO 12009KT 3SM BR 22/21 A2987 RMK AO2 LTG DSNT NE,KECU,2024-05-05T00:55:00Z,29.948,-100.174,22,21,120,9,,3,29.87,,,TRUE,TRUE,,,,,,BR,,,,,,,,,MVFR,,,,,,,,,,,,METAR,725
KECS 050055Z AUTO 15012G19KT 10SM CLR 15/M05 A2992 RMK AO2,KECS,2024-05-05T00:55:00Z,43.8845,-104.312,15,-5,150,12,19,10+,29.92,,,TRUE,TRUE,,,,,,,CLR,,,,,,,,VFR,,,,,,,,,,,,METAR,1273
KEBS 050055Z AUTO 35006KT 10SM CLR 12/08 A3002 RMK AO2,KEBS,2024-05-05T00:55:00Z,42.4372,-93.8725,12,8,350,6,,10+,30.02,,,TRUE,TRUE,,,,,,,CLR,,,,,,,,VFR,,,,,,,,,,,,METAR,340
KEBG 050055Z AUTO 13011KT 10SM FEW027 OVC075 28/22 A2974 RMK AO2,KEBG,2024-05-05T00:55:00Z,26.4433,-98.1255,28,22,130,11,,10+,29.74,,,TRUE,TRUE,,,,,,,FEW,2700,OVC,7500,,,,,VFR,,,,,,,,,,,,METAR,21
KEBA 050055Z AUTO 00000KT 10SM SCT048 BKN055 OVC070 21/20 A3004 RMK AO2 T02050201,KEBA,2024-05-05T00:55:00Z,34.0957,-82.8121,20.5,20.1,0,0,,10+,30.04,,,TRUE,TRUE,,,,,,,SCT,4800,BKN,5500,OVC,7000,,,VFR,,,,,,,,,,,,METAR,180
KEAT 050055Z AUTO 31008KT 10SM -RA OVC060 10/09 A2957 RMK AO2 SLP013 P0001 T01000094,KEAT,2024-05-05T00:55:00Z,47.3975,-120.201,10,9.4,310,8,,10+,29.57,1001.3,,TRUE,TRUE,,,,,,-RA,OVC,6000,,,,,,,VFR,,,,,,0.01,,,,,,METAR,375
KEAN 050055Z AUTO 16012G16KT 10SM CLR 17/M03 A2989 RMK AO2 T01701029,KEAN,2024-05-05T00:55:00Z,42.0563,-104.939,17,-2.9,160,12,16,10+,29.89,,,TRUE,TRUE,,,,,,,CLR,,,,,,,,VFR,,,,,,,,,,,,METAR,1452
KE77 050055Z AUTO 25008G15KT 10SM CLR 28/M04 A2987 RMK AO2,KE77,2024-05-05T00:55:00Z,32.634,-110.647,28,-4,250,8,15,10+,29.87,,,TRUE,TRUE,,,,,,,CLR,,,,,,,,VFR,,,,,,,,,,,,METAR,989
KE57 050055Z AUTO 07014G19KT 10SM OVC010 16/15 A2993 RMK AO2,KE57,2024-05-05T00:55:00Z,32.976,-102.843,16,15,70,14,19,10+,29.93,,,TRUE,TRUE,,,,,,,OVC,1000,,,,,,,MVFR,,,,,,,,,,,,METAR,1090
KE42 050055Z AUTO 06010KT 10SM OVC023 14/10 A3002 RMK AO2 T01400095,KE42,2024-05-05T00:55:00Z,36.2193,-101.194,14,9.5,60,10,,10+,30.02,,,TRUE,TRUE,,,,,,,OVC,2300,,,,,,,MVFR,,,,,,,,,,,,METAR,942
KE41 050055Z AUTO 13017G22KT 10SM VCTS SCT019 SCT028 SCT034 23/19 A2980 RMK AO2 LTG DSNT ALQDS T02300187,KE41,2024-05-05T00:55:00Z,31.1945,-101.473,23,18.7,130,17,22,10+,29.80,,,TRUE,TRUE,,,,,,VCTS,SCT,1900,SCT,2800,SCT,3400,,,VFR,,,,,,,,,,,,METAR,825
KE38 050055Z AUTO 06007KT 10SM CLR 24/12 A2995 RMK AO2 LTG DSNT E T02370120,KE38,2024-05-05T00:55:00Z,30.3851,-103.68,23.7,12,60,7,,10+,29.95,,,TRUE,TRUE,,,,,,,CLR,,,,,,,,VFR,,,,,,,,,,,,METAR,1372
KE16 050055Z AUTO 00000KT 10SM FEW039 BKN060 BKN065 12/08 A2988 RMK AO2 PWINO PNO,KE16,2024-05-05T00:55:00Z,37.0797,-121.598,12,8,0,0,,10+,29.88,,,TRUE,TRUE,,,,,TRUE,,FEW,3900,BKN,6000,BKN,6500,,,VFR,,,,,,,,,,,,METAR,84
KE11 050055Z AUTO 05010G14KT 10SM CLR 18/14 A2988 RMK AO2 T01760138,KE11,2024-05-05T00:55:00Z,32.3281,-102.528,17.6,13.8,50,10,14,10+,29.88,,,TRUE,TRUE,,,,,,,CLR,,,,,,,,VFR,,,,,,,,,,,,METAR,966
KDZJ 050055Z AUTO 00000KT 7SM BR SCT120 17/17 A3007 RMK AO2 LTG DSNT N T01730173,KDZJ,2024-05-05T00:55:00Z,34.8552,-84.0014,17.3,17.3,0,0,,7,30.07,,,TRUE,TRUE,,,,,,BR,SCT,12000,,,,,,,VFR,,,,,,,,,,,,METAR,578
KDZB 050055Z AUTO 12004KT 5SM BR SCT025 SCT039 BKN047 23/22 A2983 RMK AO2 LTG DSNT NW T02280223,KDZB,2024-05-05T00:55:00Z,30.521,-98.3574,22.8,22.3,120,4,,5,29.83,,,TRUE,TRUE,,,,,,BR,SCT,2500,SCT,3900,BKN,4700,,,MVFR,,,,,,,,,,,,METAR,329
KDYT 050055Z AUTO 13003KT 10SM CLR 10/09 A2995 RMK AO2,KDYT,2024-05-05T00:55:00Z,46.7231,-92.0438,10,9,130,3,,10+,29.95,,,TRUE,TRUE,,,,,,,CLR,,,,,,,,VFR,,,,,,,,,,,,METAR,185
KDYS 050055Z AUTO 14007KT 10SM OVC011 22/20 A2985 RMK AO2 RAB13E24RAB28E43DZB43E45 CIG 010 RWY16 PRESRR SLP072 P0000 T02160195,KDYS,2024-05-05T00:55:00Z,32.406,-99.85,21.6,19.5,140,7,,10+,29.85,1007.2,,TRUE,TRUE,,,,,,,OVC,1100,,,,,,,MVFR,,,,,,0.005,,,,,,METAR,544
KDYB 050055Z AUTO 00000KT 10SM CLR 22/22 A3004 RMK AO2,KDYB,2024-05-05T00:55:00Z,33.062,-80.28,22,22,0,0,,10+,30.04,,,TRUE,TRUE,,,,,,,CLR,,,,,,,,VFR,,,,,,,,,,,,METAR,15
KDYA 050055Z AUTO 00000KT 10SM SCT055 23/20 A2996 RMK AO2 T02300203,KDYA,2024-05-05T00:55:00Z,32.4641,-87.9504,23,20.3,0,0,,10+,29.96,,,TRUE,TRUE,,,,,,,SCT,5500,,,,,,,VFR,,,,,,,,,,,,METAR,33
KDXX 050055Z AUTO 32003KT 10SM SCT070 16/06 A3003 RMK AO2,KDXX,2024-05-05T00:55:00Z,44.9839,-96.1789,16,6,320,3,,10+,30.03,,,TRUE,TRUE,,,,,,,SCT,7000,,,,,,,VFR,,,,,,,,,,,,METAR,327
KDWX 050055Z AUTO 14003KT 10SM CLR 17/M03 A2989 RMK AO2 T01741030,KDWX,2024-05-05T00:55:00Z,41.037,-107.5,17.4,-3,140,3,,10+,29.89,,,TRUE,TRUE,,,,,,,CLR,,,,,,,,VFR,,,,,,,,,,,,METAR,1974
KDWA 050055Z AUTO 24009KT 10SM BKN060 14/05 A2978 RMK AO2,KDWA,2024-05-05T00:55:00Z,38.5803,-121.854,14,5,240,9,,10+,29.78,,,TRUE,TRUE,,,,,,,BKN,6000,,,,,,,VFR,,,,,,,,,,,,METAR,28
KDVO 050055Z AUTO 29012G17KT 260V330 10SM FEW038 13/05 A2983 RMK AO2,KDVO,2024-05-05T00:55:00Z,38.1417,-122.555,13,5,290,12,17,10+,29.83,,,TRUE,TRUE,,,,,,,FEW,3800,,,,,,,VFR,,,,,,,,,,,,METAR,1
KDUX 050055Z AUTO 06008KT 10SM BKN024 BKN029 13/08 A3002 RMK AO2 T01330075,KDUX,2024-05-05T00:55:00Z,35.8608,-102.009,13.3,7.5,60,8,,10+,30.02,,,TRUE,TRUE,,,,,,,BKN,2400,BKN,2900,,,,,MVFR,,,,,,,,,,,,METAR,1129
KDUH 050055Z AUTO 00000KT 10SM SCT030 BKN047 OVC110 18/16 A2991 RMK AO2 T01770160,KDUH,2024-05-05T00:55:00Z,41.7375,-83.6493,17.7,16,0,0,,10+,29.91,,,TRUE,TRUE,,,,,,,SCT,3000,BKN,4700,OVC,11000,,,VFR,,,,,,,,,,,,METAR,203
KDUC 050055Z AUTO 02010G14KT 10SM BKN031 BKN038 BKN100 19/16 A2995 RMK AO2 LTG DSNT SE AND SW T01880159,KDUC,2024-05-05T00:55:00Z,34.4778,-97.9616,18.8,15.9,20,10,14,10+,29.95,,,TRUE,TRUE,,,,,,,BKN,3100,BKN,3800,BKN,10000,,,VFR,,,,,,,,,,,,METAR,339
KDUA 050055Z AUTO 00000KT 10SM OVC060 25/19 A2995 RMK AO2,KDUA,2024-05-05T00:55:00Z,33.9427,-96.3967,25,19,0,0,,10+,29.95,,,TRUE,TRUE,,,,,,,OVC,6000,,,,,,,VFR,,,,,,,,,,,,METAR,209
KDTL 050055Z AUTO 33009KT 10SM SCT060 13/04 A2998 RMK AO2,KDTL,2024-05-05T00:55:00Z,46.8286,-95.8857,13,4,330,9,,10+,29.98,,,TRUE,TRUE,,,,,,,SCT,6000,,,,,,,VFR,,,,,,,,,,,,METAR,425
KDTA 050055Z AUTO 21021G34KT 10SM CLR 21/M03 A2961 RMK AO1,KDTA,2024-05-05T00:55:00Z,39.3879,-112.504,21,-3,210,21,34,10+,29.61,,,TRUE,TRUE,,,,,,,CLR,,,,,,,,VFR,,,,,,,,,,,,METAR,1452
KDRP 050055Z AUTO 00000KT 10SM CLR 22/22 A2995 RMK AO2,KDRP,2024-05-05T00:55:00Z,35.1213,-90.8246,22,22,0,0,,10+,29.95,,,TRUE,TRUE,,,,,,,CLR,,,,,,,,VFR,,,,,,,,,,,,METAR,73
KDRM 050055Z AUTO 13007G15KT 10SM CLR 15/13 A2985 RMK AO2 T01520126,KDRM,2024-05-05T00:55:00Z,46.009,-83.743,15.2,12.6,130,7,15,10+,29.85,,,TRUE,TRUE,,,,,,,CLR,,,,,,,,VFR,,,,,,,,,,,,METAR,201
KDRI 050055Z AUTO 10003KT 10SM CLR 24/23 A2994 RMK AO2 T02410228 TSNO $,KDRI,2024-05-05T00:55:00Z,30.8344,-93.3359,24.1,22.8,100,3,,10+,29.94,,,TRUE,TRUE,TRUE,,TRUE,,,,CLR,,,,,,,,VFR,,,,,,,,,,,,METAR,59
KDQH 050055Z AUTO 25004KT 10SM OVC110 20/18 A3005 RMK AO2 T02020184,KDQH,2024-05-05T00:55:00Z,31.4739,-82.8609,20.2,18.4,250,4,,10+,30.05,,,TRUE,TRUE,,,,,,,OVC,11000,,,,,,,VFR,,,,,,,,,,,,METAR,76
KDOV 050055Z 10008KT 10SM BKN013 OVC029 12/09 A3024 RMK AO2A SLP244 T01190089,KDOV,2024-05-05T00:55:00Z,39.13,-75.465,11.9,8.9,100,8,,10+,30.24,1024.4,,,TRUE,,,,,,,BKN,1300,OVC,2900,,,,,MVFR,,,,,,,,,,,,METAR,6
KDNV 050055Z AUTO 21008KT 10SM CLR 25/14 A2985 RMK AO2 T02450143,KDNV,2024-05-05T00:55:00Z,40.2032,-87.5897,24.5,14.3,210,8,,10+,29.85,,,TRUE,TRUE,,,,,,,CLR,,,,,,,,VFR,,,,,,,,,,,,METAR,208
KDNS 050055Z AUTO 01005KT 10SM CLR 14/08 A3007 RMK AO2,KDNS,2024-05-05T00:55:00Z,41.9842,-95.38,14,8,10,5,,10+,30.07,,,TRUE,TRUE,,,,,,,CLR,,,,,,,,VFR,,,,,,,,,,,,METAR,382
KDNN 050055Z AUTO 00000KT 8SM -RA FEW080 OVC110 21/21 A2999 RMK AO2 LTG DSNT N AND S P0000 T02130213,KDNN,2024-05-05T00:55:00Z,34.727,-84.8733,21.3,21.3,0,0,,8,29.99,,,TRUE,TRUE,,,,,,-RA,FEW,8000,OVC,11000,,,,,VFR,,,,,,0.005,,,,,,METAR,216
KDNA 050055Z AUTO 25009G14KT 10SM CLR 29/M15 A2984 RMK AO2,KDNA,2024-05-05T00:55:00Z,31.875,-106.694,29,-15,250,9,14,10+,29.84,,,TRUE,TRUE,,,,,,,CLR,,,,,,,,VFR,,,,,,,,,,,,METAR,1254
KDMA 050055Z AUTO 21008KT 10SM CLR 30/M16 A2978 RMK AO2 SLPNO T03021164 $,KDMA,2024-05-05T00:55:00Z,32.165,-110.887,30.2,-16.4,210,8,,10+,29.78,,,TRUE,TRUE,TRUE,,,,,,CLR,,,,,,,,VFR,,,,,,,,,,,,METAR,804
KDLZ 050055Z AUTO 15008KT 10SM SCT044 SCT050 BKN100 19/16 A2992 RMK AO2,KDLZ,2024-05-05T00:55:00Z,40.281,-83.114,19,16,150,8,,10+,29.92,,,TRUE,TRUE,,,,,,,SCT,4400,SCT,5000,BKN,10000,,,VFR,,,,,,,,,,,,METAR,287
KDLO 050055Z AUTO 02003KT 10SM -RA SCT043 BKN050 OVC070 15/10 A2985 RMK AO2 P0001 T01460098,KDLO,2024-05-05T00:55:00Z,35.7449,-119.239,14.6,9.8,20,3,,10+,29.85,,,TRUE,TRUE,,,,,,-RA,SCT,4300,BKN,5000,OVC,7000,,,VFR,,,,,,0.01,,,,,,METAR,97
KDLL 050055Z AUTO 31009G14KT 10SM BKN027 OVC048 14/09 A2993 RMK AO2 T01390089,KDLL,2024-05-05T00:55:00Z,43.5236,-89.7736,13.9,8.9,310,9,14,10+,29.93,,,TRUE,TRUE,,,,,,,BKN,2700,OVC,4800,,,,,MVFR,,,,,,,,,,,,METAR,297
KDLH 050055Z 28005KT 10SM FEW065 FEW110 11/05 A2995 RMK AO2 SLP151 T01060050 $,KDLH,2024-05-05T00:55:00Z,46.8435,-92.1866,10.6,5,280,5,,10+,29.95,1015.1,,,TRUE,TRUE,,,,,,FEW,6500,FEW,11000,,,,,VFR,,,,,,,,,,,,METAR,434
KDLF 050055Z AUTO 12011KT 10SM BKN037 27/22 A2972 RMK AO2 SLP052 T02650221 $,KDLF,2024-05-05T00:55:00Z,29.3666,-100.785,26.5,22.1,120,11,,10+,29.72,1005.2,,TRUE,TRUE,TRUE,,,,,,BKN,3700,,,,,,,VFR,,,,,,,,,,,,METAR,328
KDKX 050055Z AUTO 00000KT 10SM FEW070 SCT080 BKN110 21/20 A2999 RMK A01,KDKX,2024-05-05T00:55:00Z,35.9658,-83.8717,21,20,0,0,,10+,29.99,,,TRUE,TRUE,,,,,,,FEW,7000,SCT,8000,BKN,11000,,,VFR,,,,,,,,,,,,METAR,253
KDKR 050055Z AUTO 00000KT 10SM BKN080 24/23 A2990 RMK AO2,KDKR,2024-05-05T00:55:00Z,31.3097,-95.4039,24,23,0,0,,10+,29.90,,,TRUE,TRUE,,,,,,,BKN,8000,,,,,,,VFR,,,,,,,,,,,,METAR,105
KDKB 050055Z AUTO 27008KT 10SM CLR 18/15 A2988 RMK AO2 T01800152,KDKB,2024-05-05T00:55:00Z,41.9338,-88.7066,18,15.2,270,8,,10+,29.88,,,TRUE,TRUE,,,,,,,CLR,,,,,,,,VFR,,,,,,,,,,,,METAR,277
KDEH 050055Z AUTO 33009KT 10SM CLR 11/08 A2998 RMK AO2,KDEH,2024-05-05T00:55:00Z,43.2755,-91.7433,11,8,330,9,,10+,29.98,,,TRUE,TRUE,,,,,,,CLR,,,,,,,,VFR,,,,,,,,,,,,METAR,348
KDED 050055Z AUTO 10006KT 10SM CLR 23/19 A3004 RMK AO2 T02340187,KDED,2024-05-05T00:55:00Z,29.075,-81.286,23.4,18.7,100,6,,10+,30.04,,,TRUE,TRUE,,,,,,,CLR,,,,,,,,VFR,,,,,,,,,,,,METAR,21
KDCY 050055Z AUTO 21005KT 10SM CLR 24/16 A2989 RMK AO2 T02360156,KDCY,2024-05-05T00:55:00Z,38.6953,-87.1314,23.6,15.6,210,5,,10+,29.89,,,TRUE,TRUE,,,,,,,CLR,,,,,,,,VFR,,,,,,,,,,,,METAR,143
KDCM 050055Z AUTO 11003KT 10SM SCT026 BKN031 BKN050 18/18 A3008 RMK AO2 LTG DSNT SW AND NW P0003,KDCM,2024-05-05T00:55:00Z,34.7908,-81.1987,18,18,110,3,,10+,30.08,,,TRUE,TRUE,,,,,,,SCT,2600,BKN,3100,BKN,5000,,,VFR,,,,,,0.03,,,,,,METAR,191
KDBN 050055Z AUTO 00000KT 10SM CLR 20/18 A3005 RMK AO2,KDBN,2024-05-05T00:55:00Z,32.5632,-82.9855,20,18,0,0,,10+,30.05,,,TRUE,TRUE,,,,,,,CLR,,,,,,,,VFR,,,,,,,,,,,,METAR,90
KDAA 050055Z AUTO 07003KT 4SM BR OVC007 12/11 A3020 RMK AO2 SLP230 T01220113 $,KDAA,2024-05-05T00:55:00Z,38.714,-77.178,12.2,11.3,70,3,,4,30.20,1023,,TRUE,TRUE,TRUE,,,,,BR,OVC,700,,,,,,,IFR,,,,,,,,,,,,METAR,17
KD95 050055Z AUTO 00000KT 10SM SCT032 BKN048 19/17 A2991 RMK AO2 T01870170,KD95,2024-05-05T00:55:00Z,43.0675,-83.2702,18.7,17,0,0,,10+,29.91,,,TRUE,TRUE,,,,,,,SCT,3200,BKN,4800,,,,,VFR,,,,,,,,,,,,METAR,253
KD73 050055Z AUTO 00000KT 10SM CLR 19/ A3004 RMK AO2 T0193////,KD73,2024-05-05T00:55:00Z,33.7826,-83.6948,19.3,,0,0,,10+,30.04,,,TRUE,TRUE,,,,,,,CLR,,,,,,,,VFR,,,,,,,,,,,,METAR,254
KD60 050055Z AUTO 12005KT 10SM BKN070 10/03 A2998 RMK AO2,KD60,2024-05-05T00:55:00Z,48.3834,-102.898,10,3,120,5,,10+,29.98,,,TRUE,TRUE,,,,,,,BKN,7000,,,,,,,VFR,,,,,,,,,,,,METAR,682
KD57 050055Z AUTO 05008KT 8SM FEW075 13/M01 A2995 RMK AO2,KD57,2024-05-05T00:55:00Z,46.814,-101.864,13,-1,50,8,,8,29.95,,,TRUE,TRUE,,,,,,,FEW,7500,,,,,,,VFR,,,,,,,,,,,,METAR,636
KD55 050055Z AUTO 33006KT 10SM SCT050 SCT055 10/05 A3000 RMK AO2,KD55,2024-05-05T00:55:00Z,48.7519,-98.3971,10,5,330,6,,10+,30.00,,,TRUE,TRUE,,,,,,,SCT,5000,SCT,5500,,,,,VFR,,,,,,,,,,,,METAR,488
KD50 050055Z AUTO 17006KT 10SM BKN070 OVC080 11/02 A2995 RMK AO2,KD50,2024-05-05T00:55:00Z,48.9248,-103.296,11,2,170,6,,10+,29.95,,,TRUE,TRUE,,,,,,,BKN,7000,OVC,8000,,,,,VFR,,,,,,,,,,,,METAR,591
KD39 050055Z AUTO 29005KT 10SM CLR 14/02 A2999 RMK AO2 T01380024,KD39,2024-05-05T00:55:00Z,45.7057,-94.9308,13.8,2.4,290,5,,10+,29.99,,,TRUE,TRUE,,,,,,,CLR,,,,,,,,VFR,,,,,,,,,,,,METAR,378
KD25 050055Z AUTO 31006KT 10SM OVC008 07/07 A2995 RMK AO2 T00660066,KD25,2024-05-05T00:55:00Z,46.1203,-89.88,6.6,6.6,310,6,,10+,29.95,,,TRUE,TRUE,,,,,,,OVC,800,,,,,,,IFR,,,,,,,,,,,,METAR,490
KD09 050055Z AUTO 31005KT 10SM OVC075 12/M00 A2997 RMK AO2,KD09,2024-05-05T00:55:00Z,48.83,-100.417,12,0,310,5,,10+,29.97,,,TRUE,TRUE,,,,,,,OVC,7500,,,,,,,VFR,,,,,,,,,,,,METAR,512
KCZT 050055Z AUTO 12006KT 10SM SCT039 OVC047 27/21 A2974 RMK AO2,KCZT,2024-05-05T00:55:00Z,28.5204,-99.8192,27,21,120,6,,10+,29.74,,,TRUE,TRUE,,,,,,,SCT,3900,OVC,4700,,,,,VFR,,,,,,,,,,,,METAR,176
KCZL 050055Z AUTO 05006KT 10SM VCTS BKN032 BKN040 OVC050 22/18 A3000 RMK AO2 LTG DSNT NE AND E,KCZL,2024-05-05T00:55:00Z,34.45,-84.936,22,18,50,6,,10+,30.00,,,TRUE,TRUE,,,,,,VCTS,BKN,3200,BKN,4000,OVC,5000,,,VFR,,,,,,,,,,,,METAR,197
KCXU 050055Z AUTO 21008KT 10SM SCT004 BKN008 OVC022 22/21 A3003 RMK AO1 T02160205,KCXU,2024-05-05T00:55:00Z,31.2141,-84.2358,21.6,20.5,210,8,,10+,30.03,,,TRUE,TRUE,,,,,,,SCT,400,BKN,800,OVC,2200,,,IFR,,,,,,,,,,,,METAR,48
KCXP 050055Z AUTO 19012KT 6SM UP BR CLR 02/M00 A2969 RMK AO2,KCXP,2024-05-05T00:55:00Z,39.1905,-119.732,2,0,190,12,,6,29.69,,,TRUE,TRUE,,,,,,BR UP,CLR,,,,,,,,VFR,,,,,,,,,,,,METAR,1431
KCXE 050055Z AUTO 00000KT 10SM BKN004 OVC015 15/15 A3014 RMK AO1 P0013 T01500150,KCXE,2024-05-05T00:55:00Z,36.7923,-78.5027,15,15,0,0,,10+,30.14,,,TRUE,TRUE,,,,,,,BKN,400,OVC,1500,,,,,LIFR,,,,,,0.13,,,,,,METAR,154
KCWV 050055Z AUTO 00000KT 10SM SCT050 SCT060 SCT120 24/20 A3004 RMK AO2 T02410203,KCWV,2024-05-05T00:55:00Z,32.193,-81.873,24.1,20.3,0,0,,10+,30.04,,,TRUE,TRUE,,,,,,,SCT,5000,SCT,6000,SCT,12000,,,VFR,,,,,,,,,,,,METAR,32
KCWN 050055Z AUTO 15016G21KT 10SM OVC120 11/M02 A3000 RMK AO2 SLPNO T01061021 $,KCWN,2024-05-05T00:55:00Z,38.748,-104.847,10.6,-2.1,150,16,21,10+,30.00,,,TRUE,TRUE,TRUE,,,,,,OVC,12000,,,,,,,VFR,,,,,,,,,,,,METAR,2040
KCWC 050055Z AUTO 01009KT 10SM -VCTSDZ SCT018 BKN025 BKN035 20/19 A2992 RMK AO2 LTG DSNT ALQDS P0001 T02020186,KCWC,2024-05-05T00:55:00Z,33.8629,-98.4914,20.2,18.6,10,9,,10+,29.92,,,TRUE,TRUE,,,,,,VCTS -DZ,SCT,1800,BKN,2500,BKN,3500,,,MVFR,,,,,,0.01,,,,,,METAR,304
KCVX 050055Z AUTO 00000KT 10SM SCT085 11/08 A2982 RMK AO2 T01140079,KCVX,2024-05-05T00:55:00Z,45.304,-85.2689,11.4,7.9,0,0,,10+,29.82,,,TRUE,TRUE,,,,,,,SCT,8500,,,,,,,VFR,,,,,,,,,,,,METAR,196
KCVS 050055Z AUTO 08010KT 10SM OVC021 16/10 A2998 RMK AO2 SLPNO T01550096 FZRANO $,KCVS,2024-05-05T00:55:00Z,34.381,-103.322,15.5,9.6,80,10,,10+,29.98,,,TRUE,TRUE,TRUE,,,TRUE,,,OVC,2100,,,,,,,MVFR,,,,,,,,,,,,METAR,1305
KCVC 050055Z AUTO 00000KT 10SM CLR 21/17 A3002 RMK AO2,KCVC,2024-05-05T00:55:00Z,33.6312,-83.8482,21,17,0,0,,10+,30.02,,,TRUE,TRUE,,,,,,,CLR,,,,,,,,VFR,,,,,,,,,,,,METAR,240
KCVB 050055Z AUTO 12010G15KT 7SM SCT040 BKN055 OVC080 28/18 A2981 RMK AO2 T02800181,KCVB,2024-05-05T00:55:00Z,29.343,-98.8497,28,18.1,120,10,15,7,29.81,,,TRUE,TRUE,,,,,,,SCT,4000,BKN,5500,OVC,8000,,,VFR,,,,,,,,,,,,METAR,234
KCUL 050055Z AUTO 23004KT 10SM CLR 25/17 A2989 RMK AO2 LTG DSNT W AND NW T02480171,KCUL,2024-05-05T00:55:00Z,38.0887,-88.1212,24.8,17.1,230,4,,10+,29.89,,,TRUE,TRUE,,,,,,,CLR,,,,,,,,VFR,,,,,,,,,,,,METAR,116
KCUH 050055Z AUTO 36004KT 10SM OVC038 19/13 A2998 RMK AO2 T01910127,KCUH,2024-05-05T00:55:00Z,35.949,-96.768,19.1,12.7,360,4,,10+,29.98,,,TRUE,TRUE,,,,,,,OVC,3800,,,,,,,VFR,,,,,,,,,,,,METAR,274
KCTY 050055Z AUTO 35003KT 10SM CLR 23/21 A3003 RMK AO2,KCTY,2024-05-05T00:55:00Z,29.6334,-83.1055,23,21,350,3,,10+,30.03,,,TRUE,TRUE,,,,,,,CLR,,,,,,,,VFR,,,,,,,,,,,,METAR,12
KCTJ 050055Z AUTO 00000KT 10SM CLR 21/20 A3005 RMK AO2 T02070195,KCTJ,2024-05-05T00:55:00Z,33.6313,-85.1538,20.7,19.5,0,0,,10+,30.05,,,TRUE,TRUE,,,,,,,CLR,,,,,,,,VFR,,,,,,,,,,,,METAR,351
KCSQ 050055Z AUTO 01005KT 10SM CLR 12/08 A3005 RMK AO2,KCSQ,2024-05-05T00:55:00Z,41.0188,-94.361,12,8,10,5,,10+,30.05,,,TRUE,TRUE,,,,,,,CLR,,,,,,,,VFR,,,,,,,,,,,,METAR,394
KCSB 050055Z AUTO 10008KT 10SM CLR 16/04 A3004 RMK AO2,KCSB,2024-05-05T00:55:00Z,40.307,-100.162,16,4,100,8,,10+,30.04,,,TRUE,TRUE,,,,,,,CLR,,,,,,,,VFR,,,,,,,,,,,,METAR,736
KCQW 050055Z AUTO 00000KT 10SM FEW070 OVC110 20/20 A3007 RMK AO2,KCQW,2024-05-05T00:55:00Z,34.7128,-79.9622,20,20,0,0,,10+,30.07,,,TRUE,TRUE,,,,,,,FEW,7000,OVC,11000,,,,,VFR,,,,,,,,,,,,METAR,67
KCQM 050055Z AUTO 00000KT 10SM SCT055 SCT070 09/06 A2995 RMK AO2,KCQM,2024-05-05T00:55:00Z,47.8199,-92.6817,9,6,0,0,,10+,29.95,,,TRUE,TRUE,,,,,,,SCT,5500,SCT,7000,,,,,VFR,,,,,,,,,,,,METAR,406
KCQF 050055Z AUTO 00000KT 10SM SCT016 23/21 A2999 RMK AO2,KCQF,2024-05-05T00:55:00Z,30.4618,-87.8749,23,21,0,0,,10+,29.99,,,TRUE,TRUE,,,,,,,SCT,1600,,,,,,,VFR,,,,,,,,,,,,METAR,21
KCPW 050055Z AUTO 23011G19KT 10SM CLR 00/M03 A3026 RMK AO2 LTG DSNT NE,KCPW,2024-05-05T00:55:00Z,37.464,-106.804,0,-3,230,11,19,10+,30.26,,,TRUE,TRUE,,,,,,,CLR,,,,,,,,VFR,,,,,,,,,,,,METAR,3570
KCPU 050055Z AUTO 09008KT 10SM OVC019 05/04 A2985 RMK AO2 T00500036,KCPU,2024-05-05T00:55:00Z,38.1445,-120.645,5,3.6,90,8,,10+,29.85,,,TRUE,TRUE,,,,,,,OVC,1900,,,,,,,MVFR,,,,,,,,,,,,METAR,400
KCPT 050055Z AUTO 06004KT 9SM BKN060 BKN070 22/22 A2987 RMK A01 LTG DSNT SW AND W,KCPT,2024-05-05T00:55:00Z,32.3526,-97.435,22,22,60,4,,9,29.87,,,TRUE,TRUE,,,,,,,BKN,6000,BKN,7000,,,,,VFR,,,,,,,,,,,,METAR,260
KCPP 050055Z AUTO 00000KT FEW055 SCT080 OVC090 23/19 A3002 RMK AO2 PWINO,KCPP,2024-05-05T00:55:00Z,33.5991,-83.1401,23,19,0,0,,,30.02,,,TRUE,TRUE,,,,,TRUE,,FEW,5500,SCT,8000,OVC,9000,,,,,,,,,,,,,,,METAR,207
KCPF 050055Z AUTO 18004KT 10SM CLR 21/16 A2998 RMK AO2,KCPF,2024-05-05T00:55:00Z,37.3869,-83.2593,21,16,180,4,,10+,29.98,,,TRUE,TRUE,,,,,,,CLR,,,,,,,,VFR,,,,,,,,,,,,METAR,382
KCOQ 050055Z AUTO 00000KT 10SM CLR 12/04 A2995 RMK AO2 TSNO,KCOQ,2024-05-05T00:55:00Z,46.6986,-92.5034,12,4,0,0,,10+,29.95,,,TRUE,TRUE,,,TRUE,,,,CLR,,,,,,,,VFR,,,,,,,,,,,,METAR,390
KCOM 050055Z AUTO 04010KT 7SM -TSRA SCT007 BKN021 OVC031 19/18 A2989 RMK AO2 LTG DSNT ALQS P0001 T01870175,KCOM,2024-05-05T00:55:00Z,31.8415,-99.4058,18.7,17.5,40,10,,7,29.89,,,TRUE,TRUE,,,,,,-TSRA,SCT,700,BKN,2100,OVC,3100,,,MVFR,,,,,,0.01,,,,,,METAR,516
KCOF 050055Z AUTO 12012KT 10SM CLR 25/21 A3000 RMK AO2 SLP163 T02530209 $,KCOF,2024-05-05T00:55:00Z,28.242,-80.608,25.3,20.9,120,12,,10+,30.00,1016.3,,TRUE,TRUE,TRUE,,,,,,CLR,,,,,,,,VFR,,,,,,,,,,,,METAR,1
KCNW 050055Z 08005KT 7SM BKN045 OVC055 23/20 A2985,KCNW,2024-05-05T00:55:00Z,31.637,-97.071,23,20,80,5,,7,29.85,,,,,,,,,,,BKN,4500,OVC,5500,,,,,VFR,,,,,,,,,,,,METAR,139
KCNK 050055Z AUTO 07005KT 10SM CLR 16/07 A3006 RMK AO2 SLP176 T01610072 $,KCNK,2024-05-05T00:55:00Z,39.5513,-97.6508,16.1,7.2,70,5,,10+,30.06,1017.6,,TRUE,TRUE,TRUE,,,,,,CLR,,,,,,,,VFR,,,,,,,,,,,,METAR,445
KCNC 050055Z AUTO 33007KT 10SM FEW025 BKN035 OVC041 13/09 A3003 RMK AO2,KCNC,2024-05-05T00:55:00Z,41.0185,-93.3608,13,9,330,7,,10+,30.03,,,TRUE,TRUE,,,,,,,FEW,2500,BKN,3500,OVC,4100,,,VFR,,,,,,,,,,,,METAR,319
KCNB 050055Z AUTO 30003KT 10SM CLR 16/01 A3004 RMK AO2 T01560012,KCNB,2024-05-05T00:55:00Z,44.7297,-96.2623,15.6,1.2,300,3,,10+,30.04,,,TRUE,TRUE,,,,,,,CLR,,,,,,,,VFR,,,,,,,,,,,,METAR,363
KCMY 050055Z AUTO 32008G16KT 9SM SCT024 SCT035 12/08 A2994 RMK AO2 SLP144 T01230084 $,KCMY,2024-05-05T00:55:00Z,43.9581,-90.7398,12.3,8.4,320,8,16,9,29.94,1014.4,,TRUE,TRUE,TRUE,,,,,,SCT,2400,SCT,3500,,,,,VFR,,,,,,,,,,,,METAR,253
KCMR 050055Z AUTO 21015G23KT 10SM CLR 16/M03 A2995 RMK AO2,KCMR,2024-05-05T00:55:00Z,35.3016,-112.197,16,-3,210,15,23,10+,29.95,,,TRUE,TRUE,,,,,,,CLR,,,,,,,,VFR,,,,,,,,,,,,METAR,2039
KCMD 050055Z AUTO 00000KT 9SM FEW055 FEW110 21/21 A2999 RMK AO2 P0003,KCMD,2024-05-05T00:55:00Z,34.2722,-86.8583,21,21,0,0,,9,29.99,,,TRUE,TRUE,,,,,,,FEW,5500,FEW,11000,,,,,VFR,,,,,,0.03,,,,,,METAR,294
KCLW 050055Z AUTO 00000KT 10SM CLR 25/20 A3001 RMK AO2,KCLW,2024-05-05T00:55:00Z,27.9741,-82.7563,25,20,0,0,,10+,30.01,,,TRUE,TRUE,,,,,,,CLR,,,,,,,,VFR,,,,,,,,,,,,METAR,21
KCLS 050055Z AUTO VRB05KT 6SM -DZ BKN020 BKN028 10/10 A2960 RMK AO2,KCLS,2024-05-05T00:55:00Z,46.6774,-122.986,10,10,VRB,5,,6,29.60,,,TRUE,TRUE,,,,,,-DZ,BKN,2000,BKN,2800,,,,,MVFR,,,,,,,,,,,,METAR,52
KCLK 050055Z AUTO 06007KT 10SM OVC030 16/11 A3000 RMK AO2,KCLK,2024-05-05T00:55:00Z,35.5381,-98.9336,16,11,60,7,,10+,30.00,,,TRUE,TRUE,,,,,,,OVC,3000,,,,,,,MVFR,,,,,,,,,,,,METAR,489
KCLI 050055Z AUTO 33008KT 10SM BKN022 12/09 A2991 RMK AO2 T01240089,KCLI,2024-05-05T00:55:00Z,44.6152,-88.7313,12.4,8.9,330,8,,10+,29.91,,,TRUE,TRUE,,,,,,,BKN,2200,,,,,,,MVFR,,,,,,,,,,,,METAR,248
KCKZ 050055Z AUTO 00000KT 4SM BR BKN006 OVC009 09/09 A3029 RMK AO2,KCKZ,2024-05-05T00:55:00Z,40.3864,-75.2953,9,9,0,0,,4,30.29,,,TRUE,TRUE,,,,,,BR,BKN,600,OVC,900,,,,,IFR,,,,,,,,,,,,METAR,160
KCKN 050055Z AUTO 36007KT 10SM SCT055 12/04 A3000 RMK AO2,KCKN,2024-05-05T00:55:00Z,47.8404,-96.6201,12,4,360,7,,10+,30.00,,,TRUE,TRUE,,,,,,,SCT,5500,,,,,,,VFR,,,,,,,,,,,,METAR,272
KCKM 050055Z AUTO 19005KT 10SM 23/ A2994 RMK A01,KCKM,2024-05-05T00:55:00Z,34.2945,-90.5146,23,,190,5,,10+,29.94,,,TRUE,TRUE,,,,,,,,,,,,,,,VFR,,,,,,,,,,,,METAR,52
KCKI 050055Z AUTO 11005KT 10SM SCT022 SCT044 BKN110 21/20 A3007 RMK AO2,KCKI,2024-05-05T00:55:00Z,33.7187,-79.8567,21,20,110,5,,10+,30.07,,,TRUE,TRUE,,,,,,,SCT,2200,SCT,4400,BKN,11000,,,VFR,,,,,,,,,,,,METAR,19
KCKF 050055Z AUTO 20003KT 10SM CLR 22/19 A3005 RMK AO2 T02180193,KCKF,2024-05-05T00:55:00Z,31.9889,-83.7739,21.8,19.3,200,3,,10+,30.05,,,TRUE,TRUE,,,,,,,CLR,,,,,,,,VFR,,,,,,,,,,,,METAR,92
KCKC 050055Z AUTO 00000KT 10SM CLR 06/04 A2991 RMK AO2,KCKC,2024-05-05T00:55:00Z,47.8366,-90.3864,6,4,0,0,,10+,29.91,,,TRUE,TRUE,,,,,,,CLR,,,,,,,,VFR,,,,,,,,,,,,METAR,544
KCJR 050055Z AUTO 00000KT 2 1/2SM BR BKN005 OVC014 13/12 A3021 RMK AO2 T01270120,KCJR,2024-05-05T00:55:00Z,38.5261,-77.8574,12.7,12,0,0,,2.5,30.21,,,TRUE,TRUE,,,,,,BR,BKN,500,OVC,1400,,,,,IFR,,,,,,,,,,,,METAR,90
KCIR 050055Z AUTO 00000KT 10SM CLR 26/18 A2993 RMK AO2 T02600184,KCIR,2024-05-05T00:55:00Z,37.0639,-89.2232,26,18.4,0,0,,10+,29.93,,,TRUE,TRUE,,,,,,,CLR,,,,,,,,VFR,,,,,,,,,,,,METAR,96
KCIN 050055Z AUTO 35004KT 10SM CLR 14/09 A3004 RMK AO2,KCIN,2024-05-05T00:55:00Z,42.0444,-94.7888,14,9,350,4,,10+,30.04,,,TRUE,TRUE,,,,,,,CLR,,,,,,,,VFR,,,,,,,,,,,,METAR,365
KCII 050055Z AUTO 10012KT 10SM 15/M03 A2971 RMK A01 ,KCII,2024-05-05T00:55:00Z,47.8262,-112.17,15,-3,100,12,,10+,29.71,,,TRUE,TRUE,,,,,,,,,,,,,,,VFR,,,,,,,,,,,,METAR,1202
KCIC 050055Z 12012KT 10SM -RA FEW042 BKN048 07/05 A2973,KCIC,2024-05-05T00:55:00Z,39.7988,-121.858,7,5,120,12,,10+,29.73,,,,,,,,,,-RA,FEW,4200,BKN,4800,,,,,VFR,,,,,,,,,,,,METAR,72
KCHK 050055Z AUTO 03010KT 10SM OVC026 18/14 A2994 RMK AO2 T01760143,KCHK,2024-05-05T00:55:00Z,35.0927,-97.9709,17.6,14.3,30,10,,10+,29.94,,,TRUE,TRUE,,,,,,,OVC,2600,,,,,,,MVFR,,,,,,,,,,,,METAR,346
KCGC 050055Z AUTO 00000KT 10SM CLR 23/20 A3002 RMK AO2,KCGC,2024-05-05T00:55:00Z,28.866,-82.5741,23,20,0,0,,10+,30.02,,,TRUE,TRUE,,,,,,,CLR,,,,,,,,VFR,,,,,,,,,,,,METAR,3
KCFS 050055Z AUTO 00000KT 5SM BR SCT024 BKN041 OVC050 18/17 A2989 RMK AO2 T01750173,KCFS,2024-05-05T00:55:00Z,43.4624,-83.4428,17.5,17.3,0,0,,5,29.89,,,TRUE,TRUE,,,,,,BR,SCT,2400,BKN,4100,OVC,5000,,,MVFR,,,,,,,,,,,,METAR,214
KCFJ 050055Z AUTO 23004KT 10SM CLR 21/11 A2988 RMK AO2 LTG DSNT W T02090106,KCFJ,2024-05-05T00:55:00Z,39.9767,-86.9148,20.9,10.6,230,4,,10+,29.88,,,TRUE,TRUE,,,,,,,CLR,,,,,,,,VFR,,,,,,,,,,,,METAR,243
KCFE 050055Z AUTO 29008KT 10SM CLR 15/03 A2999 RMK AO2,KCFE,2024-05-05T00:55:00Z,45.1601,-93.846,15,3,290,8,,10+,29.99,,,TRUE,TRUE,,,,,,,CLR,,,,,,,,VFR,,,,,,,,,,,,METAR,292
KCFD 050055Z AUTO 13008KT 10SM SCT100 25/21 A2988 RMK AO2 T02470214,KCFD,2024-05-05T00:55:00Z,30.7171,-96.3347,24.7,21.4,130,8,,10+,29.88,,,TRUE,TRUE,,,,,,,SCT,10000,,,,,,,VFR,,,,,,,,,,,,METAR,106
KCEY 050055Z AUTO 24005KT 10SM CLR 24/20 A2994 RMK A01,KCEY,2024-05-05T00:55:00Z,36.664,-88.372,24,20,240,5,,10+,29.94,,,TRUE,TRUE,,,,,,,CLR,,,,,,,,VFR,,,,,,,,,,,,METAR,172
KCEF 050055Z AUTO 11004KT 10SM OVC043 13/06 A3030 RMK AO2 SLP267 T01320056,KCEF,2024-05-05T00:55:00Z,42.201,-72.525,13.2,5.6,110,4,,10+,30.30,1026.7,,TRUE,TRUE,,,,,,,OVC,4300,,,,,,,VFR,,,,,,,,,,,,METAR,72
KCDN 050055Z AUTO 00000KT 9SM BKN044 BKN050 BKN110 20/20 A3007 RMK AO2,KCDN,2024-05-05T00:55:00Z,34.2815,-80.5636,20,20,0,0,,9,30.07,,,TRUE,TRUE,,,,,,,BKN,4400,BKN,5000,BKN,11000,,,VFR,,,,,,,,,,,,METAR,90
KCDI 050055Z AUTO 00000KT 10SM BKN014 BKN027 OVC032 20/19 A2996 RMK AO2 T01970188,KCDI,2024-05-05T00:55:00Z,39.976,-81.577,19.7,18.8,0,0,,10+,29.96,,,TRUE,TRUE,,,,,,,BKN,1400,BKN,2700,OVC,3200,,,MVFR,,,,,,,,,,,,METAR,241
KCDH 050055Z AUTO 09008KT 10SM CLR 25/22 A2994 RMK AO2,KCDH,2024-05-05T00:55:00Z,33.619,-92.765,25,22,90,8,,10+,29.94,,,TRUE,TRUE,,,,,,,CLR,,,,,,,,VFR,,,,,,,,,,,,METAR,38
KCDA 050055Z AUTO 13009KT 10SM SCT075 12/06 A3030 RMK AO2 T01220062,KCDA,2024-05-05T00:55:00Z,44.5677,-72.0191,12.2,6.2,130,9,,10+,30.30,,,TRUE,TRUE,,,,,,,SCT,7500,,,,,,,VFR,,,,,,,,,,,,METAR,357
KCCY 050055Z AUTO 33007KT 10SM CLR 12/11 A3000 RMK AO2,KCCY,2024-05-05T00:55:00Z,43.073,-92.6132,12,11,330,7,,10+,30.00,,,TRUE,TRUE,,,,,,,CLR,,,,,,,,VFR,,,,,,,,,,,,METAR,340
KCCU 050055Z AUTO 16015KT 10SM SCT120 05/M04 A3019 RMK AO2,KCCU,2024-05-05T00:55:00Z,39.475,-106.152,5,-4,160,15,,10+,30.19,,,TRUE,TRUE,,,,,,,SCT,12000,,,,,,,VFR,,,,,,,,,,,,METAR,3672
KCCO 050055Z AUTO 14003KT 10SM SCT065 22/20 A3004 RMK AO2 T02150201,KCCO,2024-05-05T00:55:00Z,33.3107,-84.7713,21.5,20.1,140,3,,10+,30.04,,,TRUE,TRUE,,,,,,,SCT,6500,,,,,,,VFR,,,,,,,,,,,,METAR,290
KCCB 050055Z AUTO 25014KT 10SM BKN019 OVC027 15/11 A2989 RMK AO2,KCCB,2024-05-05T00:55:00Z,34.1118,-117.685,15,11,250,14,,10+,29.89,,,TRUE,TRUE,,,,,,,BKN,1900,OVC,2700,,,,,MVFR,,,,,,,,,,,,METAR,440
KCCA 050055Z AUTO 00000KT 10SM CLR 23/22 A2997 RMK AO2,KCCA,2024-05-05T00:55:00Z,35.5946,-92.4455,23,22,0,0,,10+,29.97,,,TRUE,TRUE,,,,,,,CLR,,,,,,,,VFR,,,,,,,,,,,,METAR,152
KCBM 050055Z AUTO 00000KT 10SM CLR 23/21 A2992 RMK AO2 SLP133 T02340209 $,KCBM,2024-05-05T00:55:00Z,33.6519,-88.4567,23.4,20.9,0,0,,10+,29.92,1013.3,,TRUE,TRUE,TRUE,,,,,,CLR,,,,,,,,VFR,,,,,,,,,,,,METAR,59
KCBK 050055Z AUTO 12011KT 10SM CLR 14/03 A3006 RMK AO2 T01410031,KCBK,2024-05-05T00:55:00Z,39.4301,-101.051,14.1,3.1,120,11,,10+,30.06,,,TRUE,TRUE,,,,,,,CLR,,,,,,,,VFR,,,,,,,,,,,,METAR,970
KCBG 050055Z AUTO 00000KT 10SM SCT070 14/07 A2997 RMK AO2,KCBG,2024-05-05T00:55:00Z,45.557,-93.264,14,7,0,0,,10+,29.97,,,TRUE,TRUE,,,,,,,SCT,7000,,,,,,,VFR,,,,,,,,,,,,METAR,285
KCBF 050055Z AUTO 00000KT 10SM BKN055 14/07 A3005 RMK AO2,KCBF,2024-05-05T00:55:00Z,41.2611,-95.7604,14,7,0,0,,10+,30.05,,,TRUE,TRUE,,,,,,,BKN,5500,,,,,,,VFR,,,,,,,,,,,,METAR,379
KCAV 050055Z AUTO 34005KT 10SM CLR 13/11 A3003 RMK A01,KCAV,2024-05-05T00:55:00Z,42.743,-93.7592,13,11,340,5,,10+,30.03,,,TRUE,TRUE,,,,,,,CLR,,,,,,,,VFR,,,,,,,,,,,,METAR,352
KCAO 050055Z AUTO 12010KT 10SM CLR 13/05 A3004 RMK AO2 SLP146 T01280050,KCAO,2024-05-05T00:55:00Z,36.4483,-103.154,12.8,5,120,10,,10+,30.04,1014.6,,TRUE,TRUE,,,,,,,CLR,,,,,,,,VFR,,,,,,,,,,,,METAR,1517
KCAD 050055Z AUTO 15009KT 10SM FEW038 SCT046 20/14 A2985 RMK AO2,KCAD,2024-05-05T00:55:00Z,44.2785,-85.4207,20,14,150,9,,10+,29.85,,,TRUE,TRUE,,,,,,,FEW,3800,SCT,4600,,,,,VFR,,,,,,,,,,,,METAR,397
KC99 050055Z AUTO 16003KT 10SM BKN070 BKN080 01/M02 A3014 RMK AO2,KC99,2024-05-05T00:55:00Z,39.869,-105.553,1,-2,160,3,,10+,30.14,,,TRUE,TRUE,,,,,,,BKN,7000,BKN,8000,,,,,VFR,,,,,,,,,,,,METAR,3334
KC83 050055Z AUTO 25018G23KT 10SM FEW034 FEW043 SCT049 14/06 A2983 RMK AO2,KC83,2024-05-05T00:55:00Z,37.8276,-121.624,14,6,250,18,23,10+,29.83,,,TRUE,TRUE,,,,,,,FEW,3400,FEW,4300,SCT,4900,,,VFR,,,,,,,,,,,,METAR,16
KC75 050055Z AUTO 31011G18KT 10SM BKN030 OVC035 19/14 A2990 RMK AO2 T01910138,KC75,2024-05-05T00:55:00Z,41.0231,-89.3886,19.1,13.8,310,11,18,10+,29.90,,,TRUE,TRUE,,,,,,,BKN,3000,OVC,3500,,,,,MVFR,,,,,,,,,,,,METAR,166
KC65 050055Z AUTO 12003KT 10SM SCT060 21/16 A2985 RMK A01,KC65,2024-05-05T00:55:00Z,41.3636,-86.2998,21,16,120,3,,10+,29.85,,,TRUE,TRUE,,,,,,,SCT,6000,,,,,,,VFR,,,,,,,,,,,,METAR,241
KC35 050055Z AUTO 31010G16KT 10SM OVC027 13/08 A2994 RMK AO2 T01300077 PWINO,KC35,2024-05-05T00:55:00Z,43.5261,-89.9809,13,7.7,310,10,16,10+,29.94,,,TRUE,TRUE,,,,,TRUE,,OVC,2700,,,,,,,MVFR,,,,,,,,,,,,METAR,272
KC29 050055Z AUTO 33013KT 10SM SCT035 OVC042 14/12 A2993 RMK AO1 T01410121,KC29,2024-05-05T00:55:00Z,43.1153,-89.5312,14.1,12.1,330,13,,10+,29.93,,,TRUE,TRUE,,,,,,,SCT,3500,OVC,4200,,,,,VFR,,,,,,,,,,,,METAR,282
KC09 050055Z AUTO 30009KT 10SM SCT046 BKN050 BKN065 19/18 A2985 RMK AO2 T01910175,KC09,2024-05-05T00:55:00Z,41.4317,-88.4152,19.1,17.5,300,9,,10+,29.85,,,TRUE,TRUE,,,,,,,SCT,4600,BKN,5000,BKN,6500,,,VFR,,,,,,,,,,,,METAR,179
KC08 050055Z AUTO 15016G22KT 10SM VCTS FEW055 FEW065 SCT085 06/02 A3010 RMK AO2 LTG DSNT SW,KC08,2024-05-05T00:55:00Z,38.0138,-105.373,6,2,150,16,22,10+,30.10,,,TRUE,TRUE,,,,,,VCTS,FEW,5500,FEW,6500,SCT,8500,,,VFR,,,,,,,,,,,,METAR,2527
KC07 050055Z AUTO 00000KT 10SM CLR 07/M07 A3008 RMK AO2,KC07,2024-05-05T00:55:00Z,40.3544,-106.699,7,-7,0,0,,10+,30.08,,,TRUE,TRUE,,,,,,,CLR,,,,,,,,VFR,,,,,,,,,,,,METAR,3224
KBYY 050055Z AUTO 12008KT 10SM SCT015 BKN019 BKN025 25/22 A2987 RMK AO2 T02550227,KBYY,2024-05-05T00:55:00Z,28.9717,-95.8584,25.5,22.7,120,8,,10+,29.87,,,TRUE,TRUE,,,,,,,SCT,1500,BKN,1900,BKN,2500,,,MVFR,,,,,,,,,,,,METAR,12
KBYS 050055Z AUTO 19026KT 7SM FEW001 FEW150 20/06 M RMK AO2 PK WND 19035/04 SLPNO T02030059 $,KBYS,2024-05-05T00:55:00Z,35.271,-116.634,20.3,5.9,190,26,,7,0.00,,,TRUE,TRUE,TRUE,,,,,,FEW,100,FEW,15000,,,,,VFR,,,,,,,,,,,,METAR,717
KBYL 050055Z AUTO 16004KT 10SM CLR 17/17 A2999 RMK AO1,KBYL,2024-05-05T00:55:00Z,36.7954,-84.2013,17,17,160,4,,10+,29.99,,,TRUE,TRUE,,,,,,,CLR,,,,,,,,VFR,,,,,,,,,,,,METAR,355
KBXA 050055Z AUTO 19004KT 10SM CLR 26/21 A2997 RMK AO2 T02630213,KBXA,2024-05-05T00:55:00Z,30.8104,-89.8627,26.3,21.3,190,4,,10+,29.97,,,TRUE,TRUE,,,,,,,CLR,,,,,,,,VFR,,,,,,,,,,,,METAR,35
KBWW 050055Z AUTO 00000KT 10SM CLR 14/M06 A2993 RMK AO2,KBWW,2024-05-05T00:55:00Z,46.1656,-103.296,14,-6,0,0,,10+,29.93,,,TRUE,TRUE,,,,,,,CLR,,,,,,,,VFR,,,,,,,,,,,,METAR,911
KBWP 050055Z AUTO 31009KT 10SM FEW065 14/03 A2999 RMK AO2,KBWP,2024-05-05T00:55:00Z,46.2444,-96.6046,14,3,310,9,,10+,29.99,,,TRUE,TRUE,,,,,,,FEW,6500,,,,,,,VFR,,,,,,,,,,,,METAR,294
KBWD 050055Z AUTO 00000KT 1SM BKN011 OVC018 21/21 A2988 RMK AO1 P0001,KBWD,2024-05-05T00:55:00Z,31.7898,-98.9522,21,21,0,0,,1,29.88,,,TRUE,TRUE,,,,,,,BKN,1100,OVC,1800,,,,,IFR,,,,,,0.01,,,,,,METAR,420
KBVU 050055Z AUTO 19022G29KT 10SM CLR 28/M05 A2959 RMK AO2,KBVU,2024-05-05T00:55:00Z,35.9489,-114.863,28,-5,190,22,29,10+,29.59,,,TRUE,TRUE,,,,,,,CLR,,,,,,,,VFR,,,,,,,,,,,,METAR,654
KBVS 050055Z AUTO 00000KT 10SM CLR 13/13 A2957 RMK A01,KBVS,2024-05-05T00:55:00Z,48.4696,-122.419,13,13,0,0,,10+,29.57,,,TRUE,TRUE,,,,,,,CLR,,,,,,,,VFR,,,,,,,,,,,,METAR,31
KBVN 050055Z AUTO 00000KT 10SM SCT060 14/03 A3008 RMK AO2 T01370034,KBVN,2024-05-05T00:55:00Z,41.7301,-98.0546,13.7,3.4,0,0,,10+,30.08,,,TRUE,TRUE,,,,,,,SCT,6000,,,,,,,VFR,,,,,,,,,,,,METAR,547
KBVI 050055Z AUTO 14007KT 10SM OVC005 15/13 A3002 RMK AO2 T01470130,KBVI,2024-05-05T00:55:00Z,40.7735,-80.3825,14.7,13,140,7,,10+,30.02,,,TRUE,TRUE,,,,,,,OVC,500,,,,,,,IFR,,,,,,,,,,,,METAR,387
KBUU 050055Z AUTO 00000KT 10SM BKN049 OVC055 17/17 A2984 RMK AO2 T01730167 PWINO,KBUU,2024-05-05T00:55:00Z,42.6908,-88.308,17.3,16.7,0,0,,10+,29.84,,,TRUE,TRUE,,,,,TRUE,,BKN,4900,OVC,5500,,,,,VFR,,,,,,,,,,,,METAR,238
KBTN 050055Z AUTO 34006KT 10SM CLR 15/M03 A2999 RMK AO2,KBTN,2024-05-05T00:55:00Z,45.8186,-97.7457,15,-3,340,6,,10+,29.99,,,TRUE,TRUE,,,,,,,CLR,,,,,,,,VFR,,,,,,,,,,,,METAR,400
KBTA 050055Z AUTO 00000KT 10SM CLR 15/05 A3007 RMK AO2 T01460049,KBTA,2024-05-05T00:55:00Z,41.415,-96.109,14.6,4.9,0,0,,10+,30.07,,,TRUE,TRUE,,,,,,,CLR,,,,,,,,VFR,,,,,,,,,,,,METAR,400
KBRY 050055Z AUTO 00000KT 9SM CLR 20/20 A2992 RMK AO2 T02000195 $,KBRY,2024-05-05T00:55:00Z,37.8079,-85.5011,20,19.5,0,0,,9,29.92,,,TRUE,TRUE,TRUE,,,,,,CLR,,,,,,,,VFR,,,,,,,,,,,,METAR,192
KBRG 050055Z AUTO 16010KT 25/M02 A2990 RMK AO2 T02451023 PWINO,KBRG,2024-05-05T00:55:00Z,34.6477,-106.833,24.5,-2.3,160,10,,,29.90,,,TRUE,TRUE,,,,,TRUE,,,,,,,,,,,,,,,,,,,,,,METAR,1585
KBQP 050055Z AUTO 00000KT 10SM CLR 24/21 A2996 RMK AO2 T02360210,KBQP,2024-05-05T00:55:00Z,32.7583,-91.8793,23.6,21,0,0,,10+,29.96,,,TRUE,TRUE,,,,,,,CLR,,,,,,,,VFR,,,,,,,,,,,,METAR,50
KBQK 050055Z AUTO 14006KT 10SM CLR 23/19 A3004 RMK AO2 T02290190,KBQK,2024-05-05T00:55:00Z,31.2567,-81.4754,22.9,19,140,6,,10+,30.04,,,TRUE,TRUE,,,,,,,CLR,,,,,,,,VFR,,,,,,,,,,,,METAR,7
KBPG 050055Z AUTO 05008KT 10SM VCTS SCT090 SCT110 18/13 A2991 RMK AO2 LTG DSNT N THRU SE T01810129,KBPG,2024-05-05T00:55:00Z,32.2097,-101.525,18.1,12.9,50,8,,10+,29.91,,,TRUE,TRUE,,,,,,VCTS,SCT,9000,SCT,11000,,,,,VFR,,,,,,,,,,,,METAR,782
KBPC 050055Z AUTO 00000KT 10SM OVC025 15/08 A3001 RMK AO2,KBPC,2024-05-05T00:55:00Z,35.8913,-101.027,15,8,0,0,,10+,30.01,,,TRUE,TRUE,,,,,,,OVC,2500,,,,,,,MVFR,,,,,,,,,,,,METAR,844
KBOW 050055Z AUTO 10006KT 10SM CLR 25/19 A3001 RMK AO2 PWINO,KBOW,2024-05-05T00:55:00Z,27.9471,-81.7811,25,19,100,6,,10+,30.01,,,TRUE,TRUE,,,,,TRUE,,CLR,,,,,,,,VFR,,,,,,,,,,,,METAR,38
KBNW 050055Z AUTO 01004KT 10SM CLR 12/09 A3002 RMK AO2,KBNW,2024-05-05T00:55:00Z,42.0486,-93.8486,12,9,10,4,,10+,30.02,,,TRUE,TRUE,,,,,,,CLR,,,,,,,,VFR,,,,,,,,,,,,METAR,350
KBNL 050055Z AUTO 19006KT 10SM BKN035 BKN075 OVC090 24/19 A3004 RMK AO2 LTG DSNT NW,KBNL,2024-05-05T00:55:00Z,33.2601,-81.387,24,19,190,6,,10+,30.04,,,TRUE,TRUE,,,,,,,BKN,3500,BKN,7500,OVC,9000,,,VFR,,,,,,,,,,,,METAR,76
KBMT 050055Z AUTO 15005KT 10SM SCT014 SCT095 25/22 A2991 RMK AO2 T02460217,KBMT,2024-05-05T00:55:00Z,30.0686,-94.2155,24.6,21.7,150,5,,10+,29.91,,,TRUE,TRUE,,,,,,,SCT,1400,SCT,9500,,,,,VFR,,,,,,,,,,,,METAR,8
KBMC 050055Z AUTO 16016G24KT 10SM SCT110 22/M01 A2956 RMK AO1 T02231007,KBMC,2024-05-05T00:55:00Z,41.5463,-112.06,22.3,-0.7,160,16,24,10+,29.56,,,TRUE,TRUE,,,,,,,SCT,11000,,,,,,,VFR,,,,,,,,,,,,METAR,1289
KBLV 050055Z 21004KT 10SM SCT050 19/18 A2991 RMK AO2A RAE45DZB45E49 TSE03 SLP130 P0004 T01930176 $,KBLV,2024-05-05T00:55:00Z,38.54,-89.845,19.3,17.6,210,4,,10+,29.91,1013,,,TRUE,TRUE,,,,,,SCT,5000,,,,,,,VFR,,,,,,0.04,,,,,,METAR,134
KBKT 050055Z AUTO 05004KT 3/4SM BR OVC003 15/15 A3015 RMK AO1 T01500150,KBKT,2024-05-05T00:55:00Z,37.082,-77.953,15,15,50,4,,0.75,30.15,,,TRUE,TRUE,,,,,,BR,OVC,300,,,,,,,LIFR,,,,,,,,,,,,METAR,134
KBKS 050055Z AUTO 11010KT 10SM CLR 27/24 A2974 RMK AO2 SLP033 T02740236 $,KBKS,2024-05-05T00:55:00Z,27.2064,-98.1216,27.4,23.6,110,10,,10+,29.74,1003.3,,TRUE,TRUE,TRUE,,,,,,CLR,,,,,,,,VFR,,,,,,,,,,,,METAR,34
KBKN 050055Z AUTO 03006KT FEW049 19/14 A3000 RMK AO2,KBKN,2024-05-05T00:55:00Z,36.7431,-97.3479,19,14,30,6,,,30.00,,,TRUE,TRUE,,,,,,,FEW,4900,,,,,,,,,,,,,,,,,,,METAR,208
KBKD 050055Z AUTO 4SM VCTS BR BKN011 23/21 A2981 RMK AO2 LTG DSNT SE THRU NW T02250210,KBKD,2024-05-05T00:55:00Z,32.7206,-98.8931,22.5,21,,,,4,29.81,,,TRUE,TRUE,,,,,,VCTS BR,BKN,1100,,,,,,,MVFR,,,,,,,,,,,,METAR,383
KBJI 050055Z AUTO 02003KT 10SM SCT038 OVC048 11/04 A2998 RMK AO2 T01140044,KBJI,2024-05-05T00:55:00Z,47.5076,-94.9279,11.4,4.4,20,3,,10+,29.98,,,TRUE,TRUE,,,,,,,SCT,3800,OVC,4800,,,,,VFR,,,,,,,,,,,,METAR,422
KBIX 050055Z AUTO 22008KT 10SM CLR 26/21 A2996 RMK AO2 SLP148 T02580210,KBIX,2024-05-05T00:55:00Z,30.415,-88.922,25.8,21,220,8,,10+,29.96,1014.8,,TRUE,TRUE,,,,,,,CLR,,,,,,,,VFR,,,,,,,,,,,,METAR,4
KBIJ 050055Z AUTO 09004KT 10SM VCTS CLR 21/17 A3002 RMK AO2 LTG DSNT SE AND SW,KBIJ,2024-05-05T00:55:00Z,31.4,-84.8939,21,17,90,4,,10+,30.02,,,TRUE,TRUE,,,,,,VCTS,CLR,,,,,,,,VFR,,,,,,,,,,,,METAR,63
KBIF 050055Z VRB04KT 7SM CLR 30/M11 A2985 RMK AO2A SLP012 ALSTG/SLP ESTMD WND DATA ESTMD T02961115 $,KBIF,2024-05-05T00:55:00Z,31.861,-106.369,29.6,-11.5,VRB,4,,7,29.85,1001.2,,,TRUE,TRUE,,,,,,CLR,,,,,,,,VFR,,,,,,,,,,,,METAR,1201
KBIE 050055Z AUTO 07005KT 10SM CLR 15/06 A3006 RMK AO2 T01480062,KBIE,2024-05-05T00:55:00Z,40.3005,-96.7517,14.8,6.2,70,5,,10+,30.06,,,TRUE,TRUE,,,,,,,CLR,,,,,,,,VFR,,,,,,,,,,,,METAR,398
KBHC 050055Z AUTO 22003KT 10SM SCT120 22/20 A3003 RMK AO2,KBHC,2024-05-05T00:55:00Z,31.712,-82.3902,22,20,220,3,,10+,30.03,,,TRUE,TRUE,,,,,,,SCT,12000,,,,,,,VFR,,,,,,,,,,,,METAR,61
KBGF 050055Z AUTO 14004KT 10SM CLR 21/19 A2998 RMK A01,KBGF,2024-05-05T00:55:00Z,35.174,-86.0678,21,19,140,4,,10+,29.98,,,TRUE,TRUE,,,,,,,CLR,,,,,,,,VFR,,,,,,,,,,,,METAR,295
KBGE 050055Z AUTO 06007KT 10SM -TSRA SCT017 BKN065 OVC090 20/19 A3006 RMK AO2 LTG DSNT NW THRU E P0048 T01990191,KBGE,2024-05-05T00:55:00Z,30.9709,-84.6344,19.9,19.1,60,7,,10+,30.06,,,TRUE,TRUE,,,,,,-TSRA,SCT,1700,BKN,6500,OVC,9000,,,VFR,,,,,,0.48,,,,,,METAR,40
KBFR 050055Z AUTO 00000KT 10SM CLR 21/15 A2989 RMK AO2 LTG DSNT E,KBFR,2024-05-05T00:55:00Z,38.8383,-86.446,21,15,0,0,,10+,29.89,,,TRUE,TRUE,,,,,,,CLR,,,,,,,,VFR,,,,,,,,,,,,METAR,223
KBFA 050055Z AUTO 16006KT 10SM CLR 21/14 A2981 RMK AO2,KBFA,2024-05-05T00:55:00Z,45.166,-84.924,21,14,160,6,,10+,29.81,,,TRUE,TRUE,,,,,,,CLR,,,,,,,,VFR,,,,,,,,,,,,METAR,219
KBEC 050055Z AUTO 01010KT 10SM OVC060 16/10 A3002 RMK AO2 T01600095,KBEC,2024-05-05T00:55:00Z,37.694,-97.215,16,9.5,10,10,,10+,30.02,,,TRUE,TRUE,,,,,,,OVC,6000,,,,,,,VFR,,,,,,,,,,,,METAR,421
KBEA 050055Z AUTO 13010G15KT 10SM SCT026 SCT031 26/19 A2980 RMK AO2 T02610191,KBEA,2024-05-05T00:55:00Z,28.3692,-97.7953,26.1,19.1,130,10,15,10+,29.80,,,TRUE,TRUE,,,,,,,SCT,2600,SCT,3100,,,,,VFR,,,,,,,,,,,,METAR,83
KBDU 050055Z AUTO 35004KT 10SM CLR 16/01 A2992 RMK AO2,KBDU,2024-05-05T00:55:00Z,40.0377,-105.227,16,1,350,4,,10+,29.92,,,TRUE,TRUE,,,,,,,CLR,,,,,,,,VFR,,,,,,,,,,,,METAR,1614
KBDN 050055Z AUTO 34008G17KT 10SM -DZ 05/00 A2953 RMK AO2,KBDN,2024-05-05T00:55:00Z,44.1006,-121.198,5,0,340,8,17,10+,29.53,,,TRUE,TRUE,,,,,,-DZ,,,,,,,,,VFR,,,,,,,,,,,,METAR,1044
KBDH 050055Z AUTO 30006KT 10SM CLR 13/05 A3001 RMK AO2,KBDH,2024-05-05T00:55:00Z,45.1111,-95.1258,13,5,300,6,,10+,30.01,,,TRUE,TRUE,,,,,,,CLR,,,,,,,,VFR,,,,,,,,,,,,METAR,341
KBDG 050055Z AUTO 17011G18KT 8SM FEW110 21/M06 A2983 RMK AO2 T02141064,KBDG,2024-05-05T00:55:00Z,37.587,-109.481,21.4,-6.4,170,11,18,8,29.83,,,TRUE,TRUE,,,,,,,FEW,11000,,,,,,,VFR,,,,,,,,,,,,METAR,1778
KBCK 050055Z AUTO 30008KT 10SM SCT028 12/07 A2996 RMK AO2 T01210074,KBCK,2024-05-05T00:55:00Z,44.2499,-90.85,12.1,7.4,300,8,,10+,29.96,,,TRUE,TRUE,,,,,,,SCT,2800,,,,,,,VFR,,,,,,,,,,,,METAR,256
KBCB 050055Z AUTO 11004KT 1/2SM -DZ OVC002 13/13 A3016 RMK AO2 T01310131,KBCB,2024-05-05T00:55:00Z,37.208,-80.4127,13.1,13.1,110,4,,0.5,30.16,,,TRUE,TRUE,,,,,,-DZ,OVC,200,,,,,,,LIFR,,,,,,,,,,,,METAR,642
KBBP 050055Z AUTO 10003KT 10SM -DZ OVC120 20/20 A3008 RMK AO2,KBBP,2024-05-05T00:55:00Z,34.6228,-79.7354,20,20,100,3,,10+,30.08,,,TRUE,TRUE,,,,,,-DZ,OVC,12000,,,,,,,VFR,,,,,,,,,,,,METAR,44
KBBG 050055Z 18003KT 10SM SCT060 19/17 A2997,KBBG,2024-05-05T00:55:00Z,36.5259,-93.1969,19,17,180,3,,10+,29.97,,,,,,,,,,,SCT,6000,,,,,,,VFR,,,,,,,,,,,,METAR,403
KBBD 050055Z AUTO 14007KT 2SM VCTS RA BKN005 OVC013 21/21 A2984 RMK AO2 LTG DSNT ALQDS P0023,KBBD,2024-05-05T00:55:00Z,31.1766,-99.3229,21,21,140,7,,2,29.84,,,TRUE,TRUE,,,,,,VCTS RA,BKN,500,OVC,1300,,,,,IFR,,,,,,0.23,,,,,,METAR,554
KBAX 050055Z AUTO 18008KT 10SM -RA SCT030 OVC040 20/16 A2990 RMK AO2 T01960155,KBAX,2024-05-05T00:55:00Z,43.7774,-82.9828,19.6,15.5,180,8,,10+,29.90,,,TRUE,TRUE,,,,,,-RA,SCT,3000,OVC,4000,,,,,VFR,,,,,,,,,,,,METAR,229
KBAM 050055Z AUTO 23019G24KT 10SM BKN075 BKN110 14/04 A2950 RMK AO1,KBAM,2024-05-05T00:55:00Z,40.6048,-116.872,14,4,230,19,24,10+,29.50,,,TRUE,TRUE,,,,,,,BKN,7500,BKN,11000,,,,,VFR,,,,,,,,,,,,METAR,1381
KBAD 050055Z AUTO 10003KT 10SM CLR 25/21 A2991 RMK AO2 SLP131 T02510214 $,KBAD,2024-05-05T00:55:00Z,32.488,-93.658,25.1,21.4,100,3,,10+,29.91,1013.1,,TRUE,TRUE,TRUE,,,,,,CLR,,,,,,,,VFR,,,,,,,,,,,,METAR,49
KBAC 050055Z AUTO 30005KT 9SM OVC055 12/05 A3000 RMK AO2,KBAC,2024-05-05T00:55:00Z,46.9419,-98.0179,12,5,300,5,,9,30.00,,,TRUE,TRUE,,,,,,,OVC,5500,,,,,,,VFR,,,,,,,,,,,,METAR,423
KBAB 050055Z AUTO 14010KT 10SM FEW040 FEW050 BKN060 OVC140 11/08 A2976 RMK AO2 LTG DSNT E-SE RAB03E40DZB40E45 TSB02E40 SLPNO P0015 T01050077 $,KBAB,2024-05-05T00:55:00Z,39.145,-121.436,10.5,7.7,140,10,,10+,29.76,,,TRUE,TRUE,TRUE,,,,,,FEW,4000,FEW,5000,BKN,6000,OVC,14000,VFR,,,,,,0.15,,,,,,METAR,31
KAZC 050055Z AUTO 19014G22KT 10SM CLR 24/00 A2978 RMK AO2,KAZC,2024-05-05T00:55:00Z,36.959,-113.013,24,0,190,14,22,10+,29.78,,,TRUE,TRUE,,,,,,,CLR,,,,,,,,VFR,,,,,,,,,,,,METAR,1476
KAYS 050055Z AUTO 09004KT 10SM CLR 21/21 A3003 RMK AO2 T02110205,KAYS,2024-05-05T00:55:00Z,31.2466,-82.4014,21.1,20.5,90,4,,10+,30.03,,,TRUE,TRUE,,,,,,,CLR,,,,,,,,VFR,,,,,,,,,,,,METAR,42
KAXX 050055Z AUTO 16010KT 10SM BKN095 12/M04 A3011 RMK AO2 T01211045,KAXX,2024-05-05T00:55:00Z,36.422,-105.29,12.1,-4.5,160,10,,10+,30.11,,,TRUE,TRUE,,,,,,,BKN,9500,,,,,,,VFR,,,,,,,,,,,,METAR,2543
KAXV 050055Z AUTO 12003KT 10SM CLR 19/18 A2989 RMK AO2 LTG DSNT NE,KAXV,2024-05-05T00:55:00Z,40.4959,-84.2929,19,18,120,3,,10+,29.89,,,TRUE,TRUE,,,,,,,CLR,,,,,,,,VFR,,,,,,,,,,,,METAR,278
KAXS 050055Z AUTO 03010G17KT 10SM OVC023 17/13 A2995 RMK AO2 LTG DSNT SE AND SW,KAXS,2024-05-05T00:55:00Z,34.6963,-99.3402,17,13,30,10,17,10+,29.95,,,TRUE,TRUE,,,,,,,OVC,2300,,,,,,,MVFR,,,,,,,,,,,,METAR,433
KAXH 050055Z AUTO 11005KT 10SM BKN018 BKN027 BKN037 25/23 A2990 RMK AO2 T02530233,KAXH,2024-05-05T00:55:00Z,29.505,-95.476,25.3,23.3,110,5,,10+,29.90,,,TRUE,TRUE,,,,,,,BKN,1800,BKN,2700,BKN,3700,,,MVFR,,,,,,,,,,,,METAR,18
KAXA 050055Z AUTO 35005KT 10SM CLR 13/08 A3003 RMK A01,KAXA,2024-05-05T00:55:00Z,43.0796,-94.2723,13,8,350,5,,10+,30.03,,,TRUE,TRUE,,,,,,,CLR,,,,,,,,VFR,,,,,,,,,,,,METAR,371
KAWG 050055Z AUTO 32015KT 10SM FEW028 OVC034 15/09 A2999 RMK AO2,KAWG,2024-05-05T00:55:00Z,41.2749,-91.6746,15,9,320,15,,10+,29.99,,,TRUE,TRUE,,,,,,,FEW,2800,OVC,3400,,,,,VFR,,,,,,,,,,,,METAR,229
KAVQ 050055Z AUTO 26005G08KT 10SM 32/M11 A2974 RMK AO2 T03231115,KAVQ,2024-05-05T00:55:00Z,32.4112,-111.216,32.3,-11.5,260,5,8,10+,29.74,,,TRUE,TRUE,,,,,,,,,,,,,,,VFR,,,,,,,,,,,,METAR,618
KAVK 050055Z AUTO 09007KT 10SM FEW030 18/13 A3001 RMK AO2,KAVK,2024-05-05T00:55:00Z,36.7765,-98.6724,18,13,90,7,,10+,30.01,,,TRUE,TRUE,,,,,,,FEW,3000,,,,,,,VFR,,,,,,,,,,,,METAR,450
KAVC 050055Z AUTO 03004KT 4SM OVC003 17/16 A3019 RMK AO2 T01650162,KAVC,2024-05-05T00:55:00Z,36.6854,-78.0523,16.5,16.2,30,4,,4,30.19,,,TRUE,TRUE,,,,,,,OVC,300,,,,,,,LIFR,,,,,,,,,,,,METAR,119
KAUN 050055Z AUTO 14006KT 9SM BKN007 OVC010 07/07 A2977 RMK A01,KAUN,2024-05-05T00:55:00Z,38.9553,-121.087,7,7,140,6,,9,29.77,,,TRUE,TRUE,,,,,,,BKN,700,OVC,1000,,,,,IFR,,,,,,,,,,,,METAR,453
KAUH 050055Z AUTO 06004KT 10SM CLR 14/06 A3008 RMK AO2 T01420055,KAUH,2024-05-05T00:55:00Z,40.8966,-97.9974,14.2,5.5,60,4,,10+,30.08,,,TRUE,TRUE,,,,,,,CLR,,,,,,,,VFR,,,,,,,,,,,,METAR,549
KATS 050055Z AUTO 10015KT 10SM CLR 21/13 A2992 RMK AO2,KATS,2024-05-05T00:55:00Z,32.8524,-104.464,21,13,100,15,,10+,29.92,,,TRUE,TRUE,,,,,,,CLR,,,,,,,,VFR,,,,,,,,,,,,METAR,1073
KATA 050055Z AUTO 00000KT 9SM CLR 24/21 A2990 RMK AO2 SLP025 T02360209 $,KATA,2024-05-05T00:55:00Z,33.1017,-94.1937,23.6,20.9,0,0,,9,29.90,1002.5,,TRUE,TRUE,TRUE,,,,,,CLR,,,,,,,,VFR,,,,,,,,,,,,METAR,85
KASW 050055Z AUTO 00000KT 10SM CLR 21/15 A2987 RMK AO2 T02100155,KASW,2024-05-05T00:55:00Z,41.274,-85.842,21,15.5,0,0,,10+,29.87,,,TRUE,TRUE,,,,,,,CLR,,,,,,,,VFR,,,,,,,,,,,,METAR,253
KASN 050055Z AUTO 13002KT 10SM CLR 22/20 A2997 RMK AO2,KASN,2024-05-05T00:55:00Z,33.569,-86.0519,22,20,130,2,,10+,29.97,,,TRUE,TRUE,,,,,,,CLR,,,,,,,,VFR,,,,,,,,,,,,METAR,159
KASL 050055Z AUTO 00000KT 8SM CLR 24/23 A2991 RMK AO2 T02440234 $,KASL,2024-05-05T00:55:00Z,32.5207,-94.3066,24.4,23.4,0,0,,8,29.91,,,TRUE,TRUE,TRUE,,,,,,CLR,,,,,,,,VFR,,,,,,,,,,,,METAR,104
KARW 050055Z AUTO 15003KT 10SM SCT110 22/18 A3006 RMK AO2,KARW,2024-05-05T00:55:00Z,32.4104,-80.6335,22,18,150,3,,10+,30.06,,,TRUE,TRUE,,,,,,,SCT,11000,,,,,,,VFR,,,,,,,,,,,,METAR,2
KARV 050055Z AUTO 34008KT 10SM SCT013 SCT018 BKN024 08/06 A2994 RMK AO2 T00750061,KARV,2024-05-05T00:55:00Z,45.9264,-89.7307,7.5,6.1,340,8,,10+,29.94,,,TRUE,TRUE,,,,,,,SCT,1300,SCT,1800,BKN,2400,,,MVFR,,,,,,,,,,,,METAR,494
KAQX 050055Z AUTO 00000KT 10SM FEW023 FEW048 SCT100 22/22 A3004 RMK AO2 P0002 TSNO,KAQX,2024-05-05T00:55:00Z,32.9941,-81.271,22,22,0,0,,10+,30.04,,,TRUE,TRUE,,,TRUE,,,,FEW,2300,FEW,4800,SCT,10000,,,VFR,,,,,,0.02,,,,,,METAR,48
KAQO 050055Z AUTO 13006KT 4SM BR FEW008 SCT021 OVC036 23/21 A2982 RMK AO2 LTG DSNT NW-NE,KAQO,2024-05-05T00:55:00Z,30.7873,-98.6608,23,21,130,6,,4,29.82,,,TRUE,TRUE,,,,,,BR,FEW,800,SCT,2100,OVC,3600,,,MVFR,,,,,,,,,,,,METAR,334
KAPY 050055Z AUTO 12011G15KT 10SM SCT046 30/21 A2974 RMK AO2 T03010212 TSNO,KAPY,2024-05-05T00:55:00Z,26.969,-99.249,30.1,21.2,120,11,15,10+,29.74,,,TRUE,TRUE,,,TRUE,,,,SCT,4600,,,,,,,VFR,,,,,,,,,,,,METAR,129
KANW 050055Z AUTO 00000KT 10SM CLR 14/01 A3003 RMK AO2 T01430007 TSNO,KANW,2024-05-05T00:55:00Z,42.5748,-99.9984,14.3,0.7,0,0,,10+,30.03,,,TRUE,TRUE,,,TRUE,,,,CLR,,,,,,,,VFR,,,,,,,,,,,,METAR,788
KANQ 050055Z AUTO 11006KT 10SM CLR 19/18 A2988 RMK AO2,KANQ,2024-05-05T00:55:00Z,41.6404,-85.0852,19,18,110,6,,10+,29.88,,,TRUE,TRUE,,,,,,,CLR,,,,,,,,VFR,,,,,,,,,,,,METAR,299
KANK 050055Z AUTO 14006KT 5SM -RA FEW028 SCT039 BKN055 09/03 A3007 RMK AO2 P0000 T00940035,KANK,2024-05-05T00:55:00Z,38.538,-106.049,9.4,3.5,140,6,,5,30.07,,,TRUE,TRUE,,,,,,-RA,FEW,2800,SCT,3900,BKN,5500,,,MVFR,,,,,,0.005,,,,,,METAR,2293
KANJ 050055Z AUTO 13011G17KT 10SM CLR 16/12 A2984 RMK AO2 SLP104 T01560117,KANJ,2024-05-05T00:55:00Z,46.48,-84.3581,15.6,11.7,130,11,17,10+,29.84,1010.4,,TRUE,TRUE,,,,,,,CLR,,,,,,,,VFR,,,,,,,,,,,,METAR,220
KAMN 050055Z AUTO 00000KT 10SM CLR 18/15 A2987 RMK AO2 T01800147,KAMN,2024-05-05T00:55:00Z,43.3209,-84.6871,18,14.7,0,0,,10+,29.87,,,TRUE,TRUE,,,,,,,CLR,,,,,,,,VFR,,,,,,,,,,,,METAR,228
KALX 050055Z AUTO 00000KT 10SM CLR 23/23 A2999 RMK AO2 T02260225,KALX,2024-05-05T00:55:00Z,32.916,-85.964,22.6,22.5,0,0,,10+,29.99,,,TRUE,TRUE,,,,,,,CLR,,,,,,,,VFR,,,,,,,,,,,,METAR,198
KALM 050055Z AUTO 21011G17KT 10SM CLR 28/M16 A2984 RMK AO2,KALM,2024-05-05T00:55:00Z,32.8351,-105.994,28,-16,210,11,17,10+,29.84,,,TRUE,TRUE,,,,,,,CLR,,,,,,,,VFR,,,,,,,,,,,,METAR,1267
KAJR 050055Z AUTO 00000KT 7SM BKN026 OVC090 19/18 A3005 RMK AO2 T01850176,KAJR,2024-05-05T00:55:00Z,34.5006,-83.5519,18.5,17.6,0,0,,7,30.05,,,TRUE,TRUE,,,,,,,BKN,2600,OVC,9000,,,,,MVFR,,,,,,,,,,,,METAR,441
KAJG 050055Z AUTO 19008KT 10SM BKN050 26/17 A2988 RMK AO2 T02590173,KAJG,2024-05-05T00:55:00Z,38.6093,-87.7251,25.9,17.3,190,8,,10+,29.88,,,TRUE,TRUE,,,,,,,BKN,5000,,,,,,,VFR,,,,,,,,,,,,METAR,130
KAIT 050055Z AUTO 29003KT 10SM CLR 13/02 A2997 RMK AO2,KAIT,2024-05-05T00:55:00Z,46.5483,-93.6754,13,2,290,3,,10+,29.97,,,TRUE,TRUE,,,,,,,CLR,,,,,,,,VFR,,,,,,,,,,,,METAR,367
KAIO 050055Z AUTO 04003KT 10SM FEW047 14/08 A3005 RMK AO2,KAIO,2024-05-05T00:55:00Z,41.4059,-95.0465,14,8,40,3,,10+,30.05,,,TRUE,TRUE,,,,,,,FEW,4700,,,,,,,VFR,,,,,,,,,,,,METAR,349
KAIK 050055Z AUTO 07006KT 10SM VCTS OVC080 23/19 A3006 RMK AO2 LTG DSNT NW T02250192,KAIK,2024-05-05T00:55:00Z,33.651,-81.6821,22.5,19.2,70,6,,10+,30.06,,,TRUE,TRUE,,,,,,VCTS,OVC,8000,,,,,,,VFR,,,,,,,,,,,,METAR,155
KAIG 050055Z AUTO 31005KT 10SM BKN014 OVC034 09/08 A2992 RMK AO2 T00920081,KAIG,2024-05-05T00:55:00Z,45.1566,-89.1115,9.2,8.1,310,5,,10+,29.92,,,TRUE,TRUE,,,,,,,BKN,1400,OVC,3400,,,,,MVFR,,,,,,,,,,,,METAR,462
KAIB 050055Z AUTO 20013G20KT 10SM CLR 23/M09 A2995 RMK AO2 T02251093,KAIB,2024-05-05T00:55:00Z,38.239,-108.567,22.5,-9.3,200,13,20,10+,29.95,,,TRUE,TRUE,,,,,,,CLR,,,,,,,,VFR,,,,,,,,,,,,METAR,1811
KAHQ 050055Z AUTO 06003KT 10SM CLR 14/07 A3007 RMK AO2 T01420068,KAHQ,2024-05-05T00:55:00Z,41.241,-96.594,14.2,6.8,60,3,,10+,30.07,,,TRUE,TRUE,,,,,,,CLR,,,,,,,,VFR,,,,,,,,,,,,METAR,372
KAGO 050055Z AUTO 00000KT 10SM CLR 24/20 A2992 RMK A01,KAGO,2024-05-05T00:55:00Z,33.2266,-93.2154,24,20,0,0,,10+,29.92,,,TRUE,TRUE,,,,,,,CLR,,,,,,,,VFR,,,,,,,,,,,,METAR,91
KAGI 050055Z AUTO 10017KT 10SM CLR 25/22 A2991 RMK AO2 T02510220,KAGI,2024-05-05T00:55:00Z,27.5461,-92.4434,25.1,22,100,17,,10+,29.91,,,TRUE,TRUE,,,,,,,CLR,,,,,,,,VFR,,,,,,,,,,,,METAR,41
KAFO 050055Z AUTO 16012KT 10SM SCT100 A2973 RMK AO2,KAFO,2024-05-05T00:55:00Z,42.7139,-110.944,,,160,12,,10+,29.73,,,TRUE,TRUE,,,,,,,SCT,10000,,,,,,,VFR,,,,,,,,,,,,METAR,1881
KAFK 050055Z AUTO 05005KT 10SM CLR 14/07 A3007 RMK AO2 T01390067,KAFK,2024-05-05T00:55:00Z,40.6065,-95.8635,13.9,6.7,50,5,,10+,30.07,,,TRUE,TRUE,,,,,,,CLR,,,,,,,,VFR,,,,,,,,,,,,METAR,353
KAFF 050055Z AUTO 14015G26KT 10SM FEW110 SCT140 12/M03 A2999 RMK AO2 PK WND 15026/41 SLPNO T01241030,KAFF,2024-05-05T00:55:00Z,38.971,-104.816,12.4,-3,140,15,26,10+,29.99,,,TRUE,TRUE,,,,,,,FEW,11000,SCT,14000,,,,,VFR,,,,,,,,,,,,METAR,2003
KAEL 050055Z AUTO 00000KT 10SM CLR 13/07 A3002 RMK AO2,KAEL,2024-05-05T00:55:00Z,43.6823,-93.3722,13,7,0,0,,10+,30.02,,,TRUE,TRUE,,,,,,,CLR,,,,,,,,VFR,,,,,,,,,,,,METAR,382
KAEJ 050055Z AUTO 15016G24KT 10SM -RA SCT041 BKN060 OVC070 09/02 A3008 RMK AO2 T00860019,KAEJ,2024-05-05T00:55:00Z,38.8116,-106.121,8.6,1.9,150,16,24,10+,30.08,,,TRUE,TRUE,,,,,,-RA,SCT,4100,BKN,6000,OVC,7000,,,VFR,,,,,,,,,,,,METAR,2420
KADU 050055Z AUTO 00000KT 10SM 13/08 A3006 RMK AO2 PWINO,KADU,2024-05-05T00:55:00Z,41.6993,-94.9204,13,8,0,0,,10+,30.06,,,TRUE,TRUE,,,,,TRUE,,,,,,,,,,VFR,,,,,,,,,,,,METAR,391
KADT 050055Z AUTO 09008KT 10SM CLR 15/03 A3010 RMK AO2 T01520030,KADT,2024-05-05T00:55:00Z,39.8401,-101.045,15.2,3,90,8,,10+,30.10,,,TRUE,TRUE,,,,,,,CLR,,,,,,,,VFR,,,,,,,,,,,,METAR,899
KADM 050055Z AUTO 00000KT 10SM VCTS BKN026 BKN035 OVC040 23/19 A2991 RMK AO2 LTG DSNT SE-W,KADM,2024-05-05T00:55:00Z,34.3007,-97.0089,23,19,0,0,,10+,29.91,,,TRUE,TRUE,,,,,,VCTS,BKN,2600,BKN,3500,OVC,4000,,,MVFR,,,,,,,,,,,,METAR,223
KADH 050055Z AUTO 01004KT 10SM CLR 21/19 A2997 RMK AO2 PRESRR,KADH,2024-05-05T00:55:00Z,34.8021,-96.6701,21,19,10,4,,10+,29.97,,,TRUE,TRUE,,,,,,,CLR,,,,,,,,VFR,,,,,,,,,,,,METAR,301
KADC 050055Z AUTO 32004KT 10SM CLR 13/03 A2998 RMK AO2,KADC,2024-05-05T00:55:00Z,46.4502,-95.2135,13,3,320,4,,10+,29.98,,,TRUE,TRUE,,,,,,,CLR,,,,,,,,VFR,,,,,,,,,,,,METAR,416
KACQ 050055Z AUTO 00000KT 10SM CLR 13/07 A3003 RMK AO2,KACQ,2024-05-05T00:55:00Z,44.0702,-93.5535,13,7,0,0,,10+,30.03,,,TRUE,TRUE,,,,,,,CLR,,,,,,,,VFR,,,,,,,,,,,,METAR,339
KACP 050055Z AUTO 00000KT 10SM CLR 25/22 A2994 RMK AO2,KACP,2024-05-05T00:55:00Z,30.7469,-92.687,25,22,0,0,,10+,29.94,,,TRUE,TRUE,,,,,,,CLR,,,,,,,,VFR,,,,,,,,,,,,METAR,31
KACJ 050055Z AUTO 18004KT 10SM FEW045 SCT130 22/21 A3002 RMK AO2 T02190209 $,KACJ,2024-05-05T00:55:00Z,32.1106,-84.1841,21.9,20.9,180,4,,10+,30.02,,,TRUE,TRUE,TRUE,,,,,,FEW,4500,SCT,13000,,,,,VFR,,,,,,,,,,,,METAR,140
KACB 050055Z AUTO 15005KT 10SM CLR 20/12 A2981 RMK AO2 T02010117,KACB,2024-05-05T00:55:00Z,44.9867,-85.2022,20.1,11.7,150,5,,10+,29.81,,,TRUE,TRUE,,,,,,,CLR,,,,,,,,VFR,,,,,,,,,,,,METAR,189
KABH 050055Z AUTO 16012KT 10SM CLR 13/M02 A3003 RMK AO2 SLPNO T01301025,KABH,2024-05-05T00:55:00Z,38.7587,-104.299,13,-2.5,160,12,,10+,30.03,,,TRUE,TRUE,,,,,,,CLR,,,,,,,,VFR,,,,,,,,,,,,METAR,1838
KAAT 050055Z AUTO 25015G20KT 8SM -SN BKN026 BKN036 OVC049 02/00 A2959 RMK AO2 UPB24E27SNB27 SLP012 P0000 T00170000,KAAT,2024-05-05T00:55:00Z,41.4836,-120.561,1.7,0,250,15,20,8,29.59,1001.2,,TRUE,TRUE,,,,,,-SN,BKN,2600,BKN,3600,OVC,4900,,,MVFR,,,,,,0.005,,,,,,METAR,1336
KAAS 050055Z AUTO 18005KT 10SM CLR 18/17 A2995 RMK AO1,KAAS,2024-05-05T00:55:00Z,37.3569,-85.3151,18,17,180,5,,10+,29.95,,,TRUE,TRUE,,,,,,,CLR,,,,,,,,VFR,,,,,,,,,,,,METAR,270
KAAA 050055Z AUTO 00000KT 10SM CLR 19/19 A2992 RMK AO2 LTG DSNT E T01940194,KAAA,2024-05-05T00:55:00Z,40.1584,-89.339,19.4,19.4,0,0,,10+,29.92,,,TRUE,TRUE,,,,,,,CLR,,,,,,,,VFR,,,,,,,,,,,,METAR,179
KA39 050055Z AUTO 18010KT 10SM CLR 33/M04 A2972 RMK AO2,KA39,2024-05-05T00:55:00Z,32.9875,-111.922,33,-4,180,10,,10+,29.72,,,TRUE,TRUE,,,,,,,CLR,,,,,,,,VFR,,,,,,,,,,,,METAR,391
K9V9 050055Z AUTO 12003KT 10SM CLR 14/02 A3004 RMK AO2 T01400018,K9V9,2024-05-05T00:55:00Z,43.7653,-99.3163,14,1.8,120,3,,10+,30.04,,,TRUE,TRUE,,,,,,,CLR,,,,,,,,VFR,,,,,,,,,,,,METAR,511
K9S5 050055Z AUTO 08008KT 10SM 18/M03 A2969 RMK Three Forks ,K9S5,2024-05-05T00:55:00Z,45.8827,-111.562,18,-3,80,8,,10+,29.69,,,TRUE,,,,,,,,,,,,,,,,VFR,,,,,,,,,,,,METAR,1246
K9MN 050055Z AUTO 32004KT 10SM CLR 13/04 A3001 RMK AO1 T01290043,K9MN,2024-05-05T00:55:00Z,44.0198,-92.4829,12.9,4.3,320,4,,10+,30.01,,,TRUE,TRUE,,,,,,,CLR,,,,,,,,VFR,,,,,,,,,,,,METAR,308
K9L2 050055Z AUTO 21025G31KT 10SM CLR 17/07 A2977 RMK AO2 PK WND 23033/49 SLPNO T01710069,K9L2,2024-05-05T00:55:00Z,34.996,-117.857,17.1,6.9,210,25,31,10+,29.77,,,TRUE,TRUE,,,,,,,CLR,,,,,,,,VFR,,,,,,,,,,,,METAR,697
K9D7 050055Z AUTO 00000KT 10SM SCT070 11/06 A3001 RMK AO2,K9D7,2024-05-05T00:55:00Z,48.4816,-99.2346,11,6,0,0,,10+,30.01,,,TRUE,TRUE,,,,,,,SCT,7000,,,,,,,VFR,,,,,,,,,,,,METAR,451
K96D 050055Z AUTO 35006KT 10SM FEW050 FEW055 11/04 A2999 RMK AO2,K96D,2024-05-05T00:55:00Z,48.9402,-97.9053,11,4,350,6,,10+,29.99,,,TRUE,TRUE,,,,,,,FEW,5000,FEW,5500,,,,,VFR,,,,,,,,,,,,METAR,290
K8W2 050055Z AUTO 01004KT 5SM SCT005 OVC017 13/12 A3016 RMK AO1 T01300123,K8W2,2024-05-05T00:55:00Z,38.6554,-78.7083,13,12.3,10,4,,5,30.16,,,TRUE,TRUE,,,,,,,SCT,500,OVC,1700,,,,,MVFR,,,,,,,,,,,,METAR,295
K8V7 050055Z AUTO 11011KT 10SM 13/05 A3004 RMK AO2,K8V7,2024-05-05T00:55:00Z,37.4547,-102.619,13,5,110,11,,10+,30.04,,,TRUE,TRUE,,,,,,,,,,,,,,,VFR,,,,,,,,,,,,METAR,1338
K8T6 050055Z AUTO 13012KT 10SM SCT030 27/23 A2979 RMK AO2,K8T6,2024-05-05T00:55:00Z,28.3656,-98.1174,27,23,130,12,,10+,29.79,,,TRUE,TRUE,,,,,,,SCT,3000,,,,,,,VFR,,,,,,,,,,,,METAR,39
K8B0 050055Z AUTO 15005KT 10SM OVC065 10/07 A3034 RMK AO2,K8B0,2024-05-05T00:55:00Z,44.99,-70.6624,10,7,150,5,,10+,30.34,,,TRUE,TRUE,,,,,,,OVC,6500,,,,,,,VFR,,,,,,,,,,,,METAR,552
K8A3 050055Z AUTO 20003KT 10SM CLR 19/18 A2997 RMK A01,K8A3,2024-05-05T00:55:00Z,36.4164,-85.3061,19,18,200,3,,10+,29.97,,,TRUE,TRUE,,,,,,,CLR,,,,,,,,VFR,,,,,,,,,,,,METAR,413
K8A0 050055Z AUTO 00000KT 10SM CLR 22/17 A2999 RMK AO2,K8A0,2024-05-05T00:55:00Z,34.2316,-86.2481,22,17,0,0,,10+,29.99,,,TRUE,TRUE,,,,,,,CLR,,,,,,,,VFR,,,,,,,,,,,,METAR,313
K82V 050055Z AUTO 10SM 13/M02 A2997 RMK AO2,K82V,2024-05-05T00:55:00Z,41.151,-104.129,13,-2,,,,10+,29.97,,,TRUE,TRUE,,,,,,,,,,,,,,,VFR,,,,,,,,,,,,METAR,1563
K82C 050055Z AUTO 32007KT 10SM SCT023 SCT029 SCT035 12/09 A2994 RMK AO2 T01220089,K82C,2024-05-05T00:55:00Z,43.8385,-90.1345,12.2,8.9,320,7,,10+,29.94,,,TRUE,TRUE,,,,,,,SCT,2300,SCT,2900,SCT,3500,,,VFR,,,,,,,,,,,,METAR,273
K81R 050055Z AUTO 12010KT 3/4SM +RA BR OVC007 22/21 A2983 RMK AO2 P0035 T02150209,K81R,2024-05-05T00:55:00Z,31.2321,-98.7154,21.5,20.9,120,10,,0.75,29.83,,,TRUE,TRUE,,,,,,+RA BR,OVC,700,,,,,,,LIFR,,,,,,0.35,,,,,,METAR,381
K7W4 050055Z AUTO 07003KT 2SM OVC004 13/13 A3018 RMK AO1 T01300130,K7W4,2024-05-05T00:55:00Z,37.9667,-77.7453,13,13,70,3,,2,30.18,,,TRUE,TRUE,,,,,,,OVC,400,,,,,,,LIFR,,,,,,,,,,,,METAR,115
K7L2 050055Z AUTO 24004KT 10SM CLR 14/02 A3001 RMK AO2,K7L2,2024-05-05T00:55:00Z,46.219,-100.245,14,2,240,4,,10+,30.01,,,TRUE,TRUE,,,,,,,CLR,,,,,,,,VFR,,,,,,,,,,,,METAR,541
K7BM 050055Z AUTO 31007G21KT 280V360 3SM -RA BKN006 BKN017 OVC038 03/01 A3015 RMK AO2 LTG DSNT SE,K7BM,2024-05-05T00:55:00Z,38.799,-106.219,3,1,310,7,21,3,30.15,,,TRUE,TRUE,,,,,,-RA,BKN,600,BKN,1700,OVC,3800,,,IFR,,,,,,,,,,,,METAR,2996
K79S 050055Z AUTO 09014KT 10SM FEW140 16/M02 A2971 RMK AO2 T01641021 $,K79S,2024-05-05T00:55:00Z,47.845,-110.636,16.4,-2.1,90,14,,10+,29.71,,,TRUE,TRUE,TRUE,,,,,,FEW,14000,,,,,,,VFR,,,,,,,,,,,,METAR,874
K77S 050055Z AUTO 27008KT 8SM FEW016 SCT021 BKN025 09/09 A2969 RMK A01,K77S,2024-05-05T00:55:00Z,43.9324,-123.006,9,9,270,8,,8,29.69,,,TRUE,TRUE,,,,,,,FEW,1600,SCT,2100,BKN,2500,,,MVFR,,,,,,,,,,,,METAR,161
K74V 050055Z AUTO 00000KT 10SM BKN110 21/M06 A2975 RMK AO2,K74V,2024-05-05T00:55:00Z,40.2799,-110.05,21,-6,0,0,,10+,29.75,,,TRUE,TRUE,,,,,,,BKN,11000,,,,,,,VFR,,,,,,,,,,,,METAR,1567
K6S8 050055Z AUTO 11015G20KT 10SM 17/M04 A2976 RMK A01 LAUREL,K6S8,2024-05-05T00:55:00Z,45.703,-108.761,17,-4,110,15,20,10+,29.76,,,TRUE,TRUE,,,,,,,,,,,,,,,VFR,,,,,,,,,,,,METAR,1072
K6S2 050055Z AUTO VRB06G12KT 6SM -RA BR SCT030 BKN035 09/09 A2975 RMK AO2 P0006,K6S2,2024-05-05T00:55:00Z,43.9838,-124.11,9,9,VRB,6,12,6,29.75,,,TRUE,TRUE,,,,,,-RA BR,SCT,3000,BKN,3500,,,,,VFR,,,,,,0.06,,,,,,METAR,16
K6S0 050055Z AUTO 08010KT 10SM CLR 14/M03 A2976 RMK A01,K6S0,2024-05-05T00:55:00Z,45.8063,-109.974,14,-3,80,10,,10+,29.76,,,TRUE,TRUE,,,,,,,CLR,,,,,,,,VFR,,,,,,,,,,,,METAR,1364
K6R3 050055Z AUTO 00000KT 10SM SCT022 SCT090 SCT120 25/22 A2992 RMK AO2 P0002 T02530223,K6R3,2024-05-05T00:55:00Z,30.358,-95.007,25.3,22.3,0,0,,10+,29.92,,,TRUE,TRUE,,,,,,,SCT,2200,SCT,9000,SCT,12000,,,VFR,,,,,,0.02,,,,,,METAR,44
K6P9 050055Z AUTO 09008KT 5SM -DZ BKN006 BKN010 OVC019 20/16 A2987 RMK AO2 T02030157,K6P9,2024-05-05T00:55:00Z,32.4294,-98.5959,20.3,15.7,90,8,,5,29.87,,,TRUE,TRUE,,,,,,-DZ,BKN,600,BKN,1000,OVC,1900,,,IFR,,,,,,,,,,,,METAR,451
K6L4 050055Z AUTO 00000G12KT 10SM SCT048 BKN090 18/16 A3001 RMK AO2,K6L4,2024-05-05T00:55:00Z,37.8553,-81.915,18,16,0,0,12,10+,30.01,,,TRUE,TRUE,,,,,,,SCT,4800,BKN,9000,,,,,VFR,,,,,,,,,,,,METAR,504
K6I2 050055Z AUTO 18006KT 10SM CLR 20/19 A2994 RMK AO2,K6I2,2024-05-05T00:55:00Z,37.6352,-85.2418,20,19,180,6,,10+,29.94,,,TRUE,TRUE,,,,,,,CLR,,,,,,,,VFR,,,,,,,,,,,,METAR,258
K6B9 050055Z AUTO VRB06G16KT 10SM OVC060 15/07 A3014 RMK AO2,K6B9,2024-05-05T00:55:00Z,42.9141,-76.4428,15,7,VRB,6,16,10+,30.14,,,TRUE,TRUE,,,,,,,OVC,6000,,,,,,,VFR,,,,,,,,,,,,METAR,306
K6B0 050055Z AUTO 12009G19KT 090V150 10SM CLR 16/03 A3023 RMK AO2 T01560030,K6B0,2024-05-05T00:55:00Z,43.9888,-73.0952,15.6,3,120,9,19,10+,30.23,,,TRUE,TRUE,,,,,,,CLR,,,,,,,,VFR,,,,,,,,,,,,METAR,149
K6A2 050055Z AUTO 00000KT 10SM CLR 21/20 A3003 RMK AO2,K6A2,2024-05-05T00:55:00Z,33.227,-84.275,21,20,0,0,,10+,30.03,,,TRUE,TRUE,,,,,,,CLR,,,,,,,,VFR,,,,,,,,,,,,METAR,290
K6A1 050055Z AUTO 36008KT 10SM SCT038 BKN044 BKN050 23/19 A3004 RMK AO2 T02260191,K6A1,2024-05-05T00:55:00Z,32.5733,-84.247,22.6,19.1,360,8,,10+,30.04,,,TRUE,TRUE,,,,,,,SCT,3800,BKN,4400,BKN,5000,,,VFR,,,,,,,,,,,,METAR,198
K66R 050055Z AUTO 12004KT 10SM SCT033 25/21 A2986 RMK AO2 T02510211,K66R,2024-05-05T00:55:00Z,29.6382,-96.5137,25.1,21.1,120,4,,10+,29.86,,,TRUE,TRUE,,,,,,,SCT,3300,,,,,,,VFR,,,,,,,,,,,,METAR,70
K65S 050055Z AUTO 00000KT 10SM SCT080 18/M02 A2958 RMK AO2,K65S,2024-05-05T00:55:00Z,48.7255,-116.293,18,-2,0,0,,10+,29.58,,,TRUE,TRUE,,,,,,,SCT,8000,,,,,,,VFR,,,,,,,,,,,,METAR,708
K63S 050055Z 07014KT 10SM FEW041 SCT060 SCT075 17/00 A2955 RMK A01 100LL AVGAS TEMPORARILY UNAVAILABLE,K63S,2024-05-05T00:55:00Z,48.544,-117.884,17,0,70,14,,10+,29.55,,,,TRUE,,,,,,,FEW,4100,SCT,6000,SCT,7500,,,VFR,,,,,,,,,,,,METAR,571
K60R 050055Z AUTO 12012KT 10SM FEW090 25/23 A2983 RMK AO2 SLP018 T02540233 $,K60R,2024-05-05T00:55:00Z,30.368,-96.113,25.4,23.3,120,12,,10+,29.83,1001.8,,TRUE,TRUE,TRUE,,,,,,FEW,9000,,,,,,,VFR,,,,,,,,,,,,METAR,70
K5T9 050055Z AUTO 09006KT 7SM FEW050 FEW065 SCT075 A2974 RMK A01,K5T9,2024-05-05T00:55:00Z,28.8568,-100.516,,,90,6,,7,29.74,,,TRUE,TRUE,,,,,,,FEW,5000,FEW,6500,SCT,7500,,,VFR,,,,,,,,,,,,METAR,269
K5SM 050055Z AUTO 22008G16KT 10SM SCT030 SCT048 SCT060 05/M05 A3013 RMK AO2,K5SM,2024-05-05T00:55:00Z,39.426,-107.38,5,-5,220,8,16,10+,30.13,,,TRUE,TRUE,,,,,,,SCT,3000,SCT,4800,SCT,6000,,,VFR,,,,,,,,,,,,METAR,3229
K5R8 050055Z AUTO 00000KT 10SM SCT025 23/23 A2994 RMK AO2 T02320225,K5R8,2024-05-05T00:55:00Z,30.4368,-93.4696,23.2,22.5,0,0,,10+,29.94,,,TRUE,TRUE,,,,,,,SCT,2500,,,,,,,VFR,,,,,,,,,,,,METAR,26
K5H4 050055Z AUTO 02005KT 10SM OVC075 12/M00 A3000 RMK AO2,K5H4,2024-05-05T00:55:00Z,47.7906,-99.9346,12,0,20,5,,10+,30.00,,,TRUE,TRUE,,,,,,,OVC,7500,,,,,,,VFR,,,,,,,,,,,,METAR,490
K5C1 050055Z AUTO 13004KT 10SM BKN029 BKN034 OVC040 23/23 A2983 RMK AO1,K5C1,2024-05-05T00:55:00Z,29.7267,-98.6964,23,23,130,4,,10+,29.83,,,TRUE,TRUE,,,,,,,BKN,2900,BKN,3400,OVC,4000,,,MVFR,,,,,,,,,,,,METAR,422
K57C 050055Z AUTO 00000KT 10SM SCT038 OVC047 16/16 A2985 RMK AO2 T01610161,K57C,2024-05-05T00:55:00Z,42.7971,-88.3655,16.1,16.1,0,0,,10+,29.85,,,TRUE,TRUE,,,,,,,SCT,3800,OVC,4700,,,,,VFR,,,,,,,,,,,,METAR,454
K54J 050055Z AUTO 19003KT 10SM CLR 23/19 A3001 RMK AO2 T02330191,K54J,2024-05-05T00:55:00Z,30.7312,-86.1542,23.3,19.1,190,3,,10+,30.01,,,TRUE,TRUE,,,,,,,CLR,,,,,,,,VFR,,,,,,,,,,,,METAR,87
K4V0 050055Z AUTO 00000KT 10SM SCT120 22/M04 A2975 RMK AO2 T02151036,K4V0,2024-05-05T00:55:00Z,40.0956,-108.762,21.5,-3.6,0,0,,10+,29.75,,,TRUE,TRUE,,,,,,,SCT,12000,,,,,,,VFR,,,,,,,,,,,,METAR,1602
K4U6 050055Z AUTO 00000KT 10SM 15/M06 A2987 RMK A01 Circle ,K4U6,2024-05-05T00:55:00Z,47.419,-105.562,15,-6,0,0,,10+,29.87,,,TRUE,TRUE,,,,,,,,,,,,,,,VFR,,,,,,,,,,,,METAR,739
K4S2 050055Z AUTO 00000KT 10SM -RA OVC019 08/06 A2959 RMK AO2 P0006,K4S2,2024-05-05T00:55:00Z,45.6746,-121.535,8,6,0,0,,10+,29.59,,,TRUE,TRUE,,,,,,-RA,OVC,1900,,,,,,,MVFR,,,,,,0.06,,,,,,METAR,183
K4S1 050055Z AUTO 31004KT 5SM HZ SCT032 BKN050 BKN060 10/05 A2980 RMK AO2,K4S1,2024-05-05T00:55:00Z,42.4161,-124.426,10,5,310,4,,5,29.80,,,TRUE,TRUE,,,,,,HZ,SCT,3200,BKN,5000,BKN,6000,,,MVFR,,,,,,,,,,,,METAR,7
K4R5 050055Z AUTO 00000KT 10SM CLR 09/07 A2996 RMK AO2 T00920070,K4R5,2024-05-05T00:55:00Z,46.7887,-90.7559,9.2,7,0,0,,10+,29.96,,,TRUE,TRUE,,,,,,,CLR,,,,,,,,VFR,,,,,,,,,,,,METAR,195
K4O4 050055Z AUTO 01010G17KT 10SM CLR 21/17 A2996 RMK AO2,K4O4,2024-05-05T00:55:00Z,33.9133,-94.8546,21,17,10,10,17,10+,29.96,,,TRUE,TRUE,,,,,,,CLR,,,,,,,,VFR,,,,,,,,,,,,METAR,148
K4MR 050055Z AUTO 10016KT 10SM CLR 17/02 A2992 RMK AO2 SLPNO T01730021 $,K4MR,2024-05-05T00:55:00Z,34.29,-103.791,17.3,2.1,100,16,,10+,29.92,,,TRUE,TRUE,TRUE,,,,,,CLR,,,,,,,,VFR,,,,,,,,,,,,METAR,1339
K4M9 050055Z AUTO 22006KT 10SM CLR 24/21 A2993 RMK A01,K4M9,2024-05-05T00:55:00Z,36.404,-90.647,24,21,220,6,,10+,29.93,,,TRUE,TRUE,,,,,,,CLR,,,,,,,,VFR,,,,,,,,,,,,METAR,86
K4I3 050055Z AUTO 12004KT 10SM BKN017 BKN030 OVC050 19/18 A2995 RMK AO2,K4I3,2024-05-05T00:55:00Z,40.3268,-82.5201,19,18,120,4,,10+,29.95,,,TRUE,TRUE,,,,,,,BKN,1700,BKN,3000,OVC,5000,,,MVFR,,,,,,,,,,,,METAR,361
K4F2 050055Z AUTO 20005KT 10SM SCT050 24/20 A2993 RMK AO2 T02440201,K4F2,2024-05-05T00:55:00Z,32.18,-94.2976,24.4,20.1,200,5,,10+,29.93,,,TRUE,TRUE,,,,,,,SCT,5000,,,,,,,VFR,,,,,,,,,,,,METAR,76
K4BM 050055Z AUTO 15009KT 10SM BKN043 OVC055 03/M02 A3021 RMK AO2,K4BM,2024-05-05T00:55:00Z,39.05,-105.514,3,-2,150,9,,10+,30.21,,,TRUE,TRUE,,,,,,,BKN,4300,OVC,5500,,,,,VFR,,,,,,,,,,,,METAR,3432
K4B8 050055Z AUTO 16007KT 10SM SCT230 12/08 A3033 RMK AO2 T01160078,K4B8,2024-05-05T00:55:00Z,41.69,-72.865,11.6,7.8,160,7,,10+,30.33,,,TRUE,TRUE,,,,,,,SCT,23000,,,,,,,VFR,,,,,,,,,,,,METAR,61
K4A9 050055Z AUTO 03003KT 10SM CLR 21/19 A2998 RMK AO2 LTG DSNT NE T02150191,K4A9,2024-05-05T00:55:00Z,34.4759,-85.717,21.5,19.1,30,3,,10+,29.98,,,TRUE,TRUE,,,,,,,CLR,,,,,,,,VFR,,,,,,,,,,,,METAR,273
K4A6 050055Z AUTO 00000KT 10SM SCT048 BKN060 23/23 A2998 RMK AO2,K4A6,2024-05-05T00:55:00Z,34.688,-86.006,23,23,0,0,,10+,29.98,,,TRUE,TRUE,,,,,,,SCT,4800,BKN,6000,,,,,VFR,,,,,,,,,,,,METAR,191
K49B 050055Z AUTO 08015G21KT 10SM CLR 14/01 A2991 RMK AO2,K49B,2024-05-05T00:55:00Z,44.4284,-103.38,14,1,80,15,21,10+,29.91,,,TRUE,TRUE,,,,,,,CLR,,,,,,,,VFR,,,,,,,,,,,,METAR,986
K49A 050055Z AUTO 14004KT 10SM BKN075 OVC100 20/19 A3005 RMK AO2 LTG DSNT NW,K49A,2024-05-05T00:55:00Z,34.6301,-84.5271,20,19,140,4,,10+,30.05,,,TRUE,TRUE,,,,,,,BKN,7500,OVC,10000,,,,,VFR,,,,,,,,,,,,METAR,449
K48I 050055Z AUTO 00000KT 10SM -RA OVC110 17/16 A3002 RMK AO2,K48I,2024-05-05T00:55:00Z,38.684,-80.649,17,16,0,0,,10+,30.02,,,TRUE,TRUE,,,,,,-RA,OVC,11000,,,,,,,VFR,,,,,,,,,,,,METAR,386
K48A 050055Z AUTO 00000KT 10SM CLR 20/20 A3003 RMK AO2 T01990195,K48A,2024-05-05T00:55:00Z,32.3993,-83.2785,19.9,19.5,0,0,,10+,30.03,,,TRUE,TRUE,,,,,,,CLR,,,,,,,,VFR,,,,,,,,,,,,METAR,115
K46U 050055Z AUTO 00000KT 10SM FEW040 FEW050 SCT090 17/M01 A2972 RMK A01,K46U,2024-05-05T00:55:00Z,43.181,-111.037,17,-1,0,0,,10+,29.72,,,TRUE,TRUE,,,,,,,FEW,4000,FEW,5000,SCT,9000,,,VFR,,,,,,,,,,,,METAR,1718
K46D 050055Z AUTO 00000KT 10SM BKN065 12/05 A2999 RMK A01,K46D,2024-05-05T00:55:00Z,47.4509,-99.1479,12,5,0,0,,10+,29.99,,,TRUE,TRUE,,,,,,,BKN,6500,,,,,,,VFR,,,,,,,,,,,,METAR,488
K42J 050055Z AUTO 10006KT 10SM BKN046 BKN050 BKN120 24/17 A3003 RMK A01,K42J,2024-05-05T00:55:00Z,29.844,-82.05,24,17,100,6,,10+,30.03,,,TRUE,TRUE,,,,,,,BKN,4600,BKN,5000,BKN,12000,,,VFR,,,,,,,,,,,,METAR,57
K42A 050055Z AUTO 22006KT 10SM FEW022 BKN110 22/22 A2994 RMK AO2,K42A,2024-05-05T00:55:00Z,36.0713,-91.8287,22,22,220,6,,10+,29.94,,,TRUE,TRUE,,,,,,,FEW,2200,BKN,11000,,,,,VFR,,,,,,,,,,,,METAR,224
K41U 050055Z AUTO 14017G29KT 10SM SCT110 20/M05 A2969 RMK AO1 T01961049,K41U,2024-05-05T00:55:00Z,39.3323,-111.614,19.6,-4.9,140,17,29,10+,29.69,,,TRUE,TRUE,,,,,,,SCT,11000,,,,,,,VFR,,,,,,,,,,,,METAR,1676
K40U 050055Z AUTO 19012G16KT 10SM CLR 18/M06 A2979 RMK AO2 T01821056,K40U,2024-05-05T00:55:00Z,40.986,-109.678,18.2,-5.6,190,12,16,10+,29.79,,,TRUE,TRUE,,,,,,,CLR,,,,,,,,VFR,,,,,,,,,,,,METAR,1882
K3T5 050055Z AUTO 12005KT 10SM BKN035 BKN049 OVC150 27/23 A2983 RMK AO2 T02660231 $,K3T5,2024-05-05T00:55:00Z,29.9064,-96.9478,26.6,23.1,120,5,,10+,29.83,,,TRUE,TRUE,TRUE,,,,,,BKN,3500,BKN,4900,OVC,15000,,,VFR,,,,,,,,,,,,METAR,96
K3S8 050055Z AUTO 31006KT 10SM FEW023 SCT030 BKN036 09/05 A2976 RMK AO2,K3S8,2024-05-05T00:55:00Z,42.51,-123.388,9,5,310,6,,10+,29.76,,,TRUE,TRUE,,,,,,,FEW,2300,SCT,3000,BKN,3600,,,VFR,,,,,,,,,,,,METAR,339
K3R7 050055Z AUTO 10SM CLR 24/22 A2994 RMK AO2 T02430217,K3R7,2024-05-05T00:55:00Z,30.2426,-92.6759,24.3,21.7,,,,10+,29.94,,,TRUE,TRUE,,,,,,,CLR,,,,,,,,VFR,,,,,,,,,,,,METAR,5
K3N8 050055Z AUTO 34005KT 10SM SCT036 SCT043 SCT050 12/05 A2999 RMK AO2 T01230049,K3N8,2024-05-05T00:55:00Z,47.26,-95.928,12.3,4.9,340,5,,10+,29.99,,,TRUE,TRUE,,,,,,,SCT,3600,SCT,4300,SCT,5000,,,VFR,,,,,,,,,,,,METAR,379
K3LF 050055Z AUTO 19005KT 10SM SCT043 SCT050 BKN110 19/17 A2993 RMK AO2 T01850168,K3LF,2024-05-05T00:55:00Z,39.1605,-89.6742,18.5,16.8,190,5,,10+,29.93,,,TRUE,TRUE,,,,,,,SCT,4300,SCT,5000,BKN,11000,,,VFR,,,,,,,,,,,,METAR,207
K3L4 050055Z AUTO 14008KT 6SM BR CLR 25/25 A2993 RMK A01,K3L4,2024-05-05T00:55:00Z,29.8,-92.804,25,25,140,8,,6,29.93,,,TRUE,TRUE,,,,,,BR,CLR,,,,,,,,VFR,,,,,,,,,,,,METAR,1
K3K3 050055Z AUTO 12010KT 10SM 16/01 A3003 RMK AO2,K3K3,2024-05-05T00:55:00Z,37.9988,-101.75,16,1,120,10,,10+,30.03,,,TRUE,TRUE,,,,,,,,,,,,,,,VFR,,,,,,,,,,,,METAR,1010
K3F3 050055Z AUTO 15010KT 10SM OVC039 26/21 A2997 RMK AO2 T02600213,K3F3,2024-05-05T00:55:00Z,32.0718,-93.7641,26,21.3,150,10,,10+,29.97,,,TRUE,TRUE,,,,,,,OVC,3900,,,,,,,VFR,,,,,,,,,,,,METAR,96
K3D2 050055Z AUTO 22003KT 5SM DZ SCT014 OVC024 14/14 A2982 RMK AO2 P0003 T01370135,K3D2,2024-05-05T00:55:00Z,45.1348,-87.1881,13.7,13.5,220,3,,5,29.82,,,TRUE,TRUE,,,,,,DZ,SCT,1400,OVC,2400,,,,,MVFR,,,,,,0.03,,,,,,METAR,233
K36K 050055Z AUTO 12012KT 10SM CLR 16/02 A3005 RMK AO2,K36K,2024-05-05T00:55:00Z,37.9707,-101.255,16,2,120,12,,10+,30.05,,,TRUE,TRUE,,,,,,,CLR,,,,,,,,VFR,,,,,,,,,,,,METAR,938
K35A 050055Z AUTO 00000KT 10SM SCT020 OVC075 21/19 A3008 RMK A02 LTG DSNT SW T02060194,K35A,2024-05-05T00:55:00Z,34.6849,-81.6421,20.6,19.4,0,0,,10+,30.08,,,TRUE,TRUE,,,,,,,SCT,2000,OVC,7500,,,,,VFR,,,,,,,,,,,,METAR,186
K2V5 050055Z AUTO 14011KT 10SM CLR 15/00 A3003 RMK AO2,K2V5,2024-05-05T00:55:00Z,40.1,-102.241,15,0,140,11,,10+,30.03,,,TRUE,TRUE,,,,,,,CLR,,,,,,,,VFR,,,,,,,,,,,,METAR,1117
K2R9 050055Z AUTO 12012KT 10SM OVC031 27/20 A2982 RMK AO2 T02710205,K2R9,2024-05-05T00:55:00Z,28.8267,-97.8676,27.1,20.5,120,12,,10+,29.82,,,TRUE,TRUE,,,,,,,OVC,3100,,,,,,,VFR,,,,,,,,,,,,METAR,88
K2R2 050055Z AUTO 22004KT 10SM CLR 23/15 A2988 RMK AO2 T02310155 $,K2R2,2024-05-05T00:55:00Z,39.7511,-86.4732,23.1,15.5,220,4,,10+,29.88,,,TRUE,TRUE,TRUE,,,,,,CLR,,,,,,,,VFR,,,,,,,,,,,,METAR,273
K2P2 050055Z AUTO 00000KT 7SM -VCTSRA BKN025 BKN037 OVC049 10/10 A2981 RMK AO2 LTG DSNT NE THRU SE P0010 T01010101,K2P2,2024-05-05T00:55:00Z,45.388,-86.924,10.1,10.1,0,0,,7,29.81,,,TRUE,TRUE,,,,,,VCTS -RA,BKN,2500,BKN,3700,OVC,4900,,,MVFR,,,,,,0.1,,,,,,METAR,182
K2M8 050055Z AUTO 00000KT 9SM CLR 22/20 A2994 RMK AO2 T02200198,K2M8,2024-05-05T00:55:00Z,35.276,-89.931,22,19.8,0,0,,9,29.94,,,TRUE,TRUE,,,,,,,CLR,,,,,,,,VFR,,,,,,,,,,,,METAR,75
K2J9 050055Z AUTO VRB05KT 9SM TS FEW026 FEW037 BKN050 21/19 A3007 RMK AO2 LTG DSNT ALQDS,K2J9,2024-05-05T00:55:00Z,30.5987,-84.555,21,19,VRB,5,,9,30.07,,,TRUE,TRUE,,,,,,TS,FEW,2600,FEW,3700,BKN,5000,,,VFR,,,,,,,,,,,,METAR,62
K2J5 050055Z AUTO 00000KT 10SM -RA OVC090 22/21 A3004 RMK AO2 T02240206,K2J5,2024-05-05T00:55:00Z,32.8913,-81.9664,22.4,20.6,0,0,,10+,30.04,,,TRUE,TRUE,,,,,,-RA,OVC,9000,,,,,,,VFR,,,,,,,,,,,,METAR,72
K2I0 050055Z AUTO 23003KT 10SM SCT049 SCT060 23/21 A2993 RMK AO2 T02250206,K2I0,2024-05-05T00:55:00Z,37.3582,-87.3977,22.5,20.6,230,3,,10+,29.93,,,TRUE,TRUE,,,,,,,SCT,4900,SCT,6000,,,,,VFR,,,,,,,,,,,,METAR,127
K2G9 050055Z AUTO 13007G14KT 10SM RA OVC006 08/07 A3013 RMK AO2 P0002,K2G9,2024-05-05T00:55:00Z,40.0401,-79.0158,8,7,130,7,14,10+,30.13,,,TRUE,TRUE,,,,,,RA,OVC,600,,,,,,,IFR,,,,,,0.02,,,,,,METAR,677
K2G2 050055Z AUTO 12007KT 10SM OVC008 15/15 A2999 RMK A01,K2G2,2024-05-05T00:55:00Z,40.359,-80.7,15,15,120,7,,10+,29.99,,,TRUE,TRUE,,,,,,,OVC,800,,,,,,,IFR,,,,,,,,,,,,METAR,365
K2DP 050055Z AUTO 14007KT 10SM BKN035 BKN043 BKN050 22/19 M RMK AO2 SLPNO T02200190 $,K2DP,2024-05-05T00:55:00Z,35.672,-75.892,22,19,140,7,,10+,0.00,,,TRUE,TRUE,TRUE,,,,,,BKN,3500,BKN,4300,BKN,5000,,,VFR,,,,,,,,,,,,METAR,1
K2D5 050055Z AUTO 35008KT 10SM CLR 13/03 A3001 RMK AO2,K2D5,2024-05-05T00:55:00Z,46.1739,-98.083,13,3,350,8,,10+,30.01,,,TRUE,TRUE,,,,,,,CLR,,,,,,,,VFR,,,,,,,,,,,,METAR,407
K2C8 050055Z AUTO 9SM FEW044 BKN055 11/06 A2999 RMK AO2,K2C8,2024-05-05T00:55:00Z,48.7838,-97.6297,11,6,,,,9,29.99,,,TRUE,TRUE,,,,,,,FEW,4400,BKN,5500,,,,,VFR,,,,,,,,,,,,METAR,271
K2A0 050055Z AUTO 01007G17KT 9SM BKN029 OVC036 20/19 A2999 RMK A01,K2A0,2024-05-05T00:55:00Z,35.4817,-84.9322,20,19,10,7,17,9,29.99,,,TRUE,TRUE,,,,,,,BKN,2900,OVC,3600,,,,,MVFR,,,,,,,,,,,,METAR,219
K28J 050055Z AUTO 09006KT 10SM CLR 24/20 A3004 RMK AO2,K28J,2024-05-05T00:55:00Z,29.6602,-81.6918,24,20,90,6,,10+,30.04,,,TRUE,TRUE,,,,,,,CLR,,,,,,,,VFR,,,,,,,,,,,,METAR,9
K27K 050055Z AUTO 19004KT 10SM CLR 20/17 A2994 RMK AO1,K27K,2024-05-05T00:55:00Z,38.239,-84.4336,20,17,190,4,,10+,29.94,,,TRUE,TRUE,,,,,,,CLR,,,,,,,,VFR,,,,,,,,,,,,METAR,283
K24J 050055Z AUTO 00000KT 10SM FEW085 22/22 A3003 RMK A01,K24J,2024-05-05T00:55:00Z,30.299,-83.0226,22,22,0,0,,10+,30.03,,,TRUE,TRUE,,,,,,,FEW,8500,,,,,,,VFR,,,,,,,,,,,,METAR,30
K22N 050055Z AUTO 11003KT 5SM RA OVC012 10/08 A3029 RMK AO2,K22N,2024-05-05T00:55:00Z,40.8116,-75.7647,10,8,110,3,,5,30.29,,,TRUE,TRUE,,,,,,RA,OVC,1200,,,,,,,MVFR,,,,,,,,,,,,METAR,159
K21D 050055Z AUTO 00000KT 10SM SCT065 12/06 A2999 RMK AO2,K21D,2024-05-05T00:55:00Z,45.0002,-92.8549,12,6,0,0,,10+,29.99,,,TRUE,TRUE,,,,,,,SCT,6500,,,,,,,VFR,,,,,,,,,,,,METAR,281
K20V 050055Z AUTO 19006KT 10SM BKN110 16/M06 A2991 RMK AO2,K20V,2024-05-05T00:55:00Z,40.0563,-106.374,16,-6,190,6,,10+,29.91,,,TRUE,TRUE,,,,,,,BKN,11000,,,,,,,VFR,,,,,,,,,,,,METAR,2259
K20U 050055Z AUTO 00000KT 9SM CLR 13/M07 A2994 RMK AO2,K20U,2024-05-05T00:55:00Z,46.9251,-103.985,13,-7,0,0,,9,29.94,,,TRUE,TRUE,,,,,,,CLR,,,,,,,,VFR,,,,,,,,,,,,METAR,839
K1YT 050055Z AUTO 35005KT 10SM OVC070 15/10 A2946 RMK AO2 RAE03 SLPNO P0000 T01470097 $,K1YT,2024-05-05T00:55:00Z,46.668,-120.457,14.7,9.7,350,5,,10+,29.46,,,TRUE,TRUE,TRUE,,,,,,OVC,7000,,,,,,,VFR,,,,,,0.005,,,,,,METAR,423
K1V6 050055Z AUTO 09007KT 10SM SCT110 16/00 A2999 RMK AO2 LTG DSNT S,K1V6,2024-05-05T00:55:00Z,38.4256,-105.105,16,0,90,7,,10+,29.99,,,TRUE,TRUE,,,,,,,SCT,11000,,,,,,,VFR,,,,,,,,,,,,METAR,1658
K1U7 050055Z AUTO 15007KT 9SM BKN110 16/02 A2969 RMK A01,K1U7,2024-05-05T00:55:00Z,42.252,-111.337,16,2,150,7,,9,29.69,,,TRUE,TRUE,,,,,,,BKN,11000,,,,,,,VFR,,,,,,,,,,,,METAR,1808
K1S5 050055Z AUTO 23010KT 10SM BKN070 OVC080 17/11 A2945 RMK AO2 T01660107,K1S5,2024-05-05T00:55:00Z,46.3288,-119.974,16.6,10.7,230,10,,10+,29.45,,,TRUE,TRUE,,,,,,,BKN,7000,OVC,8000,,,,,VFR,,,,,,,,,,,,METAR,228
K1R8 050055Z AUTO 17003KT 10SM CLR 24/22 A2999 RMK AO2,K1R8,2024-05-05T00:55:00Z,30.8691,-87.8184,24,22,170,3,,10+,29.99,,,TRUE,TRUE,,,,,,,CLR,,,,,,,,VFR,,,,,,,,,,,,METAR,76
K1R7 050055Z AUTO 00000KT 10SM CLR A2998 RMK A01 LTG DSNT S,K1R7,2024-05-05T00:55:00Z,31.6057,-90.4072,,,0,0,,10+,29.98,,,TRUE,TRUE,,,,,,,CLR,,,,,,,,VFR,,,,,,,,,,,,METAR,142
K1P1 050055Z AUTO 14004KT 10SM OVC036 13/06 A3034 RMK AO2 T01300064,K1P1,2024-05-05T00:55:00Z,43.7771,-71.756,13,6.4,140,4,,10+,30.34,,,TRUE,TRUE,,,,,,,OVC,3600,,,,,,,VFR,,,,,,,,,,,,METAR,155
K1OW 050055Z AUTO 15017KT 10SM CLR 14/M01 A3007 RMK AO2 SLPNO T01371007 $,K1OW,2024-05-05T00:55:00Z,40.885,-103.999,13.7,-0.7,150,17,,10+,30.07,,,TRUE,TRUE,TRUE,,,,,,CLR,,,,,,,,VFR,,,,,,,,,,,,METAR,1650
K1ON 050055Z AUTO 00000KT 10SM BKN080 12/01 A2998 RMK AO2 SLP165 T01240011 $,K1ON,2024-05-05T00:55:00Z,48.82,-101.28,12.4,1.1,0,0,,10+,29.98,1016.5,,TRUE,TRUE,TRUE,,,,,,BKN,8000,,,,,,,VFR,,,,,,,,,,,,METAR,466
K1OM 050055Z AUTO 12020KT 10SM CLR 14/M03 A2975 RMK AO2 PK WND 11027/2359 SLPNO T01371031 $,K1OM,2024-05-05T00:55:00Z,47.328,-108.927,13.7,-3.1,120,20,,10+,29.75,,,TRUE,TRUE,TRUE,,,,,,CLR,,,,,,,,VFR,,,,,,,,,,,,METAR,1088
K1NW 050055Z AUTO 15016KT 10SM CLR 16/00 A2994 RMK AO2 SLPNO T01580000 $,K1NW,2024-05-05T00:55:00Z,40.632,-103.836,15.8,0,150,16,,10+,29.94,,,TRUE,TRUE,TRUE,,,,,,CLR,,,,,,,,VFR,,,,,,,,,,,,METAR,1461
K1NN 050055Z AUTO 28003KT 10SM BKN080 12/02 A2997 RMK AO2 SLP160 T01200016 $,K1NN,2024-05-05T00:55:00Z,48.76,-101.59,12,1.6,280,3,,10+,29.97,1016,,TRUE,TRUE,TRUE,,,,,,BKN,8000,,,,,,,VFR,,,,,,,,,,,,METAR,516
K1NM 050055Z AUTO 14012KT 10SM FEW140 14/M05 A2973 RMK AO2 SLPNO T01441054 $,K1NM,2024-05-05T00:55:00Z,47.059,-109.031,14.4,-5.4,140,12,,10+,29.73,,,TRUE,TRUE,TRUE,,,,,,FEW,14000,,,,,,,VFR,,,,,,,,,,,,METAR,1169
K1MW 050055Z AUTO 14014G19KT 10SM CLR 15/M01 A2996 RMK AO2 SLPNO T01541008 $,K1MW,2024-05-05T00:55:00Z,40.704,-103.477,15.4,-0.8,140,14,19,10+,29.96,,,TRUE,TRUE,TRUE,,,,,,CLR,,,,,,,,VFR,,,,,,,,,,,,METAR,1338
K1MN 050055Z AUTO 00000KT 10SM BKN055 OVC080 11/03 A2996 RMK AO2 SLP160 T01120030 $,K1MN,2024-05-05T00:55:00Z,48.67,-101.88,11.2,3,0,0,,10+,29.96,1016,,TRUE,TRUE,TRUE,,,,,,BKN,5500,OVC,8000,,,,,VFR,,,,,,,,,,,,METAR,569
K1MM 050055Z AUTO 13008KT 10SM CLR 14/M04 A2974 RMK AO2 SLPNO T01401042 $,K1MM,2024-05-05T00:55:00Z,47.014,-109.63,14,-4.2,130,8,,10+,29.74,,,TRUE,TRUE,TRUE,,,,,,CLR,,,,,,,,VFR,,,,,,,,,,,,METAR,1256
K1M5 050055Z AUTO 16004KT 10SM CLR 22/20 A2993 RMK A01,K1M5,2024-05-05T00:55:00Z,36.5956,-86.478,22,20,160,4,,10+,29.93,,,TRUE,TRUE,,,,,,,CLR,,,,,,,,VFR,,,,,,,,,,,,METAR,239
K1KM 050055Z AUTO 11011KT 10SM CLR 14/M04 A2974 RMK AO2 SLPNO T01441044 $,K1KM,2024-05-05T00:55:00Z,46.444,-109.801,14.4,-4.4,110,11,,10+,29.74,,,TRUE,TRUE,TRUE,,,,,,CLR,,,,,,,,VFR,,,,,,,,,,,,METAR,1332
K1K8 050055Z AUTO 01008KT 340V040 10SM CLR 20/17 A2996 RMK AO2,K1K8,2024-05-05T00:55:00Z,36.543,-95.012,20,17,10,8,,10+,29.96,,,TRUE,TRUE,,,,,,,CLR,,,,,,,,VFR,,,,,,,,,,,,METAR,234
K1JW 050055Z AUTO 16013KT 10SM CLR 14/M02 A2996 RMK AO2 SLPNO T01431018 PWINO $,K1JW,2024-05-05T00:55:00Z,40.961,-103.199,14.3,-1.8,160,13,,10+,29.96,,,TRUE,TRUE,TRUE,,,,TRUE,,CLR,,,,,,,,VFR,,,,,,,,,,,,METAR,1382
K1JN 050055Z AUTO 00000KT 10SM BKN070 10/02 M RMK AO2 SLPNO T01030024 $,K1JN,2024-05-05T00:55:00Z,48.41,-101.89,10.3,2.4,0,0,,10+,0.00,,,TRUE,TRUE,TRUE,,,,,,BKN,7000,,,,,,,VFR,,,,,,,,,,,,METAR,670
K1JM 050055Z AUTO 08017KT 10SM FEW100 14/M03 A2968 RMK AO2 SLPNO T01401029 $,K1JM,2024-05-05T00:55:00Z,47.751,-111.547,14,-2.9,80,17,,10+,29.68,,,TRUE,TRUE,TRUE,,,,,,FEW,10000,,,,,,,VFR,,,,,,,,,,,,METAR,1154
K1IW 050055Z AUTO 16015KT 10SM CLR 15/M00 A2997 RMK AO2 SLPNO T01501003 $,K1IW,2024-05-05T00:55:00Z,41.046,-102.865,15,-0.3,160,15,,10+,29.97,,,TRUE,TRUE,TRUE,,,,,,CLR,,,,,,,,VFR,,,,,,,,,,,,METAR,1294
K1IN 050055Z AUTO 07004KT 10SM SCT070 10/04 A2995 RMK AO2 SLP161 T00960044 $,K1IN,2024-05-05T00:55:00Z,48.34,-102.3,9.6,4.4,70,4,,10+,29.95,1016.1,,TRUE,TRUE,TRUE,,,,,,SCT,7000,,,,,,,VFR,,,,,,,,,,,,METAR,678
K1IM 050055Z AUTO 09009KT 10SM CLR 16/M00 A2965 RMK AO2 SLPNO T01591004 $,K1IM,2024-05-05T00:55:00Z,47.312,-111.473,15.9,-0.4,90,9,,10+,29.65,,,TRUE,TRUE,TRUE,,,,,,CLR,,,,,,,,VFR,,,,,,,,,,,,METAR,1110
K1HW 050055Z AUTO 17012KT 10SM CLR 15/00 A2996 RMK AO2 SLPNO T01460004 $,K1HW,2024-05-05T00:55:00Z,41.325,-102.83,14.6,0.4,170,12,,10+,29.96,,,TRUE,TRUE,TRUE,,,,,,CLR,,,,,,,,VFR,,,,,,,,,,,,METAR,1265
K1HN 050055Z AUTO 26003KT 10SM CLR 13/01 A2996 RMK AO2 SLP160 T01260010 $,K1HN,2024-05-05T00:55:00Z,47.97,-102.22,12.6,1,260,3,,10+,29.96,1016,,TRUE,TRUE,TRUE,,,,,,CLR,,,,,,,,VFR,,,,,,,,,,,,METAR,578
K1HM 050055Z AUTO 22011G15KT 10SM FEW120 15/M02 A2968 RMK AO2 SLPNO T01461023 $,K1HM,2024-05-05T00:55:00Z,47.698,-111.943,14.6,-2.3,220,11,15,10+,29.68,,,TRUE,TRUE,TRUE,,,,,,FEW,12000,,,,,,,VFR,,,,,,,,,,,,METAR,1181
K1H2 050055Z AUTO 26013G22KT 7SM /VCTSRA BKN048 BKN060 OVC080 21/18 A2995 RMK AO2 LTG DSNT N AND SW T02050175,K1H2,2024-05-05T00:55:00Z,39.0712,-88.5293,20.5,17.5,260,13,22,7,29.95,,,TRUE,TRUE,,,,,,VCTS RA,BKN,4800,BKN,6000,OVC,8000,,,VFR,,,,,,,,,,,,METAR,174
K1GN 050055Z AUTO 13009KT 10SM SCT049 BKN060 11/04 A2994 RMK AO2 SLP161 T01130041 $,K1GN,2024-05-05T00:55:00Z,48.12,-101.96,11.3,4.1,130,9,,10+,29.94,1016.1,,TRUE,TRUE,TRUE,,,,,,SCT,4900,BKN,6000,,,,,VFR,,,,,,,,,,,,METAR,644
K1GM 050055Z AUTO 06010KT 10SM CLR 13/M03 A2965 RMK AO2 SLPNO T01341030 $,K1GM,2024-05-05T00:55:00Z,47.325,-112.093,13.4,-3,60,10,,10+,29.65,,,TRUE,TRUE,TRUE,,,,,,CLR,,,,,,,,VFR,,,,,,,,,,,,METAR,1317
K1FN 050055Z AUTO 00000KT M M CLR M M RMK AO2 SLPNO RVRNO PWINO $,K1FN,2024-05-05T00:55:00Z,47.9,-101.67,,,0,0,,,0.00,,,TRUE,TRUE,TRUE,,,,TRUE,,CLR,,,,,,,,,,,,,,,,,,,,METAR,619
K1FM 050055Z AUTO 09010KT 10SM SCT120 14/M03 A2970 RMK AO2 SLPNO T01371027 $,K1FM,2024-05-05T00:55:00Z,47.605,-112.311,13.7,-2.7,90,10,,10+,29.70,,,TRUE,TRUE,TRUE,,,,,,SCT,12000,,,,,,,VFR,,,,,,,,,,,,METAR,1344
K1F0 050055Z AUTO 08009KT 10SM SCT029 BKN043 OVC060 23/19 A2991 RMK AO2 T02320193,K1F0,2024-05-05T00:55:00Z,34.1508,-97.1242,23.2,19.3,80,9,,10+,29.91,,,TRUE,TRUE,,,,,,,SCT,2900,BKN,4300,OVC,6000,,,VFR,,,,,,,,,,,,METAR,256
K1EW 050055Z AUTO 15015G21KT 10SM CLR 14/M02 M RMK AO2 SLPNO T01371023 $,K1EW,2024-05-05T00:55:00Z,41.103,-103.983,13.7,-2.3,150,15,21,10+,0.00,,,TRUE,TRUE,TRUE,,,,,,CLR,,,,,,,,VFR,,,,,,,,,,,,METAR,1609
K1EN 050055Z AUTO 00000KT 10SM CLR 12/03 M RMK AO2 SLPNO T01180033 $,K1EN,2024-05-05T00:55:00Z,47.75,-101.67,11.8,3.3,0,0,,10+,0.00,,,TRUE,TRUE,TRUE,,,,,,CLR,,,,,,,,VFR,,,,,,,,,,,,METAR,641
K1EM 050055Z AUTO 10020KT 10SM CLR 13/M02 A2975 RMK AO2 PK WND 10027/2355 SLPNO T01331018 $,K1EM,2024-05-05T00:55:00Z,47.454,-109.416,13.3,-1.8,100,20,,10+,29.75,,,TRUE,TRUE,TRUE,,,,,,CLR,,,,,,,,VFR,,,,,,,,,,,,METAR,1118
K1DM 050055Z AUTO 12011KT 10SM CLR 15/M03 A2974 RMK AO2 SLPNO T01531026 $,K1DM,2024-05-05T00:55:00Z,47.376,-109.814,15.3,-2.6,120,11,,10+,29.74,,,TRUE,TRUE,TRUE,,,,,,CLR,,,,,,,,VFR,,,,,,,,,,,,METAR,1093
K1D8 050055Z AUTO 22003KT 10SM CLR 15/04 A3002 RMK AO2,K1D8,2024-05-05T00:55:00Z,44.86,-98.529,15,4,220,3,,10+,30.02,,,TRUE,TRUE,,,,,,,CLR,,,,,,,,VFR,,,,,,,,,,,,METAR,398
K1D1 050055Z AUTO 30004KT 10SM CLR 15/04 A3001 RMK AO2,K1D1,2024-05-05T00:55:00Z,45.231,-96.566,15,4,300,4,,10+,30.01,,,TRUE,TRUE,,,,,,,CLR,,,,,,,,VFR,,,,,,,,,,,,METAR,340
K1CW 050055Z AUTO 15015KT 10SM CLR 15/M03 A2995 RMK AO2 SLPNO T01531026 $,K1CW,2024-05-05T00:55:00Z,41.581,-103.573,15.3,-2.6,150,15,,10+,29.95,,,TRUE,TRUE,TRUE,,,,,,CLR,,,,,,,,VFR,,,,,,,,,,,,METAR,1370
K1CN 050055Z AUTO 31006KT 10SM CLR 12/04 A2997 RMK AO2 SLP163 T01150040 $,K1CN,2024-05-05T00:55:00Z,47.71,-101.01,11.5,4,310,6,,10+,29.97,1016.3,,TRUE,TRUE,TRUE,,,,,,CLR,,,,,,,,VFR,,,,,,,,,,,,METAR,599
K1CM 050055Z AUTO 14014KT 10SM FEW120 SCT150 14/01 A2974 RMK AO2 SLPNO T01350005 $,K1CM,2024-05-05T00:55:00Z,47.096,-110.164,13.5,0.5,140,14,,10+,29.74,,,TRUE,TRUE,TRUE,,,,,,FEW,12000,SCT,15000,,,,,VFR,,,,,,,,,,,,METAR,1338
K1AW 050055Z AUTO 16015G21KT 10SM CLR 14/M01 A2997 RMK AO2 SLPNO T01361012 $,K1AW,2024-05-05T00:55:00Z,41.329,-104.265,13.6,-1.2,160,15,21,10+,29.97,,,TRUE,TRUE,TRUE,,,,,,CLR,,,,,,,,VFR,,,,,,,,,,,,METAR,1670
K1AN 050055Z AUTO 01003KT 10SM CLR 11/04 M RMK AO2 SLPNO T01140037 $,K1AN,2024-05-05T00:55:00Z,47.97,-100.58,11.4,3.7,10,3,,10+,0.00,,,TRUE,TRUE,TRUE,,,,,,CLR,,,,,,,,VFR,,,,,,,,,,,,METAR,483
K1AM 050055Z AUTO 11007KT 10SM BKN160 15/M01 A2969 RMK AO2 SLPNO T01461015 $,K1AM,2024-05-05T00:55:00Z,47.281,-110.801,14.6,-1.5,110,7,,10+,29.69,,,TRUE,TRUE,TRUE,,,,,,BKN,16000,,,,,,,VFR,,,,,,,,,,,,METAR,1228
K1A9 050055Z AUTO 00000KT 10SM CLR 24/19 A2997 RMK AO2 T02350193,K1A9,2024-05-05T00:55:00Z,32.4374,-86.5098,23.5,19.3,0,0,,10+,29.97,,,TRUE,TRUE,,,,,,,CLR,,,,,,,,VFR,,,,,,,,,,,,METAR,65
K1A6 050055Z AUTO 00000KT 10SM SCT070 BKN120 21/17 A3000 RMK AO2 T02080173,K1A6,2024-05-05T00:55:00Z,36.6087,-83.7369,20.8,17.3,0,0,,10+,30.00,,,TRUE,TRUE,,,,,,,SCT,7000,BKN,12000,,,,,VFR,,,,,,,,,,,,METAR,348
K18H 050055Z AUTO 00000KT 2 1/2SM HZ CLR 26/23 A2989 RMK A01,K18H,2024-05-05T00:55:00Z,26.1283,-92.0333,26,23,0,0,,2.5,29.89,,,TRUE,TRUE,,,,,,HZ,CLR,,,,,,,,IFR,,,,,,,,,,,,METAR,30
K18A 050055Z AUTO 00000KT 10SM SCT006 BKN055 OVC070 19/18 A3005 RMK AO2 T01890184,K18A,2024-05-05T00:55:00Z,34.3418,-83.1316,18.9,18.4,0,0,,10+,30.05,,,TRUE,TRUE,,,,,,,SCT,600,BKN,5500,OVC,7000,,,VFR,,,,,,,,,,,,METAR,260
K17J 050055Z AUTO 18015KT 10SM VCTS SCT011 BKN045 OVC070 20/18 A3006 RMK AO2 LTG DSNT ALQDS P0022,K17J,2024-05-05T00:55:00Z,31.0038,-84.8794,20,18,180,15,,10+,30.06,,,TRUE,TRUE,,,,,,VCTS,SCT,1100,BKN,4500,OVC,7000,,,VFR,,,,,,0.22,,,,,,METAR,42
K15M 050055Z AUTO 00000KT 8SM 22/21 A2996 RMK AO2 T02200215 $,K15M,2024-05-05T00:55:00Z,34.7745,-88.1676,22,21.5,0,0,,8,29.96,,,TRUE,TRUE,TRUE,,,,,,,,,,,,,,VFR,,,,,,,,,,,,METAR,192
K14Y 050055Z AUTO 32006KT 10SM CLR 13/02 A3000 RMK AO2,K14Y,2024-05-05T00:55:00Z,45.9017,-94.8727,13,2,320,6,,10+,30.00,,,TRUE,TRUE,,,,,,,CLR,,,,,,,,VFR,,,,,,,,,,,,METAR,404
K13K 050055Z AUTO 01009KT 10SM CLR A3004 RMK AO2,K13K,2024-05-05T00:55:00Z,37.8519,-96.2929,,,10,9,,10+,30.04,,,TRUE,TRUE,,,,,,,CLR,,,,,,,,VFR,,,,,,,,,,,,METAR,367
K11R 050055Z AUTO 14007KT 10SM BKN002 BKN006 OVC100 27/21 A2985 RMK AO2 T02650211,K11R,2024-05-05T00:55:00Z,30.2232,-96.3734,26.5,21.1,140,7,,10+,29.85,,,TRUE,TRUE,,,,,,,BKN,200,BKN,600,OVC,10000,,,LIFR,,,,,,,,,,,,METAR,87
K10G 050055Z AUTO 14004KT 10SM OVC012 20/17 A2997 RMK AO2,K10G,2024-05-05T00:55:00Z,40.5357,-81.9531,20,17,140,4,,10+,29.97,,,TRUE,TRUE,,,,,,,OVC,1200,,,,,,,MVFR,,,,,,,,,,,,METAR,371
K0VG 050055Z AUTO 00000KT 10SM SCT037 BKN045 OVC050 21/18 A3002 RMK AO2,K0VG,2024-05-05T00:55:00Z,36.6576,-83.2147,21,18,0,0,,10+,30.02,,,TRUE,TRUE,,,,,,,SCT,3700,BKN,4500,OVC,5000,,,VFR,,,,,,,,,,,,METAR,426
K0V4 050055Z AUTO 08009KT 10SM OVC005 14/14 A3015 RMK AO1,K0V4,2024-05-05T00:55:00Z,37.1399,-79.0171,14,14,80,9,,10+,30.15,,,TRUE,TRUE,,,,,,,OVC,500,,,,,,,IFR,,,,,,,,,,,,METAR,186
K0S9 050055Z AUTO 10SM -RA BKN060 14/12 A2956 RMK AO2 P0001,K0S9,2024-05-05T00:55:00Z,48.0554,-122.812,14,12,,,,10+,29.56,,,TRUE,TRUE,,,,,,-RA,BKN,6000,,,,,,,VFR,,,,,,0.01,,,,,,METAR,33
K0R4 050055Z AUTO 13003KT 10SM CLR 26/21 A2998 RMK AO2 T02610213,K0R4,2024-05-05T00:55:00Z,31.5637,-91.5098,26.1,21.3,130,3,,10+,29.98,,,TRUE,TRUE,,,,,,,CLR,,,,,,,,VFR,,,,,,,,,,,,METAR,16
K0F2 050055Z AUTO 13004KT 10SM SCT050 SCT075 SCT085 23/21 A2989 RMK AO2 P0001 T02300205,K0F2,2024-05-05T00:55:00Z,33.6011,-97.7735,23,20.5,130,4,,10+,29.89,,,TRUE,TRUE,,,,,,,SCT,5000,SCT,7500,SCT,8500,,,VFR,,,,,,0.01,,,,,,METAR,330
K0E0 050055Z AUTO 13013KT 10SM CLR 18/02 A3001 RMK AO2 T01820024,K0E0,2024-05-05T00:55:00Z,34.9837,-105.996,18.2,2.4,130,13,,10+,30.01,,,TRUE,TRUE,,,,,,,CLR,,,,,,,,VFR,,,,,,,,,,,,METAR,1887
K0D8 050055Z AUTO 23005KT 10SM CLR 13/02 A3001 RMK A01,K0D8,2024-05-05T00:55:00Z,44.989,-99.954,13,2,230,5,,10+,30.01,,,TRUE,TRUE,,,,,,,CLR,,,,,,,,VFR,,,,,,,,,,,,METAR,628
K0CO 050055Z AUTO 19008KT 111V281 M01/M03 A3019 RMK AO2 PWINO,K0CO,2024-05-05T00:55:00Z,39.794,-105.764,-1,-3,190,8,,,30.19,,,TRUE,TRUE,,,,,TRUE,,,,,,,,,,,,,,,,,,,,,,METAR,3804
K0A9 050055Z AUTO 00000KT 10SM BKN080 OVC100 18/18 A3004 RMK AO2 P0001,K0A9,2024-05-05T00:55:00Z,36.3711,-82.1768,18,18,0,0,,10+,30.04,,,TRUE,TRUE,,,,,,,BKN,8000,OVC,10000,,,,,VFR,,,,,,0.01,,,,,,METAR,479
K0A0 050055Z AUTO 19011G18KT 10SM CLR 27/M18 A2985 RMK AO2,K0A0,2024-05-05T00:55:00Z,32.99,-106.967,27,-18,190,11,18,10+,29.85,,,TRUE,TRUE,,,,,,,CLR,,,,,,,,VFR,,,,,,,,,,,,METAR,1401
K08D 050055Z AUTO 00000KT 10SM CLR 11/03 A2998 RMK AO2,K08D,2024-05-05T00:55:00Z,48.3018,-102.404,11,3,0,0,,10+,29.98,,,TRUE,TRUE,,,,,,,CLR,,,,,,,,VFR,,,,,,,,,,,,METAR,683
K06D 050055Z AUTO 36006KT 10SM OVC046 10/03 A2999 RMK AO2,K06D,2024-05-05T00:55:00Z,48.8821,-99.6217,10,3,360,6,,10+,29.99,,,TRUE,TRUE,,,,,,,OVC,4600,,,,,,,VFR,,,,,,,,,,,,METAR,554
K06C 050055Z AUTO 17003KT 10SM BKN043 BKN049 OVC095 17/16 A2986 RMK AO2 T01710160,K06C,2024-05-05T00:55:00Z,41.9924,-88.1091,17.1,16,170,3,,10+,29.86,,,TRUE,TRUE,,,,,,,BKN,4300,BKN,4900,OVC,9500,,,VFR,,,,,,,,,,,,METAR,243
K04W 050055Z AUTO 00000KT 10SM CLR 14/05 A2997 RMK AO2,K04W,2024-05-05T00:55:00Z,46.0244,-92.8991,14,5,0,0,,10+,29.97,,,TRUE,TRUE,,,,,,,CLR,,,,,,,,VFR,,,,,,,,,,,,METAR,310
K04V 050055Z AUTO 16019G23KT 10SM OVC090 14/M03 A3002 RMK AO2 LTG DSNT E,K04V,2024-05-05T00:55:00Z,38.099,-106.17,14,-3,160,19,23,10+,30.02,,,TRUE,TRUE,,,,,,,OVC,9000,,,,,,,VFR,,,,,,,,,,,,METAR,2389
K00U 050055Z AUTO 07010KT 10SM CLR 17/M04 A2977 RMK A01,K00U,2024-05-05T00:55:00Z,45.7453,-107.661,17,-4,70,10,,10+,29.77,,,TRUE,TRUE,,,,,,,CLR,,,,,,,,VFR,,,,,,,,,,,,METAR,922
FJDG 050055Z 16010KT 9999 FEW020 FEW100 SCT230 28/27 A2977 RMK SLP078 T02810272,FJDG,2024-05-05T00:55:00Z,-7.313,72.411,28.1,27.2,160,10,,6+,29.77,1007.8,,,,,,,,,,FEW,2000,FEW,10000,SCT,23000,,,VFR,,,,,,,,,,,,METAR,3
ETOU 050055Z AUTO 19004KT 9999 BKN016 BKN022 OVC031 13/11 A2979 RMK AO2 SLP090 T01330110 $,ETOU,2024-05-05T00:55:00Z,50.048,8.329,13.3,11,190,4,,6+,29.79,1009,,TRUE,TRUE,TRUE,,,,,,BKN,1600,BKN,2200,OVC,3100,,,MVFR,,,,,,,,,,,,METAR,141
ETIK 050055Z AUTO 19006KT 9999 FEW065 BKN140 15/09 A2984 RMK AO2 SLP106 T01510092 $,ETIK,2024-05-05T00:55:00Z,49.472,10.39,15.1,9.2,190,6,,6+,29.84,1010.6,,TRUE,TRUE,TRUE,,,,,,FEW,6500,BKN,14000,,,,,VFR,,,,,,,,,,,,METAR,326
ETIH 050055Z AUTO 00000KT 9999 BKN095 06/05 A2988 RMK AO2 SLP123 T00620048 $,ETIH,2024-05-05T00:55:00Z,49.216,11.839,6.2,4.8,0,0,,6+,29.88,1012.3,,TRUE,TRUE,TRUE,,,,,,BKN,9500,,,,,,,VFR,,,,,,,,,,,,METAR,436
ETIC 050055Z AUTO 00000KT 9999 FEW100 06/05 A2987 RMK AO2 SLP120 T00600046 $,ETIC,2024-05-05T00:55:00Z,49.696,11.941,6,4.6,0,0,,6+,29.87,1012,,TRUE,TRUE,TRUE,,,,,,FEW,10000,,,,,,,VFR,,,,,,,,,,,,METAR,414
ETAR 050055Z AUTO 22006KT 9999 -RA FEW013 OVC023 12/11 A2980 RMK AO2 SLP094 P0005 T01230105 $,ETAR,2024-05-05T00:55:00Z,49.437,7.6,12.3,10.5,220,6,,6+,29.80,1009.4,,TRUE,TRUE,TRUE,,,,,-RA,FEW,1300,OVC,2300,,,,,MVFR,,,,,,0.05,,,,,,METAR,231
ETAD 050055Z AUTO 24009KT 9999 BKN007 OVC014 10/10 A2977 RMK AO2 SLP073 T01040095 $,ETAD,2024-05-05T00:55:00Z,49.979,6.698,10.4,9.5,240,9,,6+,29.77,1007.3,,TRUE,TRUE,TRUE,,,,,,BKN,700,OVC,1400,,,,,IFR,,,,,,,,,,,,METAR,365
EKKA 050055Z AUTO 10002KT 0050 R09R/0325N R27L/0275D FG VV001 06/05 Q1011,EKKA,2024-05-05T00:55:00Z,56.293,9.114,6,5,100,2,,0.03,29.85,,,TRUE,,,,,,,FG,OVX,0,,,,,,,LIFR,,,,,,,,,,,100,SPECI,50
EHVL 050055Z AUTO 11007KT 9999 DZ OVC038 12/10 Q1008 BLU,EHVL,2024-05-05T00:55:00Z,53.297,5.086,12,10,110,7,,6+,29.76,,,TRUE,,,,,,,DZ,OVC,3800,,,,,,,VFR,,,,,,,,,,,,METAR,2
EHSC 050055Z AUTO 03003KT 9999 ///////// 11/10 Q1009 W12/H4,EHSC,2024-05-05T00:55:00Z,51.926,3.67,11,10,30,3,,6+,29.79,,,TRUE,,,,,,,,,,,,,,,,VFR,,,,,,,,,,,,METAR,19
EHSA 050055Z AUTO 07006KT 9999 ///////// 11/09 Q1009 W11/H4,EHSA,2024-05-05T00:55:00Z,51.998,3.275,11,9,70,6,,6+,29.79,,,TRUE,,,,,,,,,,,,,,,,VFR,,,,,,,,,,,,METAR,18
EHRD 050055Z AUTO 01003KT 9999 FEW005 SCT006 BKN007 11/10 Q1008 BECMG 7000 TEMPO SCT008 BKN040,EHRD,2024-05-05T00:55:00Z,51.954,4.444,11,10,10,3,,6+,29.76,,,TRUE,,,,,,,,FEW,500,SCT,600,BKN,700,,,IFR,,,,,,,,,,,,METAR,-4
EHPG 050055Z AUTO 11007KT 9999 FEW004 FEW015CB 11/09 Q1009,EHPG,2024-05-05T00:55:00Z,52.36,3.342,11,9,110,7,,6+,29.79,,,TRUE,,,,,,,,FEW,400,FEW,1500,,,,,VFR,,,,,,,,,,,,METAR,24
EHMG 050055Z AUTO 08014KT 9999 ////// 13/10 Q1010,EHMG,2024-05-05T00:55:00Z,53.614,4.96,13,10,80,14,,6+,29.82,,,TRUE,,,,,,,,,,,,,,,,VFR,,,,,,,,,,,,METAR,30
EHMA 050055Z AUTO 08010KT 030V170 9999 DZ FEW015CB SCT037 12/11 Q1008,EHMA,2024-05-05T00:55:00Z,53.492,5.942,12,11,80,10,,6+,29.76,,,TRUE,,,,,,,DZ,FEW,1500,SCT,3700,,,,,VFR,,,,,,,,,,,,METAR,27
EHLE 050055Z AUTO 29006KT 9999 FEW015CB OVC041 10/09 Q1007,EHLE,2024-05-05T00:55:00Z,52.456,5.522,10,9,290,6,,6+,29.73,,,TRUE,,,,,,,,FEW,1500,OVC,4100,,,,,VFR,,,,,,,,,,,,METAR,-3
EHKV 050055Z AUTO 19004KT 9999 NSC 12/09 Q1009,EHKV,2024-05-05T00:55:00Z,53.269,3.628,12,9,190,4,,6+,29.79,,,TRUE,,,,,,,,CLR,,,,,,,,VFR,,,,,,,,,,,,METAR,28
EHKD 050055Z AUTO 24003KT 220V280 9999 -RA FEW015CB BKN016 BKN020 OVC024 10/09 Q1008 RERA REDZ WHT,EHKD,2024-05-05T00:55:00Z,52.927,4.781,10,9,240,3,,6+,29.76,,,TRUE,,,,,,,-RA,FEW,1500,BKN,1600,BKN,2000,OVC,2400,MVFR,,,,,,,,,,,,METAR,1
EHJR 050055Z AUTO VRB01KT //// // ///////// 11/10 Q1009 RE// W11/H4,EHJR,2024-05-05T00:55:00Z,53.218,3.22,11,10,VRB,1,,,29.79,,,TRUE,,,,,,,,,,,,,,,,,,,,,,,,,,,,METAR,31
EHJA 050055Z AUTO 12005KT 090V160 9999 NSC 11/09 Q1009,EHJA,2024-05-05T00:55:00Z,53.824,2.945,11,9,120,5,,6+,29.79,,,TRUE,,,,,,,,CLR,,,,,,,,VFR,,,,,,,,,,,,METAR,34
EHHW 050055Z AUTO VRB05KT 9999 SCT041/// BKN046/// 12/09 Q////,EHHW,2024-05-05T00:55:00Z,54.037,6.042,12,9,VRB,5,,6+,0.00,,,TRUE,,,,,,,,SCT,4100,BKN,4600,,,,,VFR,,,,,,,,,,,,METAR,10
EHGG 050055Z AUTO 02002KT 5000 -DZ FEW015CB SCT036 OVC042 11/10 Q1007,EHGG,2024-05-05T00:55:00Z,53.12,6.579,11,10,20,2,,3.11,29.73,,,TRUE,,,,,,,-DZ,FEW,1500,SCT,3600,OVC,4200,,,MVFR,,,,,,,,,,,,METAR,2
EHFS 050055Z AUTO 22002KT 9999 BKN017/// BKN024/// BKN032/// 11/09 Q1009,EHFS,2024-05-05T00:55:00Z,51.441,3.596,11,9,220,2,,6+,29.79,,,TRUE,,,,,,,,BKN,1700,BKN,2400,BKN,3200,,,MVFR,,,,,,,,,,,,METAR,1
EHFD 050055Z AUTO 12012KT 9999 BKN047/// 11/09 Q1009,EHFD,2024-05-05T00:55:00Z,54.854,4.696,11,9,120,12,,6+,29.79,,,TRUE,,,,,,,,BKN,4700,,,,,,,VFR,,,,,,,,,,,,METAR,24
EHEH 050055Z AUTO 32002KT 4200 -RADZ FEW002 BKN007 OVC009 11/10 Q1008 GRN,EHEH,2024-05-05T00:55:00Z,51.45,5.377,11,10,320,2,,2.61,29.76,,,TRUE,,,,,,,-RA -DZ,FEW,200,BKN,700,OVC,900,,,IFR,,,,,,,,,,,,METAR,20
EHDV 050055Z AUTO 16008KT 9999 NSC 11/09 Q1009,EHDV,2024-05-05T00:55:00Z,54.326,2.936,11,9,160,8,,6+,29.79,,,TRUE,,,,,,,,CLR,,,,,,,,VFR,,,,,,,,,,,,METAR,36
EHDL 050055Z AUTO 28002KT 9999 // FEW002 BKN006 OVC026 10/09 Q1008 RE// YLO,EHDL,2024-05-05T00:55:00Z,52.061,5.887,10,9,280,2,,6+,29.76,,,TRUE,,,,,,,,FEW,200,BKN,600,OVC,2600,,,IFR,,,,,,,,,,,,METAR,49
EHBK 050055Z AUTO 22007KT 9999 SCT005 BKN006 BKN007 09/09 Q1008,EHBK,2024-05-05T00:55:00Z,50.905,5.762,9,9,220,7,,6+,29.76,,,TRUE,,,,,,,,SCT,500,BKN,600,BKN,700,,,IFR,,,,,,,,,,,,METAR,112
EHAM 050055Z 32005KT 9000 -RA FEW005 BKN043 10/10 Q1008 BECMG 7000,EHAM,2024-05-05T00:55:00Z,52.315,4.79,10,10,320,5,,5.59,29.76,,,,,,,,,,-RA,FEW,500,BKN,4300,,,,,VFR,,,,,,,,,,,,METAR,-2
EHAK 050055Z AUTO 14008KT 090V190 9999 NSC 10/09 Q1010,EHAK,2024-05-05T00:55:00Z,55.399,3.81,10,9,140,8,,6+,29.82,,,TRUE,,,,,,,,CLR,,,,,,,,VFR,,,,,,,,,,,,METAR,33
EGVA 050055Z AUTO 00000KT 9999 CLR 09/07 A2975 RMK AO2 DZE25 SLP078 P0000 T00880071 $,EGVA,2024-05-05T00:55:00Z,51.682,-1.79,8.8,7.1,0,0,,6+,29.75,1007.8,,TRUE,TRUE,TRUE,,,,,,CLR,,,,,,,,VFR,,,,,,0.005,,,,,,METAR,84
EGUN 050055Z 16002KT 6000 BR FEW150 09/07 A2978 RMK AO2A SLP088 T00880072 $,EGUN,2024-05-05T00:55:00Z,52.362,0.486,8.8,7.2,160,2,,3.73,29.78,1008.8,,,TRUE,TRUE,,,,,BR,FEW,15000,,,,,,,MVFR,,,,,,,,,,,,METAR,10
EGUL 050055Z AUTO 00000KT 9999 FEW130 08/07 A2977 RMK AO2 SLP085 T00820065 FZRANO $,EGUL,2024-05-05T00:55:00Z,52.409,0.561,8.2,6.5,0,0,,6+,29.77,1008.5,,TRUE,TRUE,TRUE,,,TRUE,,,FEW,13000,,,,,,,VFR,,,,,,,,,,,,METAR,8
EBLB 050055Z AUTO 23006KT 9999 OVC006/// 08/07 Q1008 YLO,EBLB,2024-05-05T00:55:00Z,50.482,6.181,8,7,230,6,,6+,29.76,,,TRUE,,,,,,,,OVC,600,,,,,,,IFR,,,,,,,,,,,,METAR,563
EBDT 050055Z AUTO 26004KT 6000 BKN002/// BKN027/// 09/09 Q1008 AMB,EBDT,2024-05-05T00:55:00Z,51.005,5.067,9,9,260,4,,3.73,29.76,,,TRUE,,,,,,,,BKN,200,BKN,2700,,,,,LIFR,,,,,,,,,,,,METAR,25
EBCV 050055Z AUTO VRB02KT 0100 FG OVC002/// 08/08 Q1009 RED,EBCV,2024-05-05T00:55:00Z,50.576,3.831,8,8,VRB,2,,0.06,29.79,,,TRUE,,,,,,,FG,OVC,200,,,,,,,LIFR,,,,,,,,,,,,METAR,56
EBBL 050055Z AUTO 23006KT 7000 BKN002/// BKN020/// ///// Q1008 AMB,EBBL,2024-05-05T00:55:00Z,51.168,5.47,,,230,6,,4.35,29.76,,,TRUE,,,,,,,,BKN,200,BKN,2000,,,,,LIFR,,,,,,,,,,,,METAR,50
EBBE 050055Z AUTO 21003KT 9999 SCT009/// 09/09 Q1009 GRN,EBBE,2024-05-05T00:55:00Z,50.759,4.768,9,9,210,3,,6+,29.79,,,TRUE,,,,,,,,SCT,900,,,,,,,VFR,,,,,,,,,,,,METAR,127
BGTL 050055Z AUTO 29006KT 9000 HZ OVC002 M11/M14 A3035 RMK AO2 SNE12SNB41E50 SLP266 P0000 T11081136 TSNO $,BGTL,2024-05-05T00:55:00Z,76.527,-68.758,-10.8,-13.6,290,6,,5.59,30.35,1026.6,,TRUE,TRUE,TRUE,,TRUE,,,HZ,OVC,200,,,,,,,LIFR,,,,,,0.005,,,,,,METAR,79
PHOG 050054Z 07026G39KT 10SM FEW040 SCT060 24/17 A2998 RMK AO2 PK WND 08039/0050 SLP158 T02440172,PHOG,2024-05-05T00:54:00Z,20.8887,-156.435,24.4,17.2,70,26,39,10+,29.98,1015.8,,,TRUE,,,,,,,FEW,4000,SCT,6000,,,,,VFR,,,,,,,,,,,,METAR,14
PHMK 050054Z 05014G30KT 10SM SCT040 26/16 A3001 RMK AO2 PK WND 06034/0011 SLP165 T02560161,PHMK,2024-05-05T00:54:00Z,21.1545,-157.096,25.6,16.1,50,14,30,10+,30.01,1016.5,,,TRUE,,,,,,,SCT,4000,,,,,,,VFR,,,,,,,,,,,,METAR,135
PGUM 050054Z 10011KT 10SM FEW020 SCT025 31/23 A2985 RMK AO2 RAB06E22 SLP099 P0000 T03060233,PGUM,2024-05-05T00:54:00Z,13.4796,144.796,30.6,23.3,100,11,,10+,29.85,1009.9,,,TRUE,,,,,,,FEW,2000,SCT,2500,,,,,VFR,,,,,,0.005,,,,,,METAR,74
PGSN 050054Z 07010G17KT 10SM SCT020 SCT032 32/24 A2985 RMK AO2 SLP128 T03170239 $,PGSN,2024-05-05T00:54:00Z,15.116,145.72,31.7,23.9,70,10,17,10+,29.85,1012.8,,,TRUE,TRUE,,,,,,SCT,2000,SCT,3200,,,,,VFR,,,,,,,,,,,,METAR,65
PAKN 050054Z 17006KT 4SM R12/6000FT RA BKN029 OVC036 05/02 A2917 RMK AO2 RAB25 SLP879 P0003 T00500022,PAKN,2024-05-05T00:54:00Z,58.683,-156.656,5,2.2,170,6,,4,29.17,987.9,,,TRUE,,,,,,RA,BKN,2900,OVC,3600,,,,,MVFR,,,,,,0.03,,,,,,METAR,20
PAHN 050054Z AUTO 12003KT 10SM OVC100 14/01 A2958 RMK AO2 SLP019 T01440011 TSNO,PAHN,2024-05-05T00:54:00Z,59.243,-135.511,14.4,1.1,120,3,,10+,29.58,1001.9,,TRUE,TRUE,,,TRUE,,,,OVC,10000,,,,,,,VFR,,,,,,,,,,,,METAR,15
KWLD 050054Z AUTO 06006KT 10SM CLR 18/12 A3002 RMK AO2 SLP160 T01830122 $,KWLD,2024-05-05T00:54:00Z,37.1649,-97.035,18.3,12.2,60,6,,10+,30.02,1016,,TRUE,TRUE,TRUE,,,,,,CLR,,,,,,,,VFR,,,,,,,,,,,,METAR,351
KWAL 050054Z AUTO 08012KT 10SM BKN017 OVC028 13/11 A3022 RMK AO2 SLP231 T01330111,KWAL,2024-05-05T00:54:00Z,37.9372,-75.4662,13.3,11.1,80,12,,10+,30.22,1023.1,,TRUE,TRUE,,,,,,,BKN,1700,OVC,2800,,,,,MVFR,,,,,,,,,,,,METAR,10
KVTA 050054Z AUTO 00000KT 7SM -RA BKN060 BKN080 OVC120 21/18 A2993 RMK AO2 RAB2356 SLP129 P0004 T02060183,KVTA,2024-05-05T00:54:00Z,40.0263,-82.4635,20.6,18.3,0,0,,7,29.93,1012.9,,TRUE,TRUE,,,,,,-RA,BKN,6000,BKN,8000,OVC,12000,,,VFR,,,,,,0.04,,,,,,METAR,268
KVSF 050054Z AUTO 13008KT 10SM CLR 13/06 A3032 RMK AO2 SLP270 T01330061,KVSF,2024-05-05T00:54:00Z,43.3421,-72.5213,13.3,6.1,130,8,,10+,30.32,1027,,TRUE,TRUE,,,,,,,CLR,,,,,,,,VFR,,,,,,,,,,,,METAR,176
KVAY 050054Z AUTO 08004KT 6SM -RA BR BKN007 OVC036 10/09 A3030 RMK AO2 CIG 004V009 SLP258 P0008 T01000089,KVAY,2024-05-05T00:54:00Z,39.9408,-74.8407,10,8.9,80,4,,6,30.30,1025.8,,TRUE,TRUE,,,,,,-RA BR,BKN,700,OVC,3600,,,,,IFR,,,,,,0.08,,,,,,METAR,15
KUZA 050054Z AUTO 14003KT 9SM -RA FEW014 BKN090 OVC120 19/19 A3007 RMK AO2 RAB38 SLP175 P0001 T01940189,KUZA,2024-05-05T00:54:00Z,34.9836,-81.0562,19.4,18.9,140,3,,9,30.07,1017.5,,TRUE,TRUE,,,,,,-RA,FEW,1400,BKN,9000,OVC,12000,,,VFR,,,,,,0.01,,,,,,METAR,198
KUIN 050054Z AUTO 33013KT 10SM OVC026 17/12 A2999 RMK AO2 SLP151 T01670117,KUIN,2024-05-05T00:54:00Z,39.9371,-91.1966,16.7,11.7,330,13,,10+,29.99,1015.1,,TRUE,TRUE,,,,,,,OVC,2600,,,,,,,MVFR,,,,,,,,,,,,METAR,233
KTQE 050054Z AUTO 02004KT 10SM CLR 16/08 A3006 RMK AO2 SLP175 T01610078,KTQE,2024-05-05T00:54:00Z,41.763,-96.1797,16.1,7.8,20,4,,10+,30.06,1017.5,,TRUE,TRUE,,,,,,,CLR,,,,,,,,VFR,,,,,,,,,,,,METAR,312
KTAD 050054Z AUTO 10SM CLR 16/01 A3000 RMK AO2 SLP121 T01610011,KTAD,2024-05-05T00:54:00Z,37.2618,-104.332,16.1,1.1,,,,10+,30.00,1012.1,,TRUE,TRUE,,,,,,,CLR,,,,,,,,VFR,,,,,,,,,,,,METAR,1751
KSYR 050054Z 14012KT 10SM BKN065 BKN160 BKN250 17/07 A3015 RMK AO2 SLP206 T01720067 $,KSYR,2024-05-05T00:54:00Z,43.1111,-76.1038,17.2,6.7,140,12,,10+,30.15,1020.6,,,TRUE,TRUE,,,,,,BKN,6500,BKN,16000,BKN,25000,,,VFR,,,,,,,,,,,,METAR,125
KSUS 050054Z 28006KT 10SM CLR 22/18 A2993 RMK AO2 SLP131 T02170178,KSUS,2024-05-05T00:54:00Z,38.6575,-90.6557,21.7,17.8,280,6,,10+,29.93,1013.1,,,TRUE,,,,,,,CLR,,,,,,,,VFR,,,,,,,,,,,,METAR,140
KSLC 050054Z 17015G25KT 10SM FEW090 SCT100 BKN140 OVC230 24/M03 A2955 RMK AO2 PK WND 16031/0024 SLP971 VIRGA BLDU DSNT W T02391028,KSLC,2024-05-05T00:54:00Z,40.7707,-111.965,23.9,-2.8,170,15,25,10+,29.55,997.1,,,TRUE,,,,,,,FEW,9000,SCT,10000,BKN,14000,OVC,23000,VFR,,,,,,,,,,,,METAR,1286
KSET 050054Z AUTO 01004KT 10SM FEW031 20/18 A2992 RMK AO2 SLP130 T02000183,KSET,2024-05-05T00:54:00Z,38.9304,-90.4329,20,18.3,10,4,,10+,29.92,1013,,TRUE,TRUE,,,,,,,FEW,3100,,,,,,,VFR,,,,,,,,,,,,METAR,133
KSBN 050054Z 14005KT 10SM CLR 23/14 A2985 RMK AO2 SLP105 T02330144,KSBN,2024-05-05T00:54:00Z,41.7072,-86.3163,23.3,14.4,140,5,,10+,29.85,1010.5,,,TRUE,,,,,,,CLR,,,,,,,,VFR,,,,,,,,,,,,METAR,236
KRST 050054Z 34007KT 10SM CLR 11/06 A2999 RMK AO2 SLP161 T01110056,KRST,2024-05-05T00:54:00Z,43.904,-92.4921,11.1,5.6,340,7,,10+,29.99,1016.1,,,TRUE,,,,,,,CLR,,,,,,,,VFR,,,,,,,,,,,,METAR,398
KRSP 050054Z AUTO 11009G19KT 1/4SM FG VV002 08/08 A3018 RMK AO2 SLP232 T00830083 PWINO $,KRSP,2024-05-05T00:54:00Z,39.646,-77.468,8.3,8.3,110,9,19,0.25,30.18,1023.2,,TRUE,TRUE,TRUE,,,,TRUE,FG,OVX,0,,,,,,,LIFR,,,,,,,,,,,200,METAR,555
KROC 050054Z 19013G21KT 10SM OVC110 16/08 A3009 RMK AO2 SLP193 T01610083,KROC,2024-05-05T00:54:00Z,43.1172,-77.6754,16.1,8.3,190,13,21,10+,30.09,1019.3,,,TRUE,,,,,,,OVC,11000,,,,,,,VFR,,,,,,,,,,,,METAR,166
KROA 050054Z 14006KT 2 1/2SM OVC004 14/12 A3016 RMK AO2 SFC VIS 8 SLP209 T01390122 $,KROA,2024-05-05T00:54:00Z,37.3172,-79.9737,13.9,12.2,140,6,,2.5,30.16,1020.9,,,TRUE,TRUE,,,,,,OVC,400,,,,,,,LIFR,,,,,,,,,,,,METAR,349
KRKS 050054Z AUTO 19015G23KT 10SM CLR 17/M06 A2981 RMK AO2 PK WND 17027/0010 SLP055 T01721056,KRKS,2024-05-05T00:54:00Z,41.5947,-109.053,17.2,-5.6,190,15,23,10+,29.81,1005.5,,TRUE,TRUE,,,,,,,CLR,,,,,,,,VFR,,,,,,,,,,,,METAR,2062
KRIC 050054Z 07005KT 9SM OVC007 16/13 A3017 RMK AO2 SLP220 T01560133,KRIC,2024-05-05T00:54:00Z,37.5115,-77.3234,15.6,13.3,70,5,,9,30.17,1022,,,TRUE,,,,,,,OVC,700,,,,,,,IFR,,,,,,,,,,,,METAR,51
KRFD 050054Z 30014G22KT 10SM BKN037 OVC048 18/14 A2990 RMK AO2 SLP125 T01780139 $,KRFD,2024-05-05T00:54:00Z,42.1915,-89.0876,17.8,13.9,300,14,22,10+,29.90,1012.5,,,TRUE,TRUE,,,,,,BKN,3700,OVC,4800,,,,,VFR,,,,,,,,,,,,METAR,222
KRDG 050054Z 10007G14KT 3SM -RA BR OVC012 11/08 A3026 RMK AO2 SLP253 P0001 T01060083,KRDG,2024-05-05T00:54:00Z,40.3734,-75.9593,10.6,8.3,100,7,14,3,30.26,1025.3,,,TRUE,,,,,,-RA BR,OVC,1200,,,,,,,MVFR,,,,,,0.01,,,,,,METAR,101
KRBL 050054Z AUTO 10004KT 10SM SCT041 BKN049 BKN070 11/06 A2971 RMK AO2 SLP059 T01110061,KRBL,2024-05-05T00:54:00Z,40.1519,-122.255,11.1,6.1,100,4,,10+,29.71,1005.9,,TRUE,TRUE,,,,,,,SCT,4100,BKN,4900,BKN,7000,,,VFR,,,,,,,,,,,,METAR,107
KPTW 050054Z AUTO VRB03KT 7SM BKN006 BKN011 OVC016 09/08 A3029 RMK AO2 RAE2356B15E49 CIG 004V010 SLP257 P0000 T00940083 $,KPTW,2024-05-05T00:54:00Z,40.238,-75.5549,9.4,8.3,VRB,3,,7,30.29,1025.7,,TRUE,TRUE,TRUE,,,,,,BKN,600,BKN,1100,OVC,1600,,,IFR,,,,,,0.005,,,,,,METAR,88
KPSF 050054Z AUTO 13003KT 10SM BKN047 13/06 A3027 RMK AO2 SLP239 T01330061,KPSF,2024-05-05T00:54:00Z,42.4268,-73.2891,13.3,6.1,130,3,,10+,30.27,1023.9,,TRUE,TRUE,,,,,,,BKN,4700,,,,,,,VFR,,,,,,,,,,,,METAR,352
KPNE 050054Z 09008KT 10SM BKN010 OVC035 11/09 A3031 RMK AO2 RAB17E51 CIG 006V014 SLP263 P0001 T01060089,KPNE,2024-05-05T00:54:00Z,40.0789,-75.0133,10.6,8.9,90,8,,10+,30.31,1026.3,,,TRUE,,,,,,,BKN,1000,OVC,3500,,,,,MVFR,,,,,,0.01,,,,,,METAR,32
KPLN 050054Z AUTO 36003KT 10SM CLR 16/10 A2982 RMK AO2 SLP100 T01560100,KPLN,2024-05-05T00:54:00Z,45.5644,-84.7929,15.6,10,360,3,,10+,29.82,1010,,TRUE,TRUE,,,,,,,CLR,,,,,,,,VFR,,,,,,,,,,,,METAR,215
KPIA 050054Z 30013G20KT 10SM FEW029 OVC042 20/15 A2992 RMK AO2 SLP131 T02000150,KPIA,2024-05-05T00:54:00Z,40.6675,-89.6842,20,15,300,13,20,10+,29.92,1013.1,,,TRUE,,,,,,,FEW,2900,OVC,4200,,,,,VFR,,,,,,,,,,,,METAR,200
KPHL 050054Z 08011KT 8SM -RA FEW009 SCT014 OVC035 11/09 A3029 RMK AO2 SLP255 P0002 T01060089,KPHL,2024-05-05T00:54:00Z,39.8733,-75.2268,10.6,8.9,80,11,,8,30.29,1025.5,,,TRUE,,,,,,-RA,FEW,900,SCT,1400,OVC,3500,,,VFR,,,,,,0.02,,,,,,METAR,2
KPHF 050054Z 07009KT 10SM FEW009 BKN026 OVC055 16/14 A3017 RMK AO2 SLP216 T01560139,KPHF,2024-05-05T00:54:00Z,37.1322,-76.494,15.6,13.9,70,9,,10+,30.17,1021.6,,,TRUE,,,,,,,FEW,900,BKN,2600,OVC,5500,,,MVFR,,,,,,,,,,,,METAR,12
KORH 050054Z 09006KT 10SM CLR 09/04 A3034 RMK AO2 SLP280 T00890044,KORH,2024-05-05T00:54:00Z,42.2706,-71.8731,8.9,4.4,90,6,,10+,30.34,1028,,,TRUE,,,,,,,CLR,,,,,,,,VFR,,,,,,,,,,,,METAR,306
KOLS 050054Z AUTO 25011G19KT 10SM CLR 26/M09 A2989 RMK AO2 SLP068 T02611089,KOLS,2024-05-05T00:54:00Z,31.4208,-110.847,26.1,-8.9,250,11,19,10+,29.89,1006.8,,TRUE,TRUE,,,,,,,CLR,,,,,,,,VFR,,,,,,,,,,,,METAR,1194
KOLM 050054Z 21007KT 5SM -RA BR FEW007 OVC029 11/09 A2959 RMK AO2 SLP019 P0006 T01060094,KOLM,2024-05-05T00:54:00Z,46.9737,-122.905,10.6,9.4,210,7,,5,29.59,1001.9,,,TRUE,,,,,,-RA BR,FEW,700,OVC,2900,,,,,MVFR,,,,,,0.06,,,,,,METAR,58
KOFP 050054Z AUTO 08005KT 4SM BR OVC004 14/14 A3019 RMK AO2 SLP221 T01440139,KOFP,2024-05-05T00:54:00Z,37.7093,-77.4349,14.4,13.9,80,5,,4,30.19,1022.1,,TRUE,TRUE,,,,,,BR,OVC,400,,,,,,,LIFR,,,,,,,,,,,,METAR,63
KNAK 050054Z AUTO 09011KT 10SM OVC017 13/11 A3023 RMK AO2 SLP240 T01280106 $,KNAK,2024-05-05T00:54:00Z,38.9913,-76.4891,12.8,10.6,90,11,,10+,30.23,1024,,TRUE,TRUE,TRUE,,,,,,OVC,1700,,,,,,,MVFR,,,,,,,,,,,,METAR,2
KN60 050054Z AUTO 17004KT 11/03 A2998 RMK AO1 SLP163 T01110028,KN60,2024-05-05T00:54:00Z,47.654,-101.436,11.1,2.8,170,4,,,29.98,1016.3,,TRUE,TRUE,,,,,,,,,,,,,,,,,,,,,,,,,,,METAR,582
KMVL 050054Z AUTO 17009G19KT 10SM OVC080 16/07 A3026 RMK AO2 SLP247 T01560072,KMVL,2024-05-05T00:54:00Z,44.5328,-72.6152,15.6,7.2,170,9,19,10+,30.26,1024.7,,TRUE,TRUE,,,,,,,OVC,8000,,,,,,,VFR,,,,,,,,,,,,METAR,226
KMTP 050054Z AUTO 10003KT 10/07 A3036 RMK AO1 SLP282 T01000072,KMTP,2024-05-05T00:54:00Z,41.073,-71.9235,10,7.2,100,3,,,30.36,1028.2,,TRUE,TRUE,,,,,,,,,,,,,,,,,,,,,,,,,,,METAR,2
KMTN 050054Z 08007KT 10SM OVC011 12/11 A3026,KMTN,2024-05-05T00:54:00Z,39.3214,-76.4065,12,11,80,7,,10+,30.26,,,,,,,,,,,OVC,1100,,,,,,,MVFR,,,,,,,,,,,,METAR,2
KMRY 050054Z 26009KT 10SM BKN043 BKN050 12/07 A2990 RMK AO2 SLP138 T01170072,KMRY,2024-05-05T00:54:00Z,36.5904,-121.849,11.7,7.2,260,9,,10+,29.90,1013.8,,,TRUE,,,,,,,BKN,4300,BKN,5000,,,,,VFR,,,,,,,,,,,,METAR,51
KMOT 050054Z 00000KT 10SM SCT050 OVC080 12/03 A2997 RMK AO2 SLP158 T01220028,KMOT,2024-05-05T00:54:00Z,48.252,-101.269,12.2,2.8,0,0,,10+,29.97,1015.8,,,TRUE,,,,,,,SCT,5000,OVC,8000,,,,,VFR,,,,,,,,,,,,METAR,507
KMKC 050054Z 36006KT 10SM BKN032 15/08 A3005 RMK AO2 SLP174 T01500083,KMKC,2024-05-05T00:54:00Z,39.1279,-94.5892,15,8.3,360,6,,10+,30.05,1017.4,,,TRUE,,,,,,,BKN,3200,,,,,,,VFR,,,,,,,,,,,,METAR,228
KMIV 050054Z AUTO 08008KT 10SM BKN009 OVC034 09/08 A3027 RMK AO2 CIG 006V012 SLP248 T00940083,KMIV,2024-05-05T00:54:00Z,39.3662,-75.0778,9.4,8.3,80,8,,10+,30.27,1024.8,,TRUE,TRUE,,,,,,,BKN,900,OVC,3400,,,,,IFR,,,,,,,,,,,,METAR,18
KMGJ 050054Z AUTO 23005KT 10SM -RA FEW090 OVC110 11/09 A3028 RMK AO2 RAB03E21B37 SLP255 P0001 T01110089,KMGJ,2024-05-05T00:54:00Z,41.509,-74.2645,11.1,8.9,230,5,,10+,30.28,1025.5,,TRUE,TRUE,,,,,,-RA,FEW,9000,OVC,11000,,,,,VFR,,,,,,0.01,,,,,,METAR,106
KMFI 050054Z AUTO 32013KT 10SM FEW024 BKN037 11/08 A2993 RMK AO2 SLP137 T01110078,KMFI,2024-05-05T00:54:00Z,44.6379,-90.1875,11.1,7.8,320,13,,10+,29.93,1013.7,,TRUE,TRUE,,,,,,,FEW,2400,BKN,3700,,,,,VFR,,,,,,,,,,,,METAR,383
KMEM 050054Z 25003KT 10SM FEW200 BKN250 23/19 A2995 RMK AO2 SLP138 T02330189 $,KMEM,2024-05-05T00:54:00Z,35.0564,-89.9864,23.3,18.9,250,3,,10+,29.95,1013.8,,,TRUE,TRUE,,,,,,FEW,20000,BKN,25000,,,,,VFR,,,,,,,,,,,,METAR,78
KLYH 050054Z 03004KT 4SM -RA BR OVC003 13/13 A3016 RMK AO2 RAB2359E24B50 SLP210 P0000 T01280128,KLYH,2024-05-05T00:54:00Z,37.3213,-79.2065,12.8,12.8,30,4,,4,30.16,1021,,,TRUE,,,,,,-RA BR,OVC,300,,,,,,,LIFR,,,,,,0.005,,,,,,METAR,282
KLWT 050054Z AUTO 12012KT 10SM CLR 14/M02 A2977 RMK AO2 SLP084 T01441022,KLWT,2024-05-05T00:54:00Z,47.0544,-109.457,14.4,-2.2,120,12,,10+,29.77,1008.4,,TRUE,TRUE,,,,,,,CLR,,,,,,,,VFR,,,,,,,,,,,,METAR,1254
KLWM 050054Z VRB03KT 10SM OVC038 09/06 A3040 RMK AO2 SLP294 T00890061,KLWM,2024-05-05T00:54:00Z,42.7125,-71.1256,8.9,6.1,VRB,3,,10+,30.40,1029.4,,,TRUE,,,,,,,OVC,3800,,,,,,,VFR,,,,,,,,,,,,METAR,42
KLNK 050054Z 03006KT 10SM CLR 14/06 A3008 RMK AO2 SLP186 T01440061,KLNK,2024-05-05T00:54:00Z,40.8478,-96.7647,14.4,6.1,30,6,,10+,30.08,1018.6,,,TRUE,,,,,,,CLR,,,,,,,,VFR,,,,,,,,,,,,METAR,357
KLEX 050054Z 20005KT 10SM CLR 21/18 A2994 RMK AO2 SLP132 T02110178,KLEX,2024-05-05T00:54:00Z,38.0339,-84.6114,21.1,17.8,200,5,,10+,29.94,1013.2,,,TRUE,,,,,,,CLR,,,,,,,,VFR,,,,,,,,,,,,METAR,294
KLAF 050054Z AUTO 19004KT 10SM FEW070 24/14 A2984 RMK AO2 SLP101 T02390139,KLAF,2024-05-05T00:54:00Z,40.4124,-86.9474,23.9,13.9,190,4,,10+,29.84,1010.1,,TRUE,TRUE,,,,,,,FEW,7000,,,,,,,VFR,,,,,,,,,,,,METAR,182
KJST 050054Z AUTO 14006KT 8SM -RA OVC004 09/08 A3012 RMK AO2 SLP204 P0001 T00890078,KJST,2024-05-05T00:54:00Z,40.3149,-78.8307,8.9,7.8,140,6,,8,30.12,1020.4,,TRUE,TRUE,,,,,,-RA,OVC,400,,,,,,,LIFR,,,,,,0.01,,,,,,METAR,695
KJAN 050054Z 05003KT 10SM BKN048 BKN055 26/21 A2997 RMK AO2 SLP143 T02610211,KJAN,2024-05-05T00:54:00Z,32.3198,-90.0778,26.1,21.1,50,3,,10+,29.97,1014.3,,,TRUE,,,,,,,BKN,4800,BKN,5500,,,,,VFR,,,,,,,,,,,,METAR,92
KIZG 050054Z AUTO 12007KT 10SM BKN040 10/06 A3038 RMK AO2 SLP289 T01000061,KIZG,2024-05-05T00:54:00Z,43.9899,-70.9501,10,6.1,120,7,,10+,30.38,1028.9,,TRUE,TRUE,,,,,,,BKN,4000,,,,,,,VFR,,,,,,,,,,,,METAR,138
KISW 050054Z AUTO 32007KT 10SM FEW039 12/08 A2994 RMK AO2 SLP139 T01170078,KISW,2024-05-05T00:54:00Z,44.3591,-89.837,11.7,7.8,320,7,,10+,29.94,1013.9,,TRUE,TRUE,,,,,,,FEW,3900,,,,,,,VFR,,,,,,,,,,,,METAR,311
KINT 050054Z 06005KT 3SM -RA BR OVC002 16/14 A3011 RMK AO2 RAE2358B36 SLP190 P0002 T01610144,KINT,2024-05-05T00:54:00Z,36.1335,-80.2244,16.1,14.4,60,5,,3,30.11,1019,,,TRUE,,,,,,-RA BR,OVC,200,,,,,,,LIFR,,,,,,0.02,,,,,,METAR,292
KINL 050054Z AUTO 33011KT 10SM BKN050 OVC110 11/02 A2996 RMK AO2 SLP153 T01060017 $,KINL,2024-05-05T00:54:00Z,48.5594,-93.3955,10.6,1.7,330,11,,10+,29.96,1015.3,,TRUE,TRUE,TRUE,,,,,,BKN,5000,OVC,11000,,,,,VFR,,,,,,,,,,,,METAR,353
KIND 050054Z 23006KT 10SM FEW060 SCT250 23/15 A2987 RMK AO2 SLP111 T02280150,KIND,2024-05-05T00:54:00Z,39.7252,-86.2816,22.8,15,230,6,,10+,29.87,1011.1,,,TRUE,,,,,,,FEW,6000,SCT,25000,,,,,VFR,,,,,,,,,,,,METAR,242
KIMT 050054Z AUTO 32013G20KT 6SM BR SCT009 OVC020 10/08 A2986 RMK AO2 RAE35 SLP117 P0000 T01000083,KIMT,2024-05-05T00:54:00Z,45.8134,-88.1129,10,8.3,320,13,20,6,29.86,1011.7,,TRUE,TRUE,,,,,,BR,SCT,900,OVC,2000,,,,,MVFR,,,,,,0.005,,,,,,METAR,343
KILN 050054Z AUTO 17005KT 10SM FEW120 19/17 A2991 RMK AO2 LTG DSNT SE RAE24 SLP125 P0001 T01890172,KILN,2024-05-05T00:54:00Z,39.4308,-83.777,18.9,17.2,170,5,,10+,29.91,1012.5,,TRUE,TRUE,,,,,,,FEW,12000,,,,,,,VFR,,,,,,0.01,,,,,,METAR,325
KHWD 050054Z 25011G19KT 10SM FEW024 SCT035 SCT050 13/06 A2986 RMK AO2 RAB34E43 SLP120 P0000 T01330056,KHWD,2024-05-05T00:54:00Z,37.6589,-122.121,13.3,5.6,250,11,19,10+,29.86,1012,,,TRUE,,,,,,,FEW,2400,SCT,3500,SCT,5000,,,VFR,,,,,,0.005,,,,,,METAR,9
KGSO 050054Z 04009KT 1/2SM -RA BR OVC002 16/15 A3010 RMK AO2 SFC VIS 1 RAE01B18 SLP187 P0000 T01560150 RVRNO $,KGSO,2024-05-05T00:54:00Z,36.0969,-79.9432,15.6,15,40,9,,0.5,30.10,1018.7,,,TRUE,TRUE,,,,,-RA BR,OVC,200,,,,,,,LIFR,,,,,,0.005,,,,,,METAR,275
KGED 050054Z AUTO 10010KT 10SM OVC008 11/10 A3025 RMK AO2 SLP243 T01110100,KGED,2024-05-05T00:54:00Z,38.6898,-75.3625,11.1,10,100,10,,10+,30.25,1024.3,,TRUE,TRUE,,,,,,,OVC,800,,,,,,,IFR,,,,,,,,,,,,METAR,15
KGCN 050054Z 21020G32KT 10SM FEW085 17/M02 A2991 RMK AO2 PK WND 21033/0033 SLP075 T01721017,KGCN,2024-05-05T00:54:00Z,35.9458,-112.155,17.2,-1.7,210,20,32,10+,29.91,1007.5,,,TRUE,,,,,,,FEW,8500,,,,,,,VFR,,,,,,,,,,,,METAR,1993
KGCK 050054Z 09010KT 10SM CLR 15/03 A3001 RMK AO2 SLP155 T01500028,KGCK,2024-05-05T00:54:00Z,37.9221,-100.723,15,2.8,90,10,,10+,30.01,1015.5,,,TRUE,,,,,,,CLR,,,,,,,,VFR,,,,,,,,,,,,METAR,877
KFZY 050054Z AUTO 18007KT 10SM BKN050 17/08 A3013 RMK AO2 SLP201 T01670078,KFZY,2024-05-05T00:54:00Z,43.3504,-76.3831,16.7,7.8,180,7,,10+,30.13,1020.1,,TRUE,TRUE,,,,,,,BKN,5000,,,,,,,VFR,,,,,,,,,,,,METAR,143
KFWA 050054Z 11008KT 10SM FEW100 SCT250 21/17 A2989 RMK AO2 SLP117 T02110167,KFWA,2024-05-05T00:54:00Z,40.9725,-85.2064,21.1,16.7,110,8,,10+,29.89,1011.7,,,TRUE,,,,,,,FEW,10000,SCT,25000,,,,,VFR,,,,,,,,,,,,METAR,243
KFIG 050054Z AUTO 11003KT 6SM RA BR OVC011 10/08 A3015 RMK AO2 SLP213 P0007 T01000083 $,KFIG,2024-05-05T00:54:00Z,41.0465,-78.4112,10,8.3,110,3,,6,30.15,1021.3,,TRUE,TRUE,TRUE,,,,,RA BR,OVC,1100,,,,,,,MVFR,,,,,,0.07,,,,,,METAR,461
KFFZ 050054Z 26007KT 10SM CLR 32/01 A2969 RMK AO2 SLP029 T03220006,KFFZ,2024-05-05T00:54:00Z,33.4659,-111.721,32.2,0.6,260,7,,10+,29.69,1002.9,,,TRUE,,,,,,,CLR,,,,,,,,VFR,,,,,,,,,,,,METAR,420
KEWN 050054Z AUTO 16004KT 10SM CLR 22/18 A3012 RMK AO2 SLP200 T02170183,KEWN,2024-05-05T00:54:00Z,35.0684,-77.0478,21.7,18.3,160,4,,10+,30.12,1020,,TRUE,TRUE,,,,,,,CLR,,,,,,,,VFR,,,,,,,,,,,,METAR,3
KEVV 050054Z 21005KT 10SM SCT060 24/17 A2990 RMK AO2 SLP119 T02440172 $,KEVV,2024-05-05T00:54:00Z,38.0502,-87.5147,24.4,17.2,210,5,,10+,29.90,1011.9,,,TRUE,TRUE,,,,,,SCT,6000,,,,,,,VFR,,,,,,,,,,,,METAR,123
KEUG 050054Z 20008KT 10SM FEW023 BKN030 OVC060 11/07 A2970 RMK AO2 SLP057 T01060067,KEUG,2024-05-05T00:54:00Z,44.1331,-123.216,10.6,6.7,200,8,,10+,29.70,1005.7,,,TRUE,,,,,,,FEW,2300,BKN,3000,OVC,6000,,,MVFR,,,,,,,,,,,,METAR,109
KEFD 050054Z 09014KT 10SM BKN019 25/23 A2989,KEFD,2024-05-05T00:54:00Z,29.606,-95.16,25,23,90,14,,10+,29.89,,,,,,,,,,,BKN,1900,,,,,,,MVFR,,,,,,,,,,,,METAR,9
KECG 050054Z 14013G20KT 10SM FEW026 21/18 A3015 RMK AO2 SLP208 T02110178,KECG,2024-05-05T00:54:00Z,36.2571,-76.1716,21.1,17.8,140,13,20,10+,30.15,1020.8,,,TRUE,,,,,,,FEW,2600,,,,,,,VFR,,,,,,,,,,,,METAR,2
KDYL 050054Z AUTO 00000KT 7SM -RA BKN006 OVC034 10/09 A3029 RMK AO2 CIG 004V010 SLP257 P0001 T01000089 $,KDYL,2024-05-05T00:54:00Z,40.3302,-75.1228,10,8.9,0,0,,7,30.29,1025.7,,TRUE,TRUE,TRUE,,,,,-RA,BKN,600,OVC,3400,,,,,IFR,,,,,,0.01,,,,,,METAR,121
KDSM 050054Z 34004KT 10SM FEW030 13/06 A3005 RMK AO2 SLP174 T01330056,KDSM,2024-05-05T00:54:00Z,41.534,-93.6531,13.3,5.6,340,4,,10+,30.05,1017.4,,,TRUE,,,,,,,FEW,3000,,,,,,,VFR,,,,,,,,,,,,METAR,286
KDDH 050054Z AUTO 14012G21KT 10SM CLR 15/07 A3025 RMK AO2 SLP243 T01500067,KDDH,2024-05-05T00:54:00Z,42.8935,-73.2488,15,6.7,140,12,21,10+,30.25,1024.3,,TRUE,TRUE,,,,,,,CLR,,,,,,,,VFR,,,,,,,,,,,,METAR,241
KCRW 050054Z 20005KT 10SM SCT065 BKN090 OVC150 19/17 A2998 RMK AO2 SLP147 T01940167 $,KCRW,2024-05-05T00:54:00Z,38.3795,-81.5911,19.4,16.7,200,5,,10+,29.98,1014.7,,,TRUE,TRUE,,,,,,SCT,6500,BKN,9000,OVC,15000,,,VFR,,,,,,,,,,,,METAR,278
KCOU 050054Z 30010KT 10SM OVC027 18/13 A3000 RMK AO2 SLP153 T01780128,KCOU,2024-05-05T00:54:00Z,38.8171,-92.2148,17.8,12.8,300,10,,10+,30.00,1015.3,,,TRUE,,,,,,,OVC,2700,,,,,,,MVFR,,,,,,,,,,,,METAR,272
KCOS 050054Z 17013KT 10SM SCT120 BKN170 BKN250 13/M02 A3003 RMK AO2 SLP145 T01281022,KCOS,2024-05-05T00:54:00Z,38.8095,-104.689,12.8,-2.2,170,13,,10+,30.03,1014.5,,,TRUE,,,,,,,SCT,12000,BKN,17000,BKN,25000,,,VFR,,,,,,,,,,,,METAR,1886
KCEU 050054Z AUTO 00000KT 8SM SCT001 BKN090 OVC110 18/18 A3005 RMK AO2 SLP167 T01830183,KCEU,2024-05-05T00:54:00Z,34.6722,-82.8814,18.3,18.3,0,0,,8,30.05,1016.7,,TRUE,TRUE,,,,,,,SCT,100,BKN,9000,OVC,11000,,,VFR,,,,,,,,,,,,METAR,270
KCAR 050054Z AUTO 17006KT 10SM FEW050 OVC110 13/06 A3036 RMK AO2 SLP287 T01280056,KCAR,2024-05-05T00:54:00Z,46.8705,-68.0172,12.8,5.6,170,6,,10+,30.36,1028.7,,TRUE,TRUE,,,,,,,FEW,5000,OVC,11000,,,,,VFR,,,,,,,,,,,,METAR,189
KBWI 050054Z 10008KT 2SM -DZ BR OVC006 11/11 A3023 RMK AO2 SLP237 P0000 T01060106,KBWI,2024-05-05T00:54:00Z,39.1733,-76.684,10.6,10.6,100,8,,2,30.23,1023.7,,,TRUE,,,,,,-DZ BR,OVC,600,,,,,,,IFR,,,,,,0.005,,,,,,METAR,42
KBUY 050054Z AUTO 03005KT 5SM BR OVC003 17/16 A3011 RMK AO2 RAB2358E08 SLP192 P0000 T01670161,KBUY,2024-05-05T00:54:00Z,36.0475,-79.4737,16.7,16.1,30,5,,5,30.11,1019.2,,TRUE,TRUE,,,,,,BR,OVC,300,,,,,,,LIFR,,,,,,0.005,,,,,,METAR,185
KBUF 050054Z 17015KT 10SM BKN075 BKN100 17/09 A3004 RMK AO2 SLP172 T01720094 $,KBUF,2024-05-05T00:54:00Z,42.94,-78.7361,17.2,9.4,170,15,,10+,30.04,1017.2,,,TRUE,TRUE,,,,,,BKN,7500,BKN,10000,,,,,VFR,,,,,,,,,,,,METAR,217
KBTV 050054Z 14010KT 10SM CLR 18/07 A3021 RMK AO2 SLP229 T01780072,KBTV,2024-05-05T00:54:00Z,44.4683,-73.1499,17.8,7.2,140,10,,10+,30.21,1022.9,,,TRUE,,,,,,,CLR,,,,,,,,VFR,,,,,,,,,,,,METAR,101
KBOS 050054Z 09008KT 10SM BKN010 OVC039 08/06 A3039 RMK AO2 SLP289 T00830061,KBOS,2024-05-05T00:54:00Z,42.3606,-71.0097,8.3,6.1,90,8,,10+,30.39,1028.9,,,TRUE,,,,,,,BKN,1000,OVC,3900,,,,,MVFR,,,,,,,,,,,,METAR,4
KBFL 050054Z 35015KT 9SM -RA OVC085 16/11 A2981 RMK AO2 SLP091 P0000 T01560106,KBFL,2024-05-05T00:54:00Z,35.4342,-119.055,15.6,10.6,350,15,,9,29.81,1009.1,,,TRUE,,,,,,-RA,OVC,8500,,,,,,,VFR,,,,,,0.005,,,,,,METAR,146
KAVP 050054Z VRB03KT 6SM -RA BKN018 OVC046 11/08 A3024 RMK AO2 SLP240 P0008 T01060078,KAVP,2024-05-05T00:54:00Z,41.3335,-75.7227,10.6,7.8,VRB,3,,6,30.24,1024,,,TRUE,,,,,,-RA,BKN,1800,OVC,4600,,,,,MVFR,,,,,,0.08,,,,,,METAR,290
KAVL 050054Z 00000KT 7SM -RA FEW013 BKN070 OVC090 18/17 A3009 RMK AO2 SLP169 P0003 T01830172,KAVL,2024-05-05T00:54:00Z,35.4318,-82.5379,18.3,17.2,0,0,,7,30.09,1016.9,,,TRUE,,,,,,-RA,FEW,1300,BKN,7000,OVC,9000,,,VFR,,,,,,0.03,,,,,,METAR,646
KAUW 050054Z AUTO 30011KT 10SM FEW026 BKN040 12/08 A2990 RMK AO2 SLP131 T01170078,KAUW,2024-05-05T00:54:00Z,44.9265,-89.6248,11.7,7.8,300,11,,10+,29.90,1013.1,,TRUE,TRUE,,,,,,,FEW,2600,BKN,4000,,,,,VFR,,,,,,,,,,,,METAR,367
KAPN 050054Z AUTO 12007KT 10SM OVC060 12/11 A2988 RMK AO2 SLP121 T01170106,KAPN,2024-05-05T00:54:00Z,45.0716,-83.5645,11.7,10.6,120,7,,10+,29.88,1012.1,,TRUE,TRUE,,,,,,,OVC,6000,,,,,,,VFR,,,,,,,,,,,,METAR,208
KAPC 050054Z COR 25017KT 10SM SCT035 12/05 A2981 RMK AO2 PK WND 25028/0006 SLP086 T01220050,KAPC,2024-05-05T00:54:00Z,38.2075,-122.28,12.2,5,250,17,,10+,29.81,1008.6,TRUE,,TRUE,,,,,,,SCT,3500,,,,,,,VFR,,,,,,,,,,,,METAR,5
KALO 050054Z 34008KT 10SM CLR 12/07 A3000 RMK AO2 SLP160 T01220067,KALO,2024-05-05T00:54:00Z,42.5544,-92.4013,12.2,6.7,340,8,,10+,30.00,1016,,,TRUE,,,,,,,CLR,,,,,,,,VFR,,,,,,,,,,,,METAR,264
KAKR 050054Z AUTO 10SM OVC009 17/14 A2997 RMK AO2 SLP144 T01670139,KAKR,2024-05-05T00:54:00Z,41.0373,-81.4634,16.7,13.9,,,,10+,29.97,1014.4,,TRUE,TRUE,,,,,,,OVC,900,,,,,,,IFR,,,,,,,,,,,,METAR,319
KAKQ 050054Z AUTO 06004KT 8SM FEW010 OVC016 16/14 A3015 RMK AO2 SLP210 T01610144,KAKQ,2024-05-05T00:54:00Z,36.9827,-77.0014,16.1,14.4,60,4,,8,30.15,1021,,TRUE,TRUE,,,,,,,FEW,1000,OVC,1600,,,,,MVFR,,,,,,,,,,,,METAR,34
KAAO 050054Z AUTO 02008KT 10SM CLR 16/10 A3002 RMK AO2 SLP163 T01560100,KAAO,2024-05-05T00:54:00Z,37.7496,-97.2191,15.6,10,20,8,,10+,30.02,1016.3,,TRUE,TRUE,,,,,,,CLR,,,,,,,,VFR,,,,,,,,,,,,METAR,429
K2V6 050054Z AUTO 12013G17KT 10SM CLR 14/M07 A3001 RMK AO2,K2V6,2024-05-05T00:54:00Z,40.1047,-102.713,14,-7,120,13,17,10+,30.01,,,TRUE,TRUE,,,,,,,CLR,,,,,,,,VFR,,,,,,,,,,,,METAR,1257
K1V4 050054Z AUTO 14/07 A3028 RMK AO1 SLP250 T01440067,K1V4,2024-05-05T00:54:00Z,44.42,-72.019,14.4,6.7,,,,,30.28,1025,,TRUE,TRUE,,,,,,,,,,,,,,,,,,,,,,,,,,,METAR,213
K12N 050054Z AUTO VRB03KT 11/07 A3030 RMK AO1 SLP261 T01060072,K12N,2024-05-05T00:54:00Z,41.0093,-74.7363,10.6,7.2,VRB,3,,,30.30,1026.1,,TRUE,TRUE,,,,,,,,,,,,,,,,,,,,,,,,,,,METAR,178
TJNR 050053Z AUTO 09003KT 10SM FEW022 BKN060 27/24 A2995 RMK AO2 SLP141 T02720244 $,TJNR,2024-05-05T00:53:00Z,18.253,-65.638,27.2,24.4,90,3,,10+,29.95,1014.1,,TRUE,TRUE,TRUE,,,,,,FEW,2200,BKN,6000,,,,,VFR,,,,,,,,,,,,METAR,7
TISX 050053Z 03004KT 10SM FEW020 A2994,TISX,2024-05-05T00:53:00Z,17.6997,-64.8126,,,30,4,,10+,29.94,,,,,,,,,,,FEW,2000,,,,,,,VFR,,,,,,,,,,,,METAR,16
TIST 050053Z 11006KT 10SM FEW020 29/26 A2993 RMK AO2 SLP134 T02890256 PNO,TIST,2024-05-05T00:53:00Z,18.3362,-64.9799,28.9,25.6,110,6,,10+,29.93,1013.4,,,TRUE,,,,,,,FEW,2000,,,,,,,VFR,,,,,,,,,,,,METAR,5
PKMR 050053Z 05009KT 15SM FEW015 SCT050 BKN300 31/25 A2972 RMK SLP066 T03070248,PKMR,2024-05-05T00:53:00Z,7.09,171.383,30.7,24.8,50,9,,15,29.72,1006.6,,,,,,,,,,FEW,1500,SCT,5000,BKN,30000,,,VFR,,,,,,,,,,,,METAR,7
PHTO 050053Z AUTO 09013KT 10SM FEW026 BKN085 24/19 A3004 RMK AO2 SLP171 T02440194 TSNO,PHTO,2024-05-05T00:53:00Z,19.7191,-155.049,24.4,19.4,90,13,,10+,30.04,1017.1,,TRUE,TRUE,,,TRUE,,,,FEW,2600,BKN,8500,,,,,VFR,,,,,,,,,,,,METAR,9
PHNL 050053Z 06017G24KT 10SM FEW028 FEW035 SCT045 26/17 A3003 RMK AO2 PK WND 05027/0006 SLP168 VCSH NE T02560172 VISNO RWY04R $,PHNL,2024-05-05T00:53:00Z,21.3151,-157.924,25.6,17.2,60,17,24,10+,30.03,1016.8,,,TRUE,TRUE,,,,,,FEW,2800,FEW,3500,SCT,4500,,,VFR,,,,,,,,,,,,METAR,2
PHLI 050053Z 07014KT 10SM FEW026 SCT045 24/20 A3007 RMK AO2 SLP178 T02440200 $,PHLI,2024-05-05T00:53:00Z,21.9805,-159.339,24.4,20,70,14,,10+,30.07,1017.8,,,TRUE,TRUE,,,,,,FEW,2600,SCT,4500,,,,,VFR,,,,,,,,,,,,METAR,32
PHKO 050053Z 25008KT 10SM OVC070 28/18 A2998 RMK AO2 SLP150 T02780183,PHKO,2024-05-05T00:53:00Z,19.7378,-156.048,27.8,18.3,250,8,,10+,29.98,1015,,,TRUE,,,,,,,OVC,7000,,,,,,,VFR,,,,,,,,,,,,METAR,11
PHJR 050053Z 08012G22KT 10SM CLR 27/17 A3003 RMK AO2 PK WND 07026/2358 SLP176 T02670167,PHJR,2024-05-05T00:53:00Z,21.312,-158.07,26.7,16.7,80,12,22,10+,30.03,1017.6,,,TRUE,,,,,,,CLR,,,,,,,,VFR,,,,,,,,,,,,METAR,9
PGWT 050053Z 09012KT 7SM FEW015 SCT055 SCT120 29/26 A2987,PGWT,2024-05-05T00:53:00Z,14.997,145.624,29,26,90,12,,7,29.87,,,,,,,,,,,FEW,1500,SCT,5500,SCT,12000,,,VFR,,,,,,,,,,,,METAR,84
PAYA 050053Z AUTO 07010KT 4SM RA BR SCT009 BKN015 OVC025 09/07 A2958 RMK AO2 SLP016 P0010 T00890072 TSNO $,PAYA,2024-05-05T00:53:00Z,59.512,-139.671,8.9,7.2,70,10,,4,29.58,1001.6,,TRUE,TRUE,TRUE,,TRUE,,,RA BR,SCT,900,BKN,1500,OVC,2500,,,MVFR,,,,,,0.1,,,,,,METAR,9
PAWD 050053Z AUTO 16006KT 10SM -RA BKN050 OVC060 07/03 A2932 RMK AO2 RAB18 SLP930 P0000 T00670028 TSNO $,PAWD,2024-05-05T00:53:00Z,60.129,-149.418,6.7,2.8,160,6,,10+,29.32,993,,TRUE,TRUE,TRUE,,TRUE,,,-RA,BKN,5000,OVC,6000,,,,,VFR,,,,,,0.005,,,,,,METAR,3
PATO 050053Z AUTO 12010G32KT 340V160 2 1/2SM RA OVC027 05/02 A2936 RMK AO2 PK WND 11033/0025 VIS 2V4 SLP942 P0009 T00500022 TSNO,PATO,2024-05-05T00:53:00Z,60.783,-148.843,5,2.2,120,10,32,2.5,29.36,994.2,,TRUE,TRUE,,,TRUE,,,RA,OVC,2700,,,,,,,IFR,,,,,,0.09,,,,,,METAR,47
PATK 050053Z 35006KT 10SM FEW038 FEW070 BKN100 10/01 A2933 RMK AO2 SLP935 T01000006,PATK,2024-05-05T00:53:00Z,62.319,-150.097,10,0.6,350,6,,10+,29.33,993.5,,,TRUE,,,,,,,FEW,3800,FEW,7000,BKN,10000,,,VFR,,,,,,,,,,,,METAR,107
PASO 050053Z AUTO VRB03KT 10SM BKN036 BKN045 07/03 A2928 RMK AO2 RAB36E49 SLP914 P0000 T00720028 TSNO,PASO,2024-05-05T00:53:00Z,59.443,-151.702,7.2,2.8,VRB,3,,10+,29.28,991.4,,TRUE,TRUE,,,TRUE,,,,BKN,3600,BKN,4500,,,,,VFR,,,,,,0.005,,,,,,METAR,20
PASI 050053Z 28004KT 10SM CLR 13/03 A2960 RMK AO2 SLP022 T01280028,PASI,2024-05-05T00:53:00Z,57.047,-135.364,12.8,2.8,280,4,,10+,29.60,1002.2,,,TRUE,,,,,,,CLR,,,,,,,,VFR,,,,,,,,,,,,METAR,2
PASC 050053Z 04021G27KT 3SM BLSN BR FEW008 BKN013 OVC070 M13/M17 A3000 RMK AO2 PK WND 05027/0008 SLP160 T11331172,PASC,2024-05-05T00:53:00Z,70.191,-148.48,-13.3,-17.2,40,21,27,3,30.00,1016,,,TRUE,,,,,,BLSN BR,FEW,800,BKN,1300,OVC,7000,,,MVFR,,,,,,,,,,,,METAR,17
PAQT 050053Z AUTO 04019KT 2 1/2SM BLSN FEW008 SCT011 OVC070 M13/M17 A3004 RMK AO2 PK WND 05027/2355 SNB27E36 SLP172 P0000 T11331167 TSNO,PAQT,2024-05-05T00:53:00Z,70.213,-150.994,-13.3,-16.7,40,19,,2.5,30.04,1017.2,,TRUE,TRUE,,,TRUE,,,BLSN,FEW,800,SCT,1100,OVC,7000,,,IFR,,,,,,0.005,,,,,,METAR,11
PAOT 050053Z 06015KT 10SM CLR M03/M10 A2957 RMK AO2 SLP013 T10281100,PAOT,2024-05-05T00:53:00Z,66.886,-162.607,-2.8,-10,60,15,,10+,29.57,1001.3,,,TRUE,,,,,,,CLR,,,,,,,,VFR,,,,,,,,,,,,METAR,3
PAOR 050053Z 11010G17KT 10SM SCT085 BKN100 BKN150 16/M05 A2926 RMK AO2 SLP915 T01611050 $,PAOR,2024-05-05T00:53:00Z,62.962,-141.938,16.1,-5,110,10,17,10+,29.26,991.5,,,TRUE,TRUE,,,,,,SCT,8500,BKN,10000,BKN,15000,,,VFR,,,,,,,,,,,,METAR,524
PANN 050053Z AUTO 22010G23KT 190V280 10SM OVC110 15/M03 A2923 RMK AO2 SLP904 T01501033 TSNO,PANN,2024-05-05T00:53:00Z,64.547,-149.087,15,-3.3,220,10,23,10+,29.23,990.4,,TRUE,TRUE,,,TRUE,,,,OVC,11000,,,,,,,VFR,,,,,,,,,,,,METAR,110
PANC 050053Z 15009G19KT 10SM FEW040 BKN070 BKN090 09/01 A2931 RMK AO2 SLP927 T00890011,PANC,2024-05-05T00:53:00Z,61.1691,-150.028,8.9,1.1,150,9,19,10+,29.31,992.7,,,TRUE,,,,,,,FEW,4000,BKN,7000,BKN,9000,,,VFR,,,,,,,,,,,,METAR,39
PAMR 050053Z 27008KT 10SM FEW050 OVC065 10/01 A2931 RMK AO2 SLP926 T01000011,PAMR,2024-05-05T00:53:00Z,61.215,-149.85,10,1.1,270,8,,10+,29.31,992.6,,,TRUE,,,,,,,FEW,5000,OVC,6500,,,,,VFR,,,,,,,,,,,,METAR,43
PAMC 050053Z VRB03KT 10SM BKN040 OVC080 11/01 A2927 RMK AO2 SLP915 T01110011,PAMC,2024-05-05T00:53:00Z,62.957,-155.61,11.1,1.1,VRB,3,,10+,29.27,991.5,,,TRUE,,,,,,,BKN,4000,OVC,8000,,,,,VFR,,,,,,,,,,,,METAR,101
PALH 050053Z AUTO 20007G15KT 10SM BKN070 OVC090 09/02 A2932 RMK AO2 SLP930 T00890017 TSNO,PALH,2024-05-05T00:53:00Z,61.179,-149.962,8.9,1.7,200,7,15,10+,29.32,993,,TRUE,TRUE,,,TRUE,,,,BKN,7000,OVC,9000,,,,,VFR,,,,,,,,,,,,METAR,26
PAKW 050053Z AUTO 21004KT 10SM CLR 17/03 A2958 RMK AO2 SLP016 T01670033 TSNO,PAKW,2024-05-05T00:53:00Z,55.582,-133.075,16.7,3.3,210,4,,10+,29.58,1001.6,,TRUE,TRUE,,,TRUE,,,,CLR,,,,,,,,VFR,,,,,,,,,,,,METAR,7
PAKV 050053Z AUTO 05009KT 10SM SCT016 OVC028 03/00 A2940 RMK AO2 SLP959 T00280000 TSNO $,PAKV,2024-05-05T00:53:00Z,64.321,-158.732,2.8,0,50,9,,10+,29.40,995.9,,TRUE,TRUE,TRUE,,TRUE,,,,SCT,1600,OVC,2800,,,,,MVFR,,,,,,,,,,,,METAR,53
PAKT 050053Z 10SM CLR 20/03 A2957 RMK AO2 SLP015 HARBOR WIND 09010KT T02000033,PAKT,2024-05-05T00:53:00Z,55.3592,-131.722,20,3.3,,,,10+,29.57,1001.5,,,TRUE,,,,,,,CLR,,,,,,,,VFR,,,,,,,,,,,,METAR,27
PAJN 050053Z 24008KT 10SM FEW100 SCT120 BKN140 OVC200 16/01 A2957 RMK AO2 SLP013 NMRS BINOVC T01610011 $,PAJN,2024-05-05T00:53:00Z,58.354,-134.556,16.1,1.1,240,8,,10+,29.57,1001.3,,,TRUE,TRUE,,,,,,FEW,10000,SCT,12000,BKN,14000,OVC,20000,VFR,,,,,,,,,,,,METAR,6
PAIL 050053Z 09011G21KT 10SM -RA BKN032 BKN046 OVC060 03/02 A2924 RMK AO2 SLP904 P0002 T00280017 $,PAIL,2024-05-05T00:53:00Z,59.7492,-154.909,2.8,1.7,90,11,21,10+,29.24,990.4,,,TRUE,TRUE,,,,,-RA,BKN,3200,BKN,4600,OVC,6000,,,VFR,,,,,,0.02,,,,,,METAR,44
PAHO 050053Z AUTO 14010G16KT 10SM BKN039 OVC049 08/01 A2928 RMK AO2 SLP916 T00830006 TSNO,PAHO,2024-05-05T00:53:00Z,59.642,-151.491,8.3,0.6,140,10,16,10+,29.28,991.6,,TRUE,TRUE,,,TRUE,,,,BKN,3900,OVC,4900,,,,,VFR,,,,,,,,,,,,METAR,6
PAGY 050053Z AUTO 24004KT 10SM OVC090 12/M01 A2957 RMK AO2 SLP013 T01221006 TSNO,PAGY,2024-05-05T00:53:00Z,59.457,-135.322,12.2,-0.6,240,4,,10+,29.57,1001.3,,TRUE,TRUE,,,TRUE,,,,OVC,9000,,,,,,,VFR,,,,,,,,,,,,METAR,7
PAGK 050053Z AUTO 18014G22KT 10SM CLR 10/M02 A2935 RMK AO2 SLP947 T01001022 TSNO $,PAGK,2024-05-05T00:53:00Z,62.1592,-145.459,10,-2.2,180,14,22,10+,29.35,994.7,,TRUE,TRUE,TRUE,,TRUE,,,,CLR,,,,,,,,VFR,,,,,,,,,,,,METAR,481
PAFA 050053Z 35006KT 10SM -RA SCT080 BKN095 BKN150 14/M02 A2925 RMK AO2 RAB53 SLP909 P0000 T01441022,PAFA,2024-05-05T00:53:00Z,64.8031,-147.876,14.4,-2.2,350,6,,10+,29.25,990.9,,,TRUE,,,,,,-RA,SCT,8000,BKN,9500,BKN,15000,,,VFR,,,,,,0.005,,,,,,METAR,130
PAEN 050053Z 09013G20KT 10SM BKN070 OVC090 11/00 A2927 RMK AO2 SLP912 T01060000,PAEN,2024-05-05T00:53:00Z,60.579,-151.242,10.6,0,90,13,20,10+,29.27,991.2,,,TRUE,,,,,,,BKN,7000,OVC,9000,,,,,VFR,,,,,,,,,,,,METAR,30
PADQ 050053Z 17010KT 10SM FEW028 BKN120 08/03 A2922 RMK AO2 SLP897 T00780028,PADQ,2024-05-05T00:53:00Z,57.7507,-152.488,7.8,2.8,170,10,,10+,29.22,989.7,,,TRUE,,,,,,,FEW,2800,BKN,12000,,,,,VFR,,,,,,,,,,,,METAR,5
PADE 050053Z AUTO 36012KT 10SM CLR M01/M06 A2954 RMK AO2 SLP003 T10111061 TSNO,PADE,2024-05-05T00:53:00Z,66.0695,-162.761,-1.1,-6.1,360,12,,10+,29.54,1000.3,,TRUE,TRUE,,,TRUE,,,,CLR,,,,,,,,VFR,,,,,,,,,,,,METAR,5
PACV 050053Z 11008KT 9SM -RA SCT026 BKN034 OVC043 08/ A2946 RMK AO2 RAB20 SLP975 P0000 T0083 $,PACV,2024-05-05T00:53:00Z,60.486,-145.445,8.3,,110,8,,9,29.46,997.5,,,TRUE,TRUE,,,,,-RA,SCT,2600,BKN,3400,OVC,4300,,,VFR,,,,,,0.005,,,,,,METAR,15
PACD 050053Z 26021KT 10SM SCT014 BKN020 OVC042 05/03 A2932 RMK AO2 PK WND 27028/0010 RAE21 SLP930 P0001 T00500028,PACD,2024-05-05T00:53:00Z,55.2207,-162.732,5,2.8,260,21,,10+,29.32,993,,,TRUE,,,,,,,SCT,1400,BKN,2000,OVC,4200,,,MVFR,,,,,,0.01,,,,,,METAR,23
PABT 050053Z 36012G18KT 10SM SCT020 OVC035 M01/M05 A2947 RMK SLP992 SHSN DSNT N AND VC SW-W T10061050,PABT,2024-05-05T00:53:00Z,66.9176,-151.519,-0.6,-5,360,12,18,10+,29.47,999.2,,,,,,,,,,SCT,2000,OVC,3500,,,,,VFR,,,,,,,,,,,,METAR,195
PABR 050053Z 05018KT 10SM FEW012 M12/M16 A3014,PABR,2024-05-05T00:53:00Z,71.2837,-156.784,-12,-16,50,18,,10+,30.14,,,,,,,,,,,FEW,1200,,,,,,,VFR,,,,,,,,,,,,METAR,6
PABI 050053Z 16026G40KT 10SM FEW030 SCT065 SCT110 BKN130 BKN200 12/M02 A2929,PABI,2024-05-05T00:53:00Z,63.9931,-145.721,12,-2,160,26,40,10+,29.29,,,,,,,,,,,FEW,3000,SCT,6500,SCT,11000,BKN,13000,VFR,,,,,,,,,,,,METAR,388
PABE 050053Z 01007KT 10SM BKN023 OVC080 08/02 A2929 RMK AO2 SLP921 T00830022,PABE,2024-05-05T00:53:00Z,60.785,-161.829,8.3,2.2,10,7,,10+,29.29,992.1,,,TRUE,,,,,,,BKN,2300,OVC,8000,,,,,MVFR,,,,,,,,,,,,METAR,28
PAAQ 050053Z 16016G26KT 10SM CLR 12/M01 A2930 RMK AO2 PK WND 12029/0006 SLP924 T01221011,PAAQ,2024-05-05T00:53:00Z,61.5951,-149.092,12.2,-1.1,160,16,26,10+,29.30,992.4,,,TRUE,,,,,,,CLR,,,,,,,,VFR,,,,,,,,,,,,METAR,68
KYKM 050053Z 34008KT 10SM BKN070 BKN090 15/09 A2950 RMK AO2 RAE18 SLP987 P0000 T01500094,KYKM,2024-05-05T00:53:00Z,46.564,-120.535,15,9.4,340,8,,10+,29.50,998.7,,,TRUE,,,,,,,BKN,7000,BKN,9000,,,,,VFR,,,,,,0.005,,,,,,METAR,319
KYIP 050053Z 13007KT 8SM -RA OVC033 19/17 A2991 RMK AO2 RAB33 SLP124 P0000 T01890172,KYIP,2024-05-05T00:53:00Z,42.242,-83.5214,18.9,17.2,130,7,,8,29.91,1012.4,,,TRUE,,,,,,-RA,OVC,3300,,,,,,,VFR,,,,,,0.005,,,,,,METAR,215
KXVG 050053Z AUTO 30004KT 10SM CLR 12/03 A2997 RMK AO2,KXVG,2024-05-05T00:53:00Z,46.9942,-94.206,12,3,300,4,,10+,29.97,,,TRUE,TRUE,,,,,,,CLR,,,,,,,,VFR,,,,,,,,,,,,METAR,407
KXNA 050053Z 36003KT 10SM CLR 21/18 A2996 RMK AO2 SLP136 T02060183,KXNA,2024-05-05T00:53:00Z,36.2897,-94.3115,20.6,18.3,360,3,,10+,29.96,1013.6,,,TRUE,,,,,,,CLR,,,,,,,,VFR,,,,,,,,,,,,METAR,390
KWVI 050053Z AUTO 24004KT 10SM BKN010 OVC016 10/09 A2989 RMK AO2 RAE13B32E41 SLP120 P0000 T01000089,KWVI,2024-05-05T00:53:00Z,36.9394,-121.79,10,8.9,240,4,,10+,29.89,1012,,TRUE,TRUE,,,,,,,BKN,1000,OVC,1600,,,,,MVFR,,,,,,0.005,,,,,,METAR,47
KWST 050053Z AUTO 09009KT 10SM CLR 09/06 A3035 RMK AO2 SLP277 T00940061,KWST,2024-05-05T00:53:00Z,41.3509,-71.8055,9.4,6.1,90,9,,10+,30.35,1027.7,,TRUE,TRUE,,,,,,,CLR,,,,,,,,VFR,,,,,,,,,,,,METAR,20
KWRL 050053Z AUTO 00000KT 10SM CLR 18/M05 A2975 RMK AO2 SLP070 T01831050 $,KWRL,2024-05-05T00:53:00Z,43.9654,-107.95,18.3,-5,0,0,,10+,29.75,1007,,TRUE,TRUE,TRUE,,,,,,CLR,,,,,,,,VFR,,,,,,,,,,,,METAR,1281
KVRB 050053Z 10009KT 10SM CLR 25/20 A3004 RMK AO2 SLP170 T02500200,KVRB,2024-05-05T00:53:00Z,27.6553,-80.4142,25,20,100,9,,10+,30.04,1017,,,TRUE,,,,,,,CLR,,,,,,,,VFR,,,,,,,,,,,,METAR,7
KVLD 050053Z 00000KT 7SM -RA FEW090 OVC120 22/21 A3003 RMK AO2 SLP177 P0006 T02170206,KVLD,2024-05-05T00:53:00Z,30.7763,-83.2739,21.7,20.6,0,0,,7,30.03,1017.7,,,TRUE,,,,,,-RA,FEW,9000,OVC,12000,,,,,VFR,,,,,,0.06,,,,,,METAR,59
KVIH 050053Z AUTO 32009KT 10SM FEW021 19/15 A2998 RMK AO2 SLP145 T01890150 $,KVIH,2024-05-05T00:53:00Z,38.1318,-91.7647,18.9,15,320,9,,10+,29.98,1014.5,,TRUE,TRUE,TRUE,,,,,,FEW,2100,,,,,,,VFR,,,,,,,,,,,,METAR,342
KVGT 050053Z 20021G28KT 10SM CLR 28/M01 A2957 RMK AO2 PK WND 21028/0052 SLP009 T02831006,KVGT,2024-05-05T00:53:00Z,36.2121,-115.194,28.3,-0.6,200,21,28,10+,29.57,1000.9,,,TRUE,,,,,,,CLR,,,,,,,,VFR,,,,,,,,,,,,METAR,664
KVEL 050053Z AUTO 18005KT 10SM CLR 20/M04 A2975 RMK AO2 SLP043 T02001044,KVEL,2024-05-05T00:53:00Z,40.4429,-109.513,20,-4.4,180,5,,10+,29.75,1004.3,,TRUE,TRUE,,,,,,,CLR,,,,,,,,VFR,,,,,,,,,,,,METAR,1604
KVCB 050053Z AUTO 27007KT 10SM BKN043 OVC050 14/05 A2980 RMK AO2 PK WND 24027/2357 SLP090 T01390050,KVCB,2024-05-05T00:53:00Z,38.3775,-121.959,13.9,5,270,7,,10+,29.80,1009,,TRUE,TRUE,,,,,,,BKN,4300,OVC,5000,,,,,VFR,,,,,,,,,,,,METAR,30
KUUU 050053Z AUTO 09004KT 10SM CLR 08/05 A3035 RMK AO2 SLP277 T00780050,KUUU,2024-05-05T00:53:00Z,41.5299,-71.2833,7.8,5,90,4,,10+,30.35,1027.7,,TRUE,TRUE,,,,,,,CLR,,,,,,,,VFR,,,,,,,,,,,,METAR,45
KUTS 050053Z AUTO 12006KT 10SM OVC090 25/23 A2989 RMK AO2 LTG DSNT E SLP118 T02500228,KUTS,2024-05-05T00:53:00Z,30.7443,-95.5866,25,22.8,120,6,,10+,29.89,1011.8,,TRUE,TRUE,,,,,,,OVC,9000,,,,,,,VFR,,,,,,,,,,,,METAR,103
KUNV 050053Z 00000KT 3SM -DZ SCT003 OVC009 10/10 A3018,KUNV,2024-05-05T00:53:00Z,40.8534,-77.8401,10,10,0,0,,3,30.18,,,,,,,,,,-DZ,SCT,300,OVC,900,,,,,IFR,,,,,,,,,,,,METAR,365
KUNO 050053Z AUTO 19003KT 10SM CLR 21/18 A2997 RMK AO2 TSE2357 SLP138 T02060178,KUNO,2024-05-05T00:53:00Z,36.8791,-91.9052,20.6,17.8,190,3,,10+,29.97,1013.8,,TRUE,TRUE,,,,,,,CLR,,,,,,,,VFR,,,,,,,,,,,,METAR,376
KUIL 050053Z AUTO 31004KT 10SM -RA BKN008 OVC011 13/09 A2960 RMK AO2 RAB36 SLP023 P0000 T01280094,KUIL,2024-05-05T00:53:00Z,47.937,-124.558,12.8,9.4,310,4,,10+,29.60,1002.3,,TRUE,TRUE,,,,,,-RA,BKN,800,OVC,1100,,,,,IFR,,,,,,0.005,,,,,,METAR,58
KUAO 050053Z 21004KT 7SM -RA BKN009 BKN012 OVC038 09/08 A2968 RMK AO2 SLP048 P0004 T00890078,KUAO,2024-05-05T00:53:00Z,45.2466,-122.771,8.9,7.8,210,4,,7,29.68,1004.8,,,TRUE,,,,,,-RA,BKN,900,BKN,1200,OVC,3800,,,IFR,,,,,,0.04,,,,,,METAR,60
KTYS 050053Z 22004KT 10SM FEW020 FEW070 BKN090 BKN250 22/18 A2999 RMK AO2 LTG DSNT W RAB37E50 SLP146 P0000 T02220178,KTYS,2024-05-05T00:53:00Z,35.818,-83.9857,22.2,17.8,220,4,,10+,29.99,1014.6,,,TRUE,,,,,,,FEW,2000,FEW,7000,BKN,9000,BKN,25000,VFR,,,,,,0.005,,,,,,METAR,300
KTYR 050053Z 12005KT 10SM OVC080 26/19 A2991 RMK AO2 SLP123 T02560189,KTYR,2024-05-05T00:53:00Z,32.3587,-95.404,25.6,18.9,120,5,,10+,29.91,1012.3,,,TRUE,,,,,,,OVC,8000,,,,,,,VFR,,,,,,,,,,,,METAR,161
KTXK 050053Z 00000KT 10SM BKN046 26/20 A2994 RMK AO2 SLP133 T02610200 $,KTXK,2024-05-05T00:53:00Z,33.4561,-93.9878,26.1,20,0,0,,10+,29.94,1013.3,,,TRUE,TRUE,,,,,,BKN,4600,,,,,,,VFR,,,,,,,,,,,,METAR,118
KTWF 050053Z AUTO 14017G27KT 10SM CLR 19/M01 A2944 RMK AO2 PK WND 15027/0046 SLP940 T01941011,KTWF,2024-05-05T00:53:00Z,42.4785,-114.477,19.4,-1.1,140,17,27,10+,29.44,994,,TRUE,TRUE,,,,,,,CLR,,,,,,,,VFR,,,,,,,,,,,,METAR,1269
KTVC 050053Z COR VRB03KT 10SM SCT190 BKN250 19/12 A2981 RMK AO2 SLP093 T01940117,KTVC,2024-05-05T00:53:00Z,44.739,-85.5694,19.4,11.7,VRB,3,,10+,29.81,1009.3,TRUE,,TRUE,,,,,,,SCT,19000,BKN,25000,,,,,VFR,,,,,,,,,,,,METAR,188
KTUS 050053Z 23008KT 10SM CLR 31/M10 A2981 RMK AO2 SLP052 T03061100,KTUS,2024-05-05T00:53:00Z,32.1315,-110.956,30.6,-10,230,8,,10+,29.81,1005.2,,,TRUE,,,,,,,CLR,,,,,,,,VFR,,,,,,,,,,,,METAR,776
KTUP 050053Z 00000KT 10SM CLR 24/20 A2996 RMK AO2 SLP141 T02440200,KTUP,2024-05-05T00:53:00Z,34.2622,-88.7713,24.4,20,0,0,,10+,29.96,1014.1,,,TRUE,,,,,,,CLR,,,,,,,,VFR,,,,,,,,,,,,METAR,107
KTUL 050053Z 35009KT 10SM SCT030 SCT040 19/14 A2997 RMK AO2 SLP142 T01940139,KTUL,2024-05-05T00:53:00Z,36.1985,-95.8783,19.4,13.9,350,9,,10+,29.97,1014.2,,,TRUE,,,,,,,SCT,3000,SCT,4000,,,,,VFR,,,,,,,,,,,,METAR,196
KTTD 050053Z AUTO 21006KT 8SM -RA FEW032 BKN043 OVC055 11/08 A2965 RMK AO2 SLP039 P0005 T01060083,KTTD,2024-05-05T00:53:00Z,45.551,-122.41,10.6,8.3,210,6,,8,29.65,1003.9,,TRUE,TRUE,,,,,,-RA,FEW,3200,BKN,4300,OVC,5500,,,VFR,,,,,,0.05,,,,,,METAR,8
KTRL 050053Z AUTO 09003KT 10SM OVC080 26/19 A2989 RMK AO2 SLP117 T02560194,KTRL,2024-05-05T00:53:00Z,32.7131,-96.2688,25.6,19.4,90,3,,10+,29.89,1011.7,,TRUE,TRUE,,,,,,,OVC,8000,,,,,,,VFR,,,,,,,,,,,,METAR,144
KTRI 050053Z 12003KT 10SM FEW050 FEW090 BKN130 OVC200 19/17 A3004 RMK AO2 SLP150 T01890172,KTRI,2024-05-05T00:53:00Z,36.4797,-82.3989,18.9,17.2,120,3,,10+,30.04,1015,,,TRUE,,,,,,,FEW,5000,FEW,9000,BKN,13000,OVC,20000,VFR,,,,,,,,,,,,METAR,456
KTPA 050053Z 01005KT 10SM FEW040CB SCT060 BKN100 BKN250 27/19 A3002 RMK AO2 LTG DSNT NE SLP165 CB NE-SE MOV W T02670194,KTPA,2024-05-05T00:53:00Z,27.9633,-82.54,26.7,19.4,10,5,,10+,30.02,1016.5,,,TRUE,,,,,,,FEW,4000,SCT,6000,BKN,10000,BKN,25000,VFR,,,,,,,,,,,,METAR,2
KTOR 050053Z AUTO 16015KT 10SM CLR 17/M03 A2991 RMK AO2 SLP125 T01721028,KTOR,2024-05-05T00:53:00Z,42.0613,-104.158,17.2,-2.8,160,15,,10+,29.91,1012.5,,TRUE,TRUE,,,,,,,CLR,,,,,,,,VFR,,,,,,,,,,,,METAR,1285
KTOP 050053Z AUTO 36005KT 10SM SCT036 15/08 A3006 RMK AO2 SLP175 T01500083,KTOP,2024-05-05T00:53:00Z,39.0724,-95.626,15,8.3,360,5,,10+,30.06,1017.5,,TRUE,TRUE,,,,,,,SCT,3600,,,,,,,VFR,,,,,,,,,,,,METAR,268
KTOI 050053Z AUTO 00000KT 10SM CLR 24/19 A3000 RMK AO2 SLP154 T02440194,KTOI,2024-05-05T00:53:00Z,31.8574,-86.0103,24.4,19.4,0,0,,10+,30.00,1015.4,,TRUE,TRUE,,,,,,,CLR,,,,,,,,VFR,,,,,,,,,,,,METAR,120
KTMB 050053Z 10010KT 10SM CLR 25/21 A3001 RMK AO2 SLP161 T02500206 $,KTMB,2024-05-05T00:53:00Z,25.6423,-80.4347,25,20.6,100,10,,10+,30.01,1016.1,,,TRUE,TRUE,,,,,,CLR,,,,,,,,VFR,,,,,,,,,,,,METAR,2
KTLH 050053Z 04005KT 10SM SCT039CB BKN095 BKN250 23/18 A3004 RMK AO2 LTG DSNT ALQDS RAB02E24 SLP170 CB NW MOV SE CB DSNT E P0000 T02280183,KTLH,2024-05-05T00:53:00Z,30.3935,-84.3513,22.8,18.3,40,5,,10+,30.04,1017,,,TRUE,,,,,,,SCT,3900,BKN,9500,BKN,25000,,,VFR,,,,,,0.005,,,,,,METAR,17
KTKI 050053Z 12004KT 10SM OVC055 25/19 A2989 RMK AO2 SLP120 T02500194,KTKI,2024-05-05T00:53:00Z,33.1828,-96.5899,25,19.4,120,4,,10+,29.89,1012,,,TRUE,,,,,,,OVC,5500,,,,,,,VFR,,,,,,,,,,,,METAR,173
KTIW 050053Z 20009KT 10SM -RA BKN015 BKN029 OVC036 10/09 A2958 RMK AO2 SLP017 P0002 T01000089,KTIW,2024-05-05T00:53:00Z,47.2674,-122.576,10,8.9,200,9,,10+,29.58,1001.7,,,TRUE,,,,,,-RA,BKN,1500,BKN,2900,OVC,3600,,,MVFR,,,,,,0.02,,,,,,METAR,89
KTHV 050053Z AUTO 11007KT 10SM OVC014 11/09 A3023 RMK AO2 RAE29 SLP240 P0001 T01060089,KTHV,2024-05-05T00:53:00Z,39.9194,-76.8768,10.6,8.9,110,7,,10+,30.23,1024,,TRUE,TRUE,,,,,,,OVC,1400,,,,,,,MVFR,,,,,,0.01,,,,,,METAR,141
KTCS 050053Z AUTO 20017KT 10SM CLR 27/M12 A2983 RMK AO2 PK WND 20027/0039 SLP028 T02671122,KTCS,2024-05-05T00:53:00Z,33.2369,-107.268,26.7,-12.2,200,17,,10+,29.83,1002.8,,TRUE,TRUE,,,,,,,CLR,,,,,,,,VFR,,,,,,,,,,,,METAR,1471
KTCL 050053Z 00000KT 10SM CLR 24/19 A2995 RMK AO2 SLP141 T02440194,KTCL,2024-05-05T00:53:00Z,33.2122,-87.6155,24.4,19.4,0,0,,10+,29.95,1014.1,,,TRUE,,,,,,,CLR,,,,,,,,VFR,,,,,,,,,,,,METAR,48
KTCC 050053Z AUTO 12013KT 10SM SCT040 16/09 A2996 RMK AO2 SLP117 T01610089,KTCC,2024-05-05T00:53:00Z,35.1805,-103.601,16.1,8.9,120,13,,10+,29.96,1011.7,,TRUE,TRUE,,,,,,,SCT,4000,,,,,,,VFR,,,,,,,,,,,,METAR,1233
KSWO 050053Z 02006KT 10SM BKN043 20/13 A2998 RMK AO2 SLP144 T02000133,KSWO,2024-05-05T00:53:00Z,36.1624,-97.0832,20,13.3,20,6,,10+,29.98,1014.4,,,TRUE,,,,,,,BKN,4300,,,,,,,VFR,,,,,,,,,,,,METAR,293
KSTS 050053Z 28012KT 10SM SCT045 13/04 A2981 RMK AO2 SLP087 T01330044,KSTS,2024-05-05T00:53:00Z,38.5037,-122.811,13.3,4.4,280,12,,10+,29.81,1008.7,,,TRUE,,,,,,,SCT,4500,,,,,,,VFR,,,,,,,,,,,,METAR,35
KSTP 050053Z 29006KT 10SM CLR 14/04 A2998 RMK AO2 SLP153 T01440044,KSTP,2024-05-05T00:53:00Z,44.9324,-93.0559,14.4,4.4,290,6,,10+,29.98,1015.3,,,TRUE,,,,,,,CLR,,,,,,,,VFR,,,,,,,,,,,,METAR,213
KSTJ 050053Z AUTO 36012KT 10SM OVC037 14/09 A3007 RMK AO2 SLP179 T01440089,KSTJ,2024-05-05T00:53:00Z,39.7683,-94.9095,14.4,8.9,360,12,,10+,30.07,1017.9,,TRUE,TRUE,,,,,,,OVC,3700,,,,,,,VFR,,,,,,,,,,,,METAR,247
KSTC 050053Z 29006KT 10SM CLR 15/02 A2998 RMK AO2 SLP161 T01500022,KSTC,2024-05-05T00:53:00Z,45.5442,-94.0517,15,2.2,290,6,,10+,29.98,1016.1,,,TRUE,,,,,,,CLR,,,,,,,,VFR,,,,,,,,,,,,METAR,302
KSSF 050053Z 12013KT 10SM -RA SCT075 27/19 A2977 RMK AO2 RAB47 SLP071 P0000 T02720194,KSSF,2024-05-05T00:53:00Z,29.339,-98.472,27.2,19.4,120,13,,10+,29.77,1007.1,,,TRUE,,,,,,-RA,SCT,7500,,,,,,,VFR,,,,,,0.005,,,,,,METAR,175
KSRQ 050053Z 02008KT 10SM CLR 26/19 A3000 RMK AO2 SLP156 T02560189,KSRQ,2024-05-05T00:53:00Z,27.4015,-82.5596,25.6,18.9,20,8,,10+,30.00,1015.6,,,TRUE,,,,,,,CLR,,,,,,,,VFR,,,,,,,,,,,,METAR,5
KSPW 050053Z AUTO 36004KT 10SM SCT065 16/04 A3004 RMK AO2 SLP175 T01560044,KSPW,2024-05-05T00:53:00Z,43.1682,-95.2101,15.6,4.4,360,4,,10+,30.04,1017.5,,TRUE,TRUE,,,,,,,SCT,6500,,,,,,,VFR,,,,,,,,,,,,METAR,407
KSPG 050053Z AUTO 35005KT 10SM CLR 27/20 A2999 RMK AO2 SLP154 T02720200,KSPG,2024-05-05T00:53:00Z,27.7685,-82.6257,27.2,20,350,5,,10+,29.99,1015.4,,TRUE,TRUE,,,,,,,CLR,,,,,,,,VFR,,,,,,,,,,,,METAR,1
KSPB 050053Z AUTO 00000KT 7SM -RA FEW012 BKN026 OVC050 11/08 A2963 RMK AO2 SLP034 P0001 T01110083 $,KSPB,2024-05-05T00:53:00Z,45.7691,-122.864,11.1,8.3,0,0,,7,29.63,1003.4,,TRUE,TRUE,TRUE,,,,,-RA,FEW,1200,BKN,2600,OVC,5000,,,MVFR,,,,,,0.01,,,,,,METAR,15
KSNY 050053Z AUTO 16014KT 10SM CLR 14/M03 A2998 RMK AO2 SLP148 T01441028,KSNY,2024-05-05T00:53:00Z,41.0993,-102.986,14.4,-2.8,160,14,,10+,29.98,1014.8,,TRUE,TRUE,,,,,,,CLR,,,,,,,,VFR,,,,,,,,,,,,METAR,1307
KSNS 050053Z AUTO 27011KT 10SM FEW022 OVC050 12/08 A2989 RMK AO2 SLP130 T01220078,KSNS,2024-05-05T00:53:00Z,36.6635,-121.609,12.2,7.8,270,11,,10+,29.89,1013,,TRUE,TRUE,,,,,,,FEW,2200,OVC,5000,,,,,VFR,,,,,,,,,,,,METAR,20
KSNA 050053Z 25008G15KT 10SM FEW018 BKN023 OVC030 17/12 A2991 RMK AO2 SLP127 T01670117,KSNA,2024-05-05T00:53:00Z,33.6798,-117.867,16.7,11.7,250,8,15,10+,29.91,1012.7,,,TRUE,,,,,,,FEW,1800,BKN,2300,OVC,3000,,,MVFR,,,,,,,,,,,,METAR,14
KSMQ 050053Z AUTO 10003KT 5SM -RA BR SCT046 OVC055 11/09 A3030 RMK AO2 SLP260 P0004 T01060094,KSMQ,2024-05-05T00:53:00Z,40.6241,-74.669,10.6,9.4,100,3,,5,30.30,1026,,TRUE,TRUE,,,,,,-RA BR,SCT,4600,OVC,5500,,,,,MVFR,,,,,,0.04,,,,,,METAR,30
KSMF 050053Z 25010G18KT 10SM SCT046 BKN060 BKN080 13/07 A2977 RMK AO2 WSHFT 0002 LTG DSNT NE RAB25E53 SLP079 P0001 T01280072,KSMF,2024-05-05T00:53:00Z,38.7007,-121.595,12.8,7.2,250,10,18,10+,29.77,1007.9,,,TRUE,,,,,,,SCT,4600,BKN,6000,BKN,8000,,,VFR,,,,,,0.01,,,,,,METAR,7
KSLN 050053Z 06008KT 10SM CLR 17/07 A3004 RMK AO2 SLP171 T01670072 $,KSLN,2024-05-05T00:53:00Z,38.78,-97.6446,16.7,7.2,60,8,,10+,30.04,1017.1,,,TRUE,TRUE,,,,,,CLR,,,,,,,,VFR,,,,,,,,,,,,METAR,377
KSJC 050053Z 26012G20KT 10SM SCT032 SCT043 BKN055 13/05 A2986 RMK AO2 SLP110 T01330050,KSJC,2024-05-05T00:53:00Z,37.3594,-121.924,13.3,5,260,12,20,10+,29.86,1011,,,TRUE,,,,,,,SCT,3200,SCT,4300,BKN,5500,,,VFR,,,,,,,,,,,,METAR,13
KSHR 050053Z AUTO 09008G16KT 10SM CLR 18/M01 A2977 RMK AO2 SLP082 T01831011,KSHR,2024-05-05T00:53:00Z,44.7603,-106.974,18.3,-1.1,90,8,16,10+,29.77,1008.2,,TRUE,TRUE,,,,,,,CLR,,,,,,,,VFR,,,,,,,,,,,,METAR,1212
KSHN 050053Z AUTO 26006KT 8SM -RA OVC033 11/10 A2956 RMK AO2 SLP012 P0003 T01110100,KSHN,2024-05-05T00:53:00Z,47.2384,-123.142,11.1,10,260,6,,8,29.56,1001.2,,TRUE,TRUE,,,,,,-RA,OVC,3300,,,,,,,VFR,,,,,,0.03,,,,,,METAR,84
KSGR 050053Z 13009G18KT 10SM VCTS SCT022 BKN039 OVC110 26/22 A2989 RMK AO2 SLP122 T02610222 $,KSGR,2024-05-05T00:53:00Z,29.6197,-95.6575,26.1,22.2,130,9,18,10+,29.89,1012.2,,,TRUE,TRUE,,,,,VCTS,SCT,2200,BKN,3900,OVC,11000,,,VFR,,,,,,,,,,,,METAR,22
KSFF 050053Z 07010KT 10SM OVC095 19/00 A2950 RMK AO2 SLP983 T01940000,KSFF,2024-05-05T00:53:00Z,47.6857,-117.321,19.4,0,70,10,,10+,29.50,998.3,,,TRUE,,,,,,,OVC,9500,,,,,,,VFR,,,,,,,,,,,,METAR,593
KSFB 050053Z 12006KT 10SM CLR 24/20 A3003 RMK AO2 SLP167 T02390200,KSFB,2024-05-05T00:53:00Z,28.7795,-81.2436,23.9,20,120,6,,10+,30.03,1016.7,,,TRUE,,,,,,,CLR,,,,,,,,VFR,,,,,,,,,,,,METAR,16
KSEG 050053Z AUTO 12003KT 6SM -RA BR OVC017 11/09 A3023 RMK AO2 RAB01 SLP236 P0002 T01110094,KSEG,2024-05-05T00:53:00Z,40.8193,-76.8658,11.1,9.4,120,3,,6,30.23,1023.6,,TRUE,TRUE,,,,,,-RA BR,OVC,1700,,,,,,,MVFR,,,,,,0.02,,,,,,METAR,136
KSEA 050053Z 28004KT 10SM FEW035 BKN050 OVC065 12/10 A2957 RMK AO2 RAB02E42 SLP018 P0001 T01220100,KSEA,2024-05-05T00:53:00Z,47.4447,-122.314,12.2,10,280,4,,10+,29.57,1001.8,,,TRUE,,,,,,,FEW,3500,BKN,5000,OVC,6500,,,VFR,,,,,,0.01,,,,,,METAR,115
KSDM 050053Z 26008KT 10SM OVC019 16/12 A2992 RMK AO2 SLP130 T01610117,KSDM,2024-05-05T00:53:00Z,32.5758,-116.994,16.1,11.7,260,8,,10+,29.92,1013,,,TRUE,,,,,,,OVC,1900,,,,,,,MVFR,,,,,,,,,,,,METAR,161
KSDL 050053Z VRB06KT 10SM CLR 32/01 A2971 RMK AO2 SLP037 T03170006,KSDL,2024-05-05T00:53:00Z,33.6124,-111.923,31.7,0.6,VRB,6,,10+,29.71,1003.7,,,TRUE,,,,,,,CLR,,,,,,,,VFR,,,,,,,,,,,,METAR,438
KSBM 050053Z AUTO 28005KT 9SM -RA FEW017 BKN025 OVC030 15/14 A2987 RMK AO2 SLP114 P0021 T01500144 $,KSBM,2024-05-05T00:53:00Z,43.7748,-87.849,15,14.4,280,5,,9,29.87,1011.4,,TRUE,TRUE,TRUE,,,,,-RA,FEW,1700,BKN,2500,OVC,3000,,,MVFR,,,,,,0.21,,,,,,METAR,225
KSBA 050053Z 28010KT 10SM BKN020 14/13 A2989 RMK AO2 SLP122 T01440128 $,KSBA,2024-05-05T00:53:00Z,34.4241,-119.842,14.4,12.8,280,10,,10+,29.89,1012.2,,,TRUE,TRUE,,,,,,BKN,2000,,,,,,,MVFR,,,,,,,,,,,,METAR,2
KSAV 050053Z 15007KT 10SM FEW045 SCT090 BKN110 BKN220 23/18 A3005 RMK AO2 SLP174 LTG DSNT N AND NW CB DSNT N AND NW STNRY T02330183,KSAV,2024-05-05T00:53:00Z,32.1313,-81.2023,23.3,18.3,150,7,,10+,30.05,1017.4,,,TRUE,,,,,,,FEW,4500,SCT,9000,BKN,11000,BKN,22000,VFR,,,,,,,,,,,,METAR,10
KSAC 050053Z 22013G21KT 10SM SCT037 SCT060 14/07 A2978 RMK AO2 LTG DSNT N SLP085 T01390072,KSAC,2024-05-05T00:53:00Z,38.5066,-121.496,13.9,7.2,220,13,21,10+,29.78,1008.5,,,TRUE,,,,,,,SCT,3700,SCT,6000,,,,,VFR,,,,,,,,,,,,METAR,5
KRXE 050053Z AUTO 18012KT 10SM FEW100 19/00 A2961 RMK AO2 SLP013 T01890000,KRXE,2024-05-05T00:53:00Z,43.8321,-111.808,18.9,0,180,12,,10+,29.61,1001.3,,TRUE,TRUE,,,,,,,FEW,10000,,,,,,,VFR,,,,,,,,,,,,METAR,1483
KRWL 050053Z AUTO 20007KT 10SM CLR 16/M06 A2989 RMK AO2 SLP083 T01561061,KRWL,2024-05-05T00:53:00Z,41.8065,-107.195,15.6,-6.1,200,7,,10+,29.89,1008.3,,TRUE,TRUE,,,,,,,CLR,,,,,,,,VFR,,,,,,,,,,,,METAR,2066
KRWI 050053Z AUTO 35004KT 10SM BKN039 OVC055 20/20 A3011 RMK AO2 RAE17B40E44 SLP196 P0028 T02000200,KRWI,2024-05-05T00:53:00Z,35.8502,-77.8951,20,20,350,4,,10+,30.11,1019.6,,TRUE,TRUE,,,,,,,BKN,3900,OVC,5500,,,,,VFR,,,,,,0.28,,,,,,METAR,46
KRWF 050053Z AUTO 30005KT 10SM FEW065 14/02 A3002 RMK AO2 SLP168 T01440017,KRWF,2024-05-05T00:53:00Z,44.5483,-95.0804,14.4,1.7,300,5,,10+,30.02,1016.8,,TRUE,TRUE,,,,,,,FEW,6500,,,,,,,VFR,,,,,,,,,,,,METAR,312
KRVS 050053Z 01006KT 10SM BKN038 21/13 A2996 RMK AO2 SLP150 T02060133,KRVS,2024-05-05T00:53:00Z,36.0424,-95.9902,20.6,13.3,10,6,,10+,29.96,1015,,,TRUE,,,,,,,BKN,3800,,,,,,,VFR,,,,,,,,,,,,METAR,191
KRTN 050053Z AUTO 16012KT 10SM CLR 16/00 A3002 RMK AO2 SLP120 T01560000,KRTN,2024-05-05T00:53:00Z,36.7418,-104.508,15.6,0,160,12,,10+,30.02,1012,,TRUE,TRUE,,,,,,,CLR,,,,,,,,VFR,,,,,,,,,,,,METAR,1939
KRSW 050053Z 00000KT 10SM FEW042 BKN110 22/19 A3001 RMK AO2 LTG DSNT N RAB04E17 SLP157 P0000 T02170194,KRSW,2024-05-05T00:53:00Z,26.538,-81.7567,21.7,19.4,0,0,,10+,30.01,1015.7,,,TRUE,,,,,,,FEW,4200,BKN,11000,,,,,VFR,,,,,,0.005,,,,,,METAR,8
KRSL 050053Z AUTO 07007KT 10SM CLR 15/06 A3003 RMK AO2 SLP170 T01500061,KRSL,2024-05-05T00:53:00Z,38.8725,-98.8093,15,6.1,70,7,,10+,30.03,1017,,TRUE,TRUE,,,,,,,CLR,,,,,,,,VFR,,,,,,,,,,,,METAR,569
KRQE 050053Z AUTO 22012G22KT 10SM CLR 20/M09 A2993 RMK AO2 SLP055 T02001094,KRQE,2024-05-05T00:53:00Z,35.6571,-109.06,20,-9.4,220,12,22,10+,29.93,1005.5,,TRUE,TRUE,,,,,,,CLR,,,,,,,,VFR,,,,,,,,,,,,METAR,2056
KRPX 050053Z AUTO 10SM 17/M06 A2973 RMK Roundup ,KRPX,2024-05-05T00:53:00Z,46.475,-108.542,17,-6,,,,10+,29.73,,,TRUE,,,,,,,,,,,,,,,,VFR,,,,,,,,,,,,METAR,1062
KRNT 050053Z 33005KT 9SM BKN050 OVC075 13/11 A2956 RMK AO2 RAB08E50 SLP015 P0000 T01280106,KRNT,2024-05-05T00:53:00Z,47.4951,-122.214,12.8,10.6,330,5,,9,29.56,1001.5,,,TRUE,,,,,,,BKN,5000,OVC,7500,,,,,VFR,,,,,,0.005,,,,,,METAR,7
KRNM 050053Z 27007KT 6SM HZ OVC009 15/12 A2991 RMK AO2 SLP122 T01500117,KRNM,2024-05-05T00:53:00Z,33.038,-116.916,15,11.7,270,7,,6,29.91,1012.2,,,TRUE,,,,,,HZ,OVC,900,,,,,,,IFR,,,,,,,,,,,,METAR,423
KRMG 050053Z AUTO 00000KT 10SM BKN050 BKN060 OVC110 23/19 A2998 RMK AO2 LTG DSNT NE AND E SLP142 T02330194,KRMG,2024-05-05T00:53:00Z,34.3483,-85.1616,23.3,19.4,0,0,,10+,29.98,1014.2,,TRUE,TRUE,,,,,,,BKN,5000,BKN,6000,OVC,11000,,,VFR,,,,,,,,,,,,METAR,196
KRME 050053Z VRB06KT 10SM OVC050 17/08 A3018 RMK AO2 SLP218 T01720078,KRME,2024-05-05T00:53:00Z,43.2242,-75.3956,17.2,7.8,VRB,6,,10+,30.18,1021.8,,,TRUE,,,,,,,OVC,5000,,,,,,,VFR,,,,,,,,,,,,METAR,146
KRKP 050053Z AUTO 10013KT 5SM BR BKN014 OVC022 26/24 A2980 RMK AO2 SLP094 T02610239,KRKP,2024-05-05T00:53:00Z,28.0837,-97.0467,26.1,23.9,100,13,,5,29.80,1009.4,,TRUE,TRUE,,,,,,BR,BKN,1400,OVC,2200,,,,,MVFR,,,,,,,,,,,,METAR,8
KRIW 050053Z AUTO 04004KT 10SM CLR 17/M02 A2978 RMK AO2 SLP062 T01721017,KRIW,2024-05-05T00:53:00Z,43.0622,-108.447,17.2,-1.7,40,4,,10+,29.78,1006.2,,TRUE,TRUE,,,,,,,CLR,,,,,,,,VFR,,,,,,,,,,,,METAR,1662
KRIL 050053Z AUTO 17010KT 10SM FEW110 22/M03 A2980 RMK AO2 PK WND 18026/0032 SLP055 T02171028,KRIL,2024-05-05T00:53:00Z,39.5279,-107.72,21.7,-2.8,170,10,,10+,29.80,1005.5,,TRUE,TRUE,,,,,,,FEW,11000,,,,,,,VFR,,,,,,,,,,,,METAR,1683
KRHI 050053Z AUTO VRB04KT 10SM SCT016 BKN025 OVC032 09/07 A2993 RMK AO2 SLP141 T00940072,KRHI,2024-05-05T00:53:00Z,45.6315,-89.4822,9.4,7.2,VRB,4,,10+,29.93,1014.1,,TRUE,TRUE,,,,,,,SCT,1600,BKN,2500,OVC,3200,,,MVFR,,,,,,,,,,,,METAR,493
KRDD 050053Z 10008KT 10SM BKN070 OVC090 10/07 A2969 RMK AO2 RAB2359E45 SLP052 P0014 T01000067,KRDD,2024-05-05T00:53:00Z,40.5146,-122.298,10,6.7,100,8,,10+,29.69,1005.2,,,TRUE,,,,,,,BKN,7000,OVC,9000,,,,,VFR,,,,,,0.14,,,,,,METAR,152
KRBG 050053Z AUTO 35005KT 10SM BKN030 OVC038 10/04 A2973 RMK AO2 SLP067 T01000044,KRBG,2024-05-05T00:53:00Z,43.2337,-123.358,10,4.4,350,5,,10+,29.73,1006.7,,TRUE,TRUE,,,,,,,BKN,3000,OVC,3800,,,,,MVFR,,,,,,,,,,,,METAR,152
KRBD 050053Z 09006KT 10SM BKN070 24/19 A2987 RMK AO2 SLP109 T02440194,KRBD,2024-05-05T00:53:00Z,32.6782,-96.8677,24.4,19.4,90,6,,10+,29.87,1010.9,,,TRUE,,,,,,,BKN,7000,,,,,,,VFR,,,,,,,,,,,,METAR,200
KRAL 050053Z 26013KT 10SM CLR 18/11 A2988 RMK AO2 SLP106 T01780111,KRAL,2024-05-05T00:53:00Z,33.9528,-117.435,17.8,11.1,260,13,,10+,29.88,1010.6,,,TRUE,,,,,,,CLR,,,,,,,,VFR,,,,,,,,,,,,METAR,254
KPUW 050053Z AUTO 18003KT 10SM OVC090 17/03 A2950 RMK AO2 SLP984 T01670033,KPUW,2024-05-05T00:53:00Z,46.7438,-117.116,16.7,3.3,180,3,,10+,29.50,998.4,,TRUE,TRUE,,,,,,,OVC,9000,,,,,,,VFR,,,,,,,,,,,,METAR,774
KPUC 050053Z AUTO 19013KT 10SM CLR 20/M07 A2976 RMK AO2 SLP043 T02001072,KPUC,2024-05-05T00:53:00Z,39.6089,-110.755,20,-7.2,190,13,,10+,29.76,1004.3,,TRUE,TRUE,,,,,,,CLR,,,,,,,,VFR,,,,,,,,,,,,METAR,1777
KPUB 050053Z 12010KT 10SM CLR 17/M01 A2997 RMK AO2 SLP120 T01721011,KPUB,2024-05-05T00:53:00Z,38.2887,-104.506,17.2,-1.1,120,10,,10+,29.97,1012,,,TRUE,,,,,,,CLR,,,,,,,,VFR,,,,,,,,,,,,METAR,1441
KPTK 050053Z 15005KT 10SM FEW017 SCT025 BKN038 BKN150 19/17 A2991 RMK AO2 SLP125 T01940167,KPTK,2024-05-05T00:53:00Z,42.6632,-83.41,19.4,16.7,150,5,,10+,29.91,1012.5,,,TRUE,,,,,,,FEW,1700,SCT,2500,BKN,3800,BKN,15000,VFR,,,,,,,,,,,,METAR,295
KPSX 050053Z AUTO 11013KT 9SM BKN015 BKN025 OVC029 26/23 A2984 RMK AO2 SLP104 T02560233,KPSX,2024-05-05T00:53:00Z,28.7248,-96.2535,25.6,23.3,110,13,,9,29.84,1010.4,,TRUE,TRUE,,,,,,,BKN,1500,BKN,2500,OVC,2900,,,MVFR,,,,,,,,,,,,METAR,4
KPSP 050053Z 32017G28KT 10SM CLR 26/07 A2969 RMK AO2 PK WND 33033/0032 SLP053 T02610072 PNO $,KPSP,2024-05-05T00:53:00Z,33.8222,-116.504,26.1,7.2,320,17,28,10+,29.69,1005.3,,,TRUE,TRUE,,,,,,CLR,,,,,,,,VFR,,,,,,,,,,,,METAR,123
KPSC 050053Z 32016KT 10SM SCT100 17/08 A2944 RMK AO2 SLP968 T01720083 $,KPSC,2024-05-05T00:53:00Z,46.2695,-119.118,17.2,8.3,320,16,,10+,29.44,996.8,,,TRUE,TRUE,,,,,,SCT,10000,,,,,,,VFR,,,,,,,,,,,,METAR,121
KPRC 050053Z 19012G20KT 10SM CLR 21/M02 A2989 RMK AO2 SLP061 T02061022,KPRC,2024-05-05T00:53:00Z,34.6491,-112.422,20.6,-2.2,190,12,20,10+,29.89,1006.1,,,TRUE,,,,,,,CLR,,,,,,,,VFR,,,,,,,,,,,,METAR,1528
KPRB 050053Z AUTO 33009KT 5SM -RA BR FEW006 SCT012 OVC020 09/08 A2986 RMK AO2 WSHFT 0015 SLP111 P0003 T00940083 $,KPRB,2024-05-05T00:53:00Z,35.6693,-120.629,9.4,8.3,330,9,,5,29.86,1011.1,,TRUE,TRUE,TRUE,,,,,-RA BR,FEW,600,SCT,1200,OVC,2000,,,MVFR,,,,,,0.03,,,,,,METAR,249
KPQL 050053Z AUTO 00000KT 10SM FEW006 FEW021 24/21 A2998 RMK AO2 SLP153 T02390211,KPQL,2024-05-05T00:53:00Z,30.4631,-88.5316,23.9,21.1,0,0,,10+,29.98,1015.3,,TRUE,TRUE,,,,,,,FEW,600,FEW,2100,,,,,VFR,,,,,,,,,,,,METAR,4
KPOU 050053Z AUTO 14004KT 10SM CLR 14/08 A3028 RMK AO2 SLP249 T01390078,KPOU,2024-05-05T00:53:00Z,41.6257,-73.8816,13.9,7.8,140,4,,10+,30.28,1024.9,,TRUE,TRUE,,,,,,,CLR,,,,,,,,VFR,,,,,,,,,,,,METAR,45
KPOF 050053Z AUTO 21004KT 10SM CLR 24/18 A2991 RMK AO2 SLP125 T02390178,KPOF,2024-05-05T00:53:00Z,36.7697,-90.3224,23.9,17.8,210,4,,10+,29.91,1012.5,,TRUE,TRUE,,,,,,,CLR,,,,,,,,VFR,,,,,,,,,,,,METAR,99
KPNS 050053Z 24006KT 10SM CLR 24/18 A2999 RMK AO2 SLP156 T02440178,KPNS,2024-05-05T00:53:00Z,30.478,-87.1869,24.4,17.8,240,6,,10+,29.99,1015.6,,,TRUE,,,,,,,CLR,,,,,,,,VFR,,,,,,,,,,,,METAR,34
KPNC 050053Z AUTO 02006KT 10SM OVC046 19/13 A2999 RMK AO2 SLP148 T01940128,KPNC,2024-05-05T00:53:00Z,36.7369,-97.1024,19.4,12.8,20,6,,10+,29.99,1014.8,,TRUE,TRUE,,,,,,,OVC,4600,,,,,,,VFR,,,,,,,,,,,,METAR,304
KPMP 050053Z 10009KT 10SM FEW026 SCT080 26/19 A3002 RMK AO2 SLP166 T02610194,KPMP,2024-05-05T00:53:00Z,26.2464,-80.111,26.1,19.4,100,9,,10+,30.02,1016.6,,,TRUE,,,,,,,FEW,2600,SCT,8000,,,,,VFR,,,,,,,,,,,,METAR,4
KPMD 050053Z 22023G33KT 10SM CLR 17/04 A2981 RMK AO2 PK WND 24041/0012 SLP082 T01670044,KPMD,2024-05-05T00:53:00Z,34.6295,-118.083,16.7,4.4,220,23,33,10+,29.81,1008.2,,,TRUE,,,,,,,CLR,,,,,,,,VFR,,,,,,,,,,,,METAR,764
KPKD 050053Z AUTO 32007KT 10SM BKN049 BKN060 13/03 A2997 RMK AO2 SLP158 T01330033,KPKD,2024-05-05T00:53:00Z,46.8971,-95.0695,13.3,3.3,320,7,,10+,29.97,1015.8,,TRUE,TRUE,,,,,,,BKN,4900,BKN,6000,,,,,VFR,,,,,,,,,,,,METAR,439
KPKB 050053Z 15004KT 8SM BKN120 19/19 A2998 RMK AO2 RAE33 SLP147 P0000 T01940189,KPKB,2024-05-05T00:53:00Z,39.3395,-81.4438,19.4,18.9,150,4,,8,29.98,1014.7,,,TRUE,,,,,,,BKN,12000,,,,,,,VFR,,,,,,0.005,,,,,,METAR,245
KPIR 050053Z AUTO 03005KT 10SM CLR 15/03 A3000 RMK AO2 SLP162 T01500033,KPIR,2024-05-05T00:53:00Z,44.3819,-100.286,15,3.3,30,5,,10+,30.00,1016.2,,TRUE,TRUE,,,,,,,CLR,,,,,,,,VFR,,,,,,,,,,,,METAR,524
KPIL 050053Z AUTO 13011KT 8SM OVC010 27/24 A2975 RMK AO2 SLP073 T02670244,KPIL,2024-05-05T00:53:00Z,26.1597,-97.3378,26.7,24.4,130,11,,8,29.75,1007.3,,TRUE,TRUE,,,,,,,OVC,1000,,,,,,,MVFR,,,,,,,,,,,,METAR,5
KPIH 050053Z 15011G21KT 10SM CLR 19/01 A2956 RMK AO2 SLP996 T01890006,KPIH,2024-05-05T00:53:00Z,42.9197,-112.572,18.9,0.6,150,11,21,10+,29.56,999.6,,,TRUE,,,,,,,CLR,,,,,,,,VFR,,,,,,,,,,,,METAR,1357
KPIE 050053Z 35003KT 10SM CLR 25/20 A3001 RMK AO2 SLP162 T02500200 $,KPIE,2024-05-05T00:53:00Z,27.9126,-82.6855,25,20,350,3,,10+,30.01,1016.2,,,TRUE,TRUE,,,,,,CLR,,,,,,,,VFR,,,,,,,,,,,,METAR,1
KPHD 050053Z AUTO 10006KT 10SM OVC008 18/17 A2997 RMK AO2 SLP144 T01830167,KPHD,2024-05-05T00:53:00Z,40.4703,-81.4218,18.3,16.7,100,6,,10+,29.97,1014.4,,TRUE,TRUE,,,,,,,OVC,800,,,,,,,IFR,,,,,,,,,,,,METAR,272
KPGD 050053Z AUTO 00000KT 10SM SCT070 OVC085 26/20 A3002 RMK AO2 LTG DSNT E RAB31E51 SLP164 P0000 T02610200,KPGD,2024-05-05T00:53:00Z,26.9185,-81.9939,26.1,20,0,0,,10+,30.02,1016.4,,TRUE,TRUE,,,,,,,SCT,7000,OVC,8500,,,,,VFR,,,,,,0.005,,,,,,METAR,7
KPGA 050053Z AUTO 21011G21KT 10SM CLR 27/M05 A2970 RMK AO2 SLP001 T02671050 $,KPGA,2024-05-05T00:53:00Z,36.9211,-111.449,26.7,-5,210,11,21,10+,29.70,1000.1,,TRUE,TRUE,TRUE,,,,,,CLR,,,,,,,,VFR,,,,,,,,,,,,METAR,1310
KPEO 050053Z AUTO 16008G18KT 10SM FEW028 OVC040 13/07 A3015 RMK AO2 PK WND 16026/0019 SLP209 T01330072 $,KPEO,2024-05-05T00:53:00Z,42.6441,-77.0528,13.3,7.2,160,8,18,10+,30.15,1020.9,,TRUE,TRUE,TRUE,,,,,,FEW,2800,OVC,4000,,,,,VFR,,,,,,,,,,,,METAR,268
KPDX 050053Z 23006KT 6SM -RA BR SCT012 BKN026 OVC034 11/08 A2965 RMK AO2 SLP040 P0004 T01060083 $,KPDX,2024-05-05T00:53:00Z,45.5958,-122.609,10.6,8.3,230,6,,6,29.65,1004,,,TRUE,TRUE,,,,,-RA BR,SCT,1200,BKN,2600,OVC,3400,,,MVFR,,,,,,0.04,,,,,,METAR,7
KPDT 050053Z 01006KT 10SM BKN110 19/04 A2943 RMK AO2 SLP953 T01890039,KPDT,2024-05-05T00:53:00Z,45.6975,-118.834,18.9,3.9,10,6,,10+,29.43,995.3,,,TRUE,,,,,,,BKN,11000,,,,,,,VFR,,,,,,,,,,,,METAR,453
KPDK 050053Z 16003KT 10SM CLR 21/18 A3003 RMK AO2 SLP158 T02110178,KPDK,2024-05-05T00:53:00Z,33.8783,-84.298,21.1,17.8,160,3,,10+,30.03,1015.8,,,TRUE,,,,,,,CLR,,,,,,,,VFR,,,,,,,,,,,,METAR,299
KPBI 050053Z 09011KT 10SM FEW045 SCT080 27/21 A3003 RMK AO2 SLP167 T02670211,KPBI,2024-05-05T00:53:00Z,26.6851,-80.0992,26.7,21.1,90,11,,10+,30.03,1016.7,,,TRUE,,,,,,,FEW,4500,SCT,8000,,,,,VFR,,,,,,,,,,,,METAR,4
KPBG 050053Z AUTO 13009KT 10SM CLR 16/08 A3018 RMK AO2 SLP222 T01610078,KPBG,2024-05-05T00:53:00Z,44.6392,-73.4631,16.1,7.8,130,9,,10+,30.18,1022.2,,TRUE,TRUE,,,,,,,CLR,,,,,,,,VFR,,,,,,,,,,,,METAR,61
KPBF 050053Z AUTO 35004KT 10SM CLR 22/19 A2996 RMK AO2 SLP144 T02170189,KPBF,2024-05-05T00:53:00Z,34.1798,-91.9344,21.7,18.9,350,4,,10+,29.96,1014.4,,TRUE,TRUE,,,,,,,CLR,,,,,,,,VFR,,,,,,,,,,,,METAR,63
KPAH 050053Z 00000KT 10SM FEW055 24/18 A2992 RMK AO2 SLP126 T02440178,KPAH,2024-05-05T00:53:00Z,37.0652,-88.7793,24.4,17.8,0,0,,10+,29.92,1012.6,,,TRUE,,,,,,,FEW,5500,,,,,,,VFR,,,,,,,,,,,,METAR,125
KPAE 050053Z 34004KT 10SM -RA OVC075 13/09 A2957 RMK AO2 SLP012 P0000 T01330094,KPAE,2024-05-05T00:53:00Z,47.9232,-122.283,13.3,9.4,340,4,,10+,29.57,1001.2,,,TRUE,,,,,,-RA,OVC,7500,,,,,,,VFR,,,,,,0.005,,,,,,METAR,166
KP68 050053Z AUTO 18035G44KT 16/M04 A2948 RMK AO1 PK WND 17047/0018 SLP933 T01611044,KP68,2024-05-05T00:53:00Z,39.602,-116.006,16.1,-4.4,180,35,44,,29.48,993.3,,TRUE,TRUE,,,,,,,,,,,,,,,,,,,,,,,,,,,METAR,1813
KOXB 050053Z AUTO 09008KT 10SM OVC008 13/11 A3025 RMK AO2 SLP242 T01280106,KOXB,2024-05-05T00:53:00Z,38.3091,-75.1234,12.8,10.6,90,8,,10+,30.25,1024.2,,TRUE,TRUE,,,,,,,OVC,800,,,,,,,IFR,,,,,,,,,,,,METAR,2
KOWD 050053Z 07005KT 10SM BKN014 09/06 A3038 RMK AO2 SLP286 T00940061,KOWD,2024-05-05T00:53:00Z,42.1912,-71.1732,9.4,6.1,70,5,,10+,30.38,1028.6,,,TRUE,,,,,,,BKN,1400,,,,,,,MVFR,,,,,,,,,,,,METAR,14
KOWA 050053Z AUTO 29003KT 10SM CLR 13/08 A3001 RMK AO2,KOWA,2024-05-05T00:53:00Z,44.1191,-93.2569,13,8,290,3,,10+,30.01,,,TRUE,TRUE,,,,,,,CLR,,,,,,,,VFR,,,,,,,,,,,,METAR,345
KOVS 050053Z AUTO 34010G18KT 10SM OVC035 15/08 A2996 RMK AO2 SLP149 T01500078,KOVS,2024-05-05T00:53:00Z,43.1561,-90.6775,15,7.8,340,10,18,10+,29.96,1014.9,,TRUE,TRUE,,,,,,,OVC,3500,,,,,,,VFR,,,,,,,,,,,,METAR,205
KOVE 050053Z AUTO 13008KT 090V190 3SM -TSRA BR FEW016 BKN027 OVC039 09/07 A2975 RMK AO2 PK WND 16028/2357 LTG DSNT N-SE RAB06 TSB16E44B46 SLP076 P0035 T00940072 $,KOVE,2024-05-05T00:53:00Z,39.4943,-121.622,9.4,7.2,130,8,,3,29.75,1007.6,,TRUE,TRUE,TRUE,,,,,-TSRA BR,FEW,1600,BKN,2700,OVC,3900,,,MVFR,,,,,,0.35,,,,,,METAR,56
KOTM 050053Z AUTO 32013KT 10SM OVC036 13/09 A3002 RMK AO2 SLP165 T01280089,KOTM,2024-05-05T00:53:00Z,41.1008,-92.4445,12.8,8.9,320,13,,10+,30.02,1016.5,,TRUE,TRUE,,,,,,,OVC,3600,,,,,,,VFR,,,,,,,,,,,,METAR,254
KOSU 050053Z 11004KT 10SM BKN035 21/18 A2991 RMK AO2 SLP124 T02060178,KOSU,2024-05-05T00:53:00Z,40.0784,-83.0782,20.6,17.8,110,4,,10+,29.91,1012.4,,,TRUE,,,,,,,BKN,3500,,,,,,,VFR,,,,,,,,,,,,METAR,276
KOSH 050053Z 33018G23KT 10SM BKN019 BKN046 OVC055 13/09 A2990 RMK AO2 PK WND 30026/2357 SLP120 T01330089,KOSH,2024-05-05T00:53:00Z,43.9669,-88.5582,13.3,8.9,330,18,23,10+,29.90,1012,,,TRUE,,,,,,,BKN,1900,BKN,4600,OVC,5500,,,MVFR,,,,,,,,,,,,METAR,239
KORL 050053Z 11009KT 10SM CLR 24/20 A3002 RMK AO2 SLP170 T02390200,KORL,2024-05-05T00:53:00Z,28.5465,-81.3354,23.9,20,110,9,,10+,30.02,1017,,,TRUE,,,,,,,CLR,,,,,,,,VFR,,,,,,,,,,,,METAR,32
KORB 050053Z AUTO 00000KT 10SM CLR 09/04 A2995 RMK AO2,KORB,2024-05-05T00:53:00Z,48.0171,-92.8538,9,4,0,0,,10+,29.95,,,TRUE,TRUE,,,,,,,CLR,,,,,,,,VFR,,,,,,,,,,,,METAR,407
KOQT 050053Z AUTO 00000KT 10SM BKN110 21/19 A3000 RMK AO2 SLP148 T02110189,KOQT,2024-05-05T00:53:00Z,36.023,-84.2336,21.1,18.9,0,0,,10+,30.00,1014.8,,TRUE,TRUE,,,,,,,BKN,11000,,,,,,,VFR,,,,,,,,,,,,METAR,276
KOPF 050053Z 11009KT 10SM CLR 26/20 A3001 RMK AO2 SLP164 T02560200,KOPF,2024-05-05T00:53:00Z,25.9102,-80.2828,25.6,20,110,9,,10+,30.01,1016.4,,,TRUE,,,,,,,CLR,,,,,,,,VFR,,,,,,,,,,,,METAR,1
KONT 050053Z 22012KT 10SM SCT025 BKN034 OVC040 17/09 A2988 RMK AO2 SLP113 T01670094,KONT,2024-05-05T00:53:00Z,34.0531,-117.577,16.7,9.4,220,12,,10+,29.88,1011.3,,,TRUE,,,,,,,SCT,2500,BKN,3400,OVC,4000,,,VFR,,,,,,,,,,,,METAR,279
KONO 050053Z AUTO 00000KT 7SM -RA OVC070 17/07 A2947 RMK AO2 RAB21 SLP974 P0001 T01670067,KONO,2024-05-05T00:53:00Z,44.0143,-117.008,16.7,6.7,0,0,,7,29.47,997.4,,TRUE,TRUE,,,,,,-RA,OVC,7000,,,,,,,VFR,,,,,,0.01,,,,,,METAR,668
KOMK 050053Z AUTO 31015G22KT 10SM OVC080 14/07 A2955 RMK AO2 PK WND 31026/0031 SLP007 T01390072,KOMK,2024-05-05T00:53:00Z,48.4611,-119.521,13.9,7.2,310,15,22,10+,29.55,1000.7,,TRUE,TRUE,,,,,,,OVC,8000,,,,,,,VFR,,,,,,,,,,,,METAR,395
KOLF 050053Z AUTO 00000KT 10SM CLR 15/M03 A2991 RMK AO2 SLP137 T01501033,KOLF,2024-05-05T00:53:00Z,48.0942,-105.578,15,-3.3,0,0,,10+,29.91,1013.7,,TRUE,TRUE,,,,,,,CLR,,,,,,,,VFR,,,,,,,,,,,,METAR,605
KOJC 050053Z 36007KT 10SM BKN027 14/08 A3005 RMK AO2 SLP172 T01440083,KOJC,2024-05-05T00:53:00Z,38.85,-94.7395,14.4,8.3,360,7,,10+,30.05,1017.2,,,TRUE,,,,,,,BKN,2700,,,,,,,MVFR,,,,,,,,,,,,METAR,328
KOGD 050053Z 17015G25KT 10SM FEW110 24/M01 A2956 RMK AO2 PK WND 16030/0030 SLP969 T02391011 $,KOGD,2024-05-05T00:53:00Z,41.1941,-112.017,23.9,-1.1,170,15,25,10+,29.56,996.9,,,TRUE,TRUE,,,,,,FEW,11000,,,,,,,VFR,,,,,,,,,,,,METAR,1356
KOGB 050053Z AUTO VRB03KT 10SM OVC090 23/20 A3005 RMK AO2 SLP172 T02330200,KOGB,2024-05-05T00:53:00Z,33.4637,-80.8534,23.3,20,VRB,3,,10+,30.05,1017.2,,TRUE,TRUE,,,,,,,OVC,9000,,,,,,,VFR,,,,,,,,,,,,METAR,59
KODX 050053Z AUTO 07005KT 10SM CLR 14/04 A3005 RMK AO2 SLP181 T01440039,KODX,2024-05-05T00:53:00Z,41.6234,-98.9489,14.4,3.9,70,5,,10+,30.05,1018.1,,TRUE,TRUE,,,,,,,CLR,,,,,,,,VFR,,,,,,,,,,,,METAR,628
KODO 050053Z AUTO 05019G24KT 10SM CLR 19/17 A2987 RMK AO2 SLP076 T01940167 $,KODO,2024-05-05T00:53:00Z,31.925,-102.387,19.4,16.7,50,19,24,10+,29.87,1007.6,,TRUE,TRUE,TRUE,,,,,,CLR,,,,,,,,VFR,,,,,,,,,,,,METAR,912
KOAK 050053Z 27015G25KT 10SM SCT023 SCT100 13/06 A2985 RMK AO2 PK WND 27033/0019 SLP108 T01280061,KOAK,2024-05-05T00:53:00Z,37.7178,-122.233,12.8,6.1,270,15,25,10+,29.85,1010.8,,,TRUE,,,,,,,SCT,2300,SCT,10000,,,,,VFR,,,,,,,,,,,,METAR,3
KNUW 050053Z 18003KT 10SM SCT080 OVC085 12/09 A2957 RMK AO2 RAE2357 SLP018 P0000 T01170089 $,KNUW,2024-05-05T00:53:00Z,48.355,-122.664,11.7,8.9,180,3,,10+,29.57,1001.8,,,TRUE,TRUE,,,,,,SCT,8000,OVC,8500,,,,,VFR,,,,,,0.005,,,,,,METAR,14
KNUI 050053Z AUTO 08006KT 10SM OVC013 14/12 A3020 RMK AO2 SLP226 T01390122 $,KNUI,2024-05-05T00:53:00Z,38.152,-76.432,13.9,12.2,80,6,,10+,30.20,1022.6,,TRUE,TRUE,TRUE,,,,,,OVC,1300,,,,,,,MVFR,,,,,,,,,,,,METAR,4
KNSI 050053Z AUTO 29015G20KT 10SM FEW011 15/11 A2993 RMK AO2 SLP133 T01500106,KNSI,2024-05-05T00:53:00Z,33.2337,-119.456,15,10.6,290,15,20,10+,29.93,1013.3,,TRUE,TRUE,,,,,,,FEW,1100,,,,,,,VFR,,,,,,,,,,,,METAR,161
KNRS 050053Z AUTO 31011KT FEW016 OVC023 M17/ A2993 RMK AO2 SLP134 T1167 $,KNRS,2024-05-05T00:53:00Z,32.563,-117.111,-16.7,,310,11,,,29.93,1013.4,,TRUE,TRUE,TRUE,,,,,,FEW,1600,OVC,2300,,,,,,,,,,,,,,,,,METAR,15
KNQX 050053Z 10015KT 10SM FEW025 28/22 A2998 RMK AO2 SLP150 T02780222 $,KNQX,2024-05-05T00:53:00Z,24.5801,-81.6829,27.8,22.2,100,15,,10+,29.98,1015,,,TRUE,TRUE,,,,,,FEW,2500,,,,,,,VFR,,,,,,,,,,,,METAR,2
KNIP 050053Z 13009KT 10SM FEW045 FEW150 BKN250 25/19 A3004 RMK AO2 SLP169 T02500194,KNIP,2024-05-05T00:53:00Z,30.2346,-81.6746,25,19.4,130,9,,10+,30.04,1016.9,,,TRUE,,,,,,,FEW,4500,FEW,15000,BKN,25000,,,VFR,,,,,,,,,,,,METAR,3
KNEW 050053Z 17009KT 10SM CLR 27/21 A2997 RMK AO2 SLP142 T02720211,KNEW,2024-05-05T00:53:00Z,30.0494,-90.029,27.2,21.1,170,9,,10+,29.97,1014.2,,,TRUE,,,,,,,CLR,,,,,,,,VFR,,,,,,,,,,,,METAR,1
KMYV 050053Z AUTO 19007KT 10SM CLR 12/07 A2976 RMK AO2 WSHFT 2340 LTG DSNT N-SE RAE22 TSE32 SLP082 P0001 T01220072,KMYV,2024-05-05T00:53:00Z,39.102,-121.569,12.2,7.2,190,7,,10+,29.76,1008.2,,TRUE,TRUE,,,,,,,CLR,,,,,,,,VFR,,,,,,0.01,,,,,,METAR,18
KMYF 050053Z 26010KT 10SM BKN021 OVC025 17/12 A2992 RMK AO2 SLP129 T01670117,KMYF,2024-05-05T00:53:00Z,32.8145,-117.137,16.7,11.7,260,10,,10+,29.92,1012.9,,,TRUE,,,,,,,BKN,2100,OVC,2500,,,,,MVFR,,,,,,,,,,,,METAR,128
KMWT 050053Z AUTO 00000KT 10SM SCT055 BKN080 24/20 A2995 RMK AO2 SLP132 T02390200,KMWT,2024-05-05T00:53:00Z,34.5466,-93.5779,23.9,20,0,0,,10+,29.95,1013.2,,TRUE,TRUE,,,,,,,SCT,5500,BKN,8000,,,,,VFR,,,,,,,,,,,,METAR,220
KMWL 050053Z AUTO 15010G18KT 9SM FEW070 SCT110 22/20 A2984 RMK AO2 LTG DSNT SW RAE2356 SLP094 P0000 T02170200,KMWL,2024-05-05T00:53:00Z,32.7816,-98.0602,21.7,20,150,10,18,9,29.84,1009.4,,TRUE,TRUE,,,,,,,FEW,7000,SCT,11000,,,,,VFR,,,,,,0.005,,,,,,METAR,288
KMVY 050053Z 08010KT 10SM OVC015 09/07 A3036 RMK AO2 SLP281 T00940067,KMVY,2024-05-05T00:53:00Z,41.393,-70.6159,9.4,6.7,80,10,,10+,30.36,1028.1,,,TRUE,,,,,,,OVC,1500,,,,,,,MVFR,,,,,,,,,,,,METAR,18
KMTJ 050053Z AUTO 11006KT 10SM FEW110 21/M04 A2983 RMK AO2 SLP050 T02111039,KMTJ,2024-05-05T00:53:00Z,38.5054,-107.898,21.1,-3.9,110,6,,10+,29.83,1005,,TRUE,TRUE,,,,,,,FEW,11000,,,,,,,VFR,,,,,,,,,,,,METAR,1755
KMTH 050053Z AUTO 09012KT 10SM CLR 27/22 A2998 RMK AO2 SLP150 T02670217,KMTH,2024-05-05T00:53:00Z,24.7262,-81.0477,26.7,21.7,90,12,,10+,29.98,1015,,TRUE,TRUE,,,,,,,CLR,,,,,,,,VFR,,,,,,,,,,,,METAR,1
KMSY 050053Z 16005KT 10SM FEW025 SCT080 SCT170 BKN250 26/21 A2998 RMK AO2 SLP153 T02610211,KMSY,2024-05-05T00:53:00Z,29.9974,-90.2777,26.1,21.1,160,5,,10+,29.98,1015.3,,,TRUE,,,,,,,FEW,2500,SCT,8000,SCT,17000,BKN,25000,VFR,,,,,,,,,,,,METAR,
KMSS 050053Z AUTO 00000KT 10SM CLR 15/10 A3015 RMK AO2 SLP212 T01500100,KMSS,2024-05-05T00:53:00Z,44.9334,-74.8484,15,10,0,0,,10+,30.15,1021.2,,TRUE,TRUE,,,,,,,CLR,,,,,,,,VFR,,,,,,,,,,,,METAR,60
KMSP 050053Z 31006KT 10SM FEW050 15/04 A2998 RMK AO2 SLP156 T01500039,KMSP,2024-05-05T00:53:00Z,44.8852,-93.2313,15,3.9,310,6,,10+,29.98,1015.6,,,TRUE,,,,,,,FEW,5000,,,,,,,VFR,,,,,,,,,,,,METAR,255
KMSO 050053Z 08012G18KT 10SM OVC110 19/M03 A2956 RMK AO2 SLP012 T01891033 $,KMSO,2024-05-05T00:53:00Z,46.9208,-114.094,18.9,-3.3,80,12,18,10+,29.56,1001.2,,,TRUE,TRUE,,,,,,OVC,11000,,,,,,,VFR,,,,,,,,,,,,METAR,974
KMSN 050053Z 34008G16KT 10SM OVC033 14/08 A2991 RMK AO2 SLP129 T01390083,KMSN,2024-05-05T00:53:00Z,43.1407,-89.3452,13.9,8.3,340,8,16,10+,29.91,1012.9,,,TRUE,,,,,,,OVC,3300,,,,,,,VFR,,,,,,,,,,,,METAR,262
KMSL 050053Z AUTO 25004KT 10SM CLR 24/18 A2994 RMK AO2 SLP134 T02390183,KMSL,2024-05-05T00:53:00Z,34.7439,-87.5997,23.9,18.3,250,4,,10+,29.94,1013.4,,TRUE,TRUE,,,,,,,CLR,,,,,,,,VFR,,,,,,,,,,,,METAR,170
KMPO 050053Z AUTO 12011G19KT 5SM RA BR OVC002 07/06 A3026 RMK AO2 SLP256 P0008 T00670056 $,KMPO,2024-05-05T00:53:00Z,41.1368,-75.3771,6.7,5.6,120,11,19,5,30.26,1025.6,,TRUE,TRUE,TRUE,,,,,RA BR,OVC,200,,,,,,,LIFR,,,,,,0.08,,,,,,METAR,576
KMOD 050053Z 08004KT 10SM FEW025 SCT034 11/08 A2984 RMK AO2 SLP104 T01110083,KMOD,2024-05-05T00:53:00Z,37.6254,-120.955,11.1,8.3,80,4,,10+,29.84,1010.4,,,TRUE,,,,,,,FEW,2500,SCT,3400,,,,,VFR,,,,,,,,,,,,METAR,25
KMNN 050053Z AUTO 15006KT 10SM SCT075 OVC090 21/18 A2991 RMK AO2 SLP126 T02060178,KMNN,2024-05-05T00:53:00Z,40.6158,-83.0673,20.6,17.8,150,6,,10+,29.91,1012.6,,TRUE,TRUE,,,,,,,SCT,7500,OVC,9000,,,,,VFR,,,,,,,,,,,,METAR,301
KMMV 050053Z AUTO 10SM -RA OVC065 09/08 A2966 RMK AO2 SLP042 T00890078 PNO $,KMMV,2024-05-05T00:53:00Z,45.1957,-123.134,8.9,7.8,,,,10+,29.66,1004.2,,TRUE,TRUE,TRUE,,,,,-RA,OVC,6500,,,,,,,VFR,,,,,,,,,,,,METAR,48
KMLU 050053Z 00000KT 10SM CLR 26/22 A2995 RMK AO2 SLP142 T02560217,KMLU,2024-05-05T00:53:00Z,32.5155,-92.03,25.6,21.7,0,0,,10+,29.95,1014.2,,,TRUE,,,,,,,CLR,,,,,,,,VFR,,,,,,,,,,,,METAR,22
KMLT 050053Z AUTO 12004KT 10SM OVC044 14/07 A3037 RMK AO2 SLP289 T01440072,KMLT,2024-05-05T00:53:00Z,45.6478,-68.6925,14.4,7.2,120,4,,10+,30.37,1028.9,,TRUE,TRUE,,,,,,,OVC,4400,,,,,,,VFR,,,,,,,,,,,,METAR,121
KMLS 050053Z AUTO 04005KT 10SM CLR 16/M04 A2985 RMK AO2 SLP118 T01611044,KMLS,2024-05-05T00:53:00Z,46.4265,-105.883,16.1,-4.4,40,5,,10+,29.85,1011.8,,TRUE,TRUE,,,,,,,CLR,,,,,,,,VFR,,,,,,,,,,,,METAR,800
KMLP 050053Z AUTO VRB05KT 10SM SCT044 BKN085 OVC110 07/M03 A2965 RMK AO2 SLP991 T00721033 $,KMLP,2024-05-05T00:53:00Z,47.4548,-115.671,7.2,-3.3,VRB,5,,10+,29.65,999.1,,TRUE,TRUE,TRUE,,,,,,SCT,4400,BKN,8500,OVC,11000,,,VFR,,,,,,,,,,,,METAR,1837
KMLC 050053Z AUTO 18003KT 10SM BKN075 21/19 A2995 RMK AO2 SLP134 T02060189,KMLC,2024-05-05T00:53:00Z,34.8824,-95.7815,20.6,18.9,180,3,,10+,29.95,1013.4,,TRUE,TRUE,,,,,,,BKN,7500,,,,,,,VFR,,,,,,,,,,,,METAR,231
KMLB 050053Z 11011KT 10SM CLR 25/20 A3001 RMK AO2 SLP161 T02500200,KMLB,2024-05-05T00:53:00Z,28.0997,-80.6356,25,20,110,11,,10+,30.01,1016.1,,,TRUE,,,,,,,CLR,,,,,,,,VFR,,,,,,,,,,,,METAR,7
KMKO 050053Z AUTO 35010KT 10SM CLR 22/17 A2996 RMK AO2 SLP139 T02220172,KMKO,2024-05-05T00:53:00Z,35.6576,-95.3658,22.2,17.2,350,10,,10+,29.96,1013.9,,TRUE,TRUE,,,,,,,CLR,,,,,,,,VFR,,,,,,,,,,,,METAR,184
KMKL 050053Z AUTO 25007KT 10SM CLR 24/18 A2995 RMK AO2 SLP137 T02390183,KMKL,2024-05-05T00:53:00Z,35.5933,-88.917,23.9,18.3,250,7,,10+,29.95,1013.7,,TRUE,TRUE,,,,,,,CLR,,,,,,,,VFR,,,,,,,,,,,,METAR,130
KMIW 050053Z AUTO 34007KT 10SM CLR 12/07 A3002 RMK AO2 SLP165 T01220067,KMIW,2024-05-05T00:53:00Z,42.1106,-92.9163,12.2,6.7,340,7,,10+,30.02,1016.5,,TRUE,TRUE,,,,,,,CLR,,,,,,,,VFR,,,,,,,,,,,,METAR,296
KMIE 050053Z 15004KT 10SM BKN070 23/17 A2987 RMK AO2 SLP105 T02330167,KMIE,2024-05-05T00:53:00Z,40.2345,-85.3936,23.3,16.7,150,4,,10+,29.87,1010.5,,,TRUE,,,,,,,BKN,7000,,,,,,,VFR,,,,,,,,,,,,METAR,286
KMIC 050053Z 29005KT 10SM FEW070 15/03 A2997 RMK AO2 SLP150 T01500033,KMIC,2024-05-05T00:53:00Z,45.0623,-93.3511,15,3.3,290,5,,10+,29.97,1015,,,TRUE,,,,,,,FEW,7000,,,,,,,VFR,,,,,,,,,,,,METAR,263
KMIA 050053Z 09012KT 10SM FEW027 26/20 A3001 RMK AO2 SLP162 T02560200 $,KMIA,2024-05-05T00:53:00Z,25.7881,-80.3169,25.6,20,90,12,,10+,30.01,1016.2,,,TRUE,TRUE,,,,,,FEW,2700,,,,,,,VFR,,,,,,,,,,,,METAR,1
KMHT 050053Z 11005KT 10SM FEW030 FEW150 10/06 A3035 RMK AO2 SLP293 T01000056,KMHT,2024-05-05T00:53:00Z,42.9245,-71.4377,10,5.6,110,5,,10+,30.35,1029.3,,,TRUE,,,,,,,FEW,3000,FEW,15000,,,,,VFR,,,,,,,,,,,,METAR,68
KMGY 050053Z AUTO 17006KT 10SM FEW085 21/17 A2989 RMK AO2 SLP117 T02060172,KMGY,2024-05-05T00:53:00Z,39.5918,-84.2263,20.6,17.2,170,6,,10+,29.89,1011.7,,TRUE,TRUE,,,,,,,FEW,8500,,,,,,,VFR,,,,,,,,,,,,METAR,290
KMGW 050053Z 12005KT 10SM OVC100 14/12 A3004 RMK AO2 RAE36 SLP169 P0005 T01440117,KMGW,2024-05-05T00:53:00Z,39.6498,-79.9206,14.4,11.7,120,5,,10+,30.04,1016.9,,,TRUE,,,,,,,OVC,10000,,,,,,,VFR,,,,,,0.05,,,,,,METAR,375
KMGM 050053Z 00000KT 10SM CLR 23/19 A2998 RMK AO2 SLP149 T02330189,KMGM,2024-05-05T00:53:00Z,32.2997,-86.4074,23.3,18.9,0,0,,10+,29.98,1014.9,,,TRUE,,,,,,,CLR,,,,,,,,VFR,,,,,,,,,,,,METAR,64
KMFR 050053Z 25004KT 10SM OVC075 08/03 A2971 RMK AO2 RAE13 SLP063 P0000 T00830033 $,KMFR,2024-05-05T00:53:00Z,42.375,-122.877,8.3,3.3,250,4,,10+,29.71,1006.3,,,TRUE,TRUE,,,,,,OVC,7500,,,,,,,VFR,,,,,,0.005,,,,,,METAR,397
KMFE 050053Z 12011KT 10SM FEW026 BKN075 29/23 A2975 RMK AO2 SLP073 T02890228,KMFE,2024-05-05T00:53:00Z,26.1791,-98.2445,28.9,22.8,120,11,,10+,29.75,1007.3,,,TRUE,,,,,,,FEW,2600,BKN,7500,,,,,VFR,,,,,,,,,,,,METAR,29
KMDW 050053Z 26007KT 10SM FEW025 SCT048 BKN100 BKN250 19/17 A2984 RMK AO2 PK WND 28034/0009 WSHFT 0007 LTG DSNT NE-S RAB09E52 TSB04E52 SLP099 OCNL LTGICCCG DSNT NE-SE CB DSNT NE-SE P0020 T01940167,KMDW,2024-05-05T00:53:00Z,41.7841,-87.7551,19.4,16.7,260,7,,10+,29.84,1009.9,,,TRUE,,,,,,,FEW,2500,SCT,4800,BKN,10000,BKN,25000,VFR,,,,,,0.2,,,,,,METAR,186
KMCW 050053Z AUTO 33007KT 10SM CLR 12/06 A3003 RMK AO2 SLP168 T01170061,KMCW,2024-05-05T00:53:00Z,43.1543,-93.3262,11.7,6.1,330,7,,10+,30.03,1016.8,,TRUE,TRUE,,,,,,,CLR,,,,,,,,VFR,,,,,,,,,,,,METAR,363
KMCO 050053Z 10008KT 10SM FEW070 FEW130 FEW250 24/21 A3002 RMK AO2 SLP164 T02390206,KMCO,2024-05-05T00:53:00Z,28.4182,-81.3241,23.9,20.6,100,8,,10+,30.02,1016.4,,,TRUE,,,,,,,FEW,7000,FEW,13000,FEW,25000,,,VFR,,,,,,,,,,,,METAR,27
KMCN 050053Z AUTO 14005KT 10SM CLR 21/19 A3003 RMK AO2 SLP165 T02060189,KMCN,2024-05-05T00:53:00Z,32.6889,-83.6529,20.6,18.9,140,5,,10+,30.03,1016.5,,TRUE,TRUE,,,,,,,CLR,,,,,,,,VFR,,,,,,,,,,,,METAR,104
KMCK 050053Z AUTO 10SM CLR 16/03 A3005 RMK AO2 SLP175 T01560033,KMCK,2024-05-05T00:53:00Z,40.204,-100.59,15.6,3.3,,,,10+,30.05,1017.5,,TRUE,TRUE,,,,,,,CLR,,,,,,,,VFR,,,,,,,,,,,,METAR,780
KMCI 050053Z 01006KT 10SM BKN033 13/02 A3005 RMK AO2 SLP172 T01280017,KMCI,2024-05-05T00:53:00Z,39.2975,-94.7309,12.8,1.7,10,6,,10+,30.05,1017.2,,,TRUE,,,,,,,BKN,3300,,,,,,,VFR,,,,,,,,,,,,METAR,308
KMCE 050053Z AUTO 03005KT 10SM FEW009 BKN016 OVC090 11/08 A2986 RMK AO2 RAE26 SLP112 P0002 T01110083,KMCE,2024-05-05T00:53:00Z,37.286,-120.518,11.1,8.3,30,5,,10+,29.86,1011.2,,TRUE,TRUE,,,,,,,FEW,900,BKN,1600,OVC,9000,,,MVFR,,,,,,0.02,,,,,,METAR,49
KMCB 050053Z AUTO 00000KT 10SM VCTS FEW043 22/21 A2996 RMK AO2 PK WND 20027/2359 LTG DSNT N RAB2359E30 TSE20 SLP141 P0016 T02220211,KMCB,2024-05-05T00:53:00Z,31.1823,-90.4721,22.2,21.1,0,0,,10+,29.96,1014.1,,TRUE,TRUE,,,,,,VCTS,FEW,4300,,,,,,,VFR,,,,,,0.16,,,,,,METAR,124
KMBS 050053Z 07004KT 10SM CLR 14/12 A2989 RMK AO2 SLP121 T01390117,KMBS,2024-05-05T00:53:00Z,43.5281,-84.0813,13.9,11.7,70,4,,10+,29.89,1012.1,,,TRUE,,,,,,,CLR,,,,,,,,VFR,,,,,,,,,,,,METAR,201
KMAI 050053Z AUTO 11009KT 10SM SCT050 BKN060 22/19 A3001 RMK AO2 LTG DSNT ALQDS SLP161 T02220189 $,KMAI,2024-05-05T00:53:00Z,30.837,-85.1835,22.2,18.9,110,9,,10+,30.01,1016.1,,TRUE,TRUE,TRUE,,,,,,SCT,5000,BKN,6000,,,,,VFR,,,,,,,,,,,,METAR,33
KMAF 050053Z 07016KT 10SM SCT110 19/16 A2986 RMK AO2 SLP073 T01940161,KMAF,2024-05-05T00:53:00Z,31.9475,-102.209,19.4,16.1,70,16,,10+,29.86,1007.3,,,TRUE,,,,,,,SCT,11000,,,,,,,VFR,,,,,,,,,,,,METAR,874
KMAE 050053Z AUTO 36008KT 5SM -RA BR BKN008 BKN011 OVC049 11/09 A2988 RMK AO2 SLP117 P0009 T01060089,KMAE,2024-05-05T00:53:00Z,36.9851,-120.111,10.6,8.9,360,8,,5,29.88,1011.7,,TRUE,TRUE,,,,,,-RA BR,BKN,800,BKN,1100,OVC,4900,,,IFR,,,,,,0.09,,,,,,METAR,77
KLXV 050053Z AUTO 18014KT 10SM BKN090 08/M04 A3007 RMK AO2 SLP087 T00831039,KLXV,2024-05-05T00:53:00Z,39.228,-106.316,8.3,-3.9,180,14,,10+,30.07,1008.7,,TRUE,TRUE,,,,,,,BKN,9000,,,,,,,VFR,,,,,,,,,,,,METAR,3027
KLXT 050053Z AUTO 35009KT 10SM OVC027 15/09 A3006 RMK AO2 SLP175 T01500089 $,KLXT,2024-05-05T00:53:00Z,38.9577,-94.3712,15,8.9,350,9,,10+,30.06,1017.5,,TRUE,TRUE,TRUE,,,,,,OVC,2700,,,,,,,MVFR,,,,,,,,,,,,METAR,306
KLWV 050053Z AUTO 20005KT 10SM CLR 25/17 A2988 RMK AO2 SLP115 T02500172,KLWV,2024-05-05T00:53:00Z,38.7604,-87.599,25,17.2,200,5,,10+,29.88,1011.5,,TRUE,TRUE,,,,,,,CLR,,,,,,,,VFR,,,,,,,,,,,,METAR,128
KLWD 050053Z AUTO 35007KT 10SM OVC038 13/08 A3005 RMK AO2 SLP174 T01330083,KLWD,2024-05-05T00:53:00Z,40.6306,-93.9005,13.3,8.3,350,7,,10+,30.05,1017.4,,TRUE,TRUE,,,,,,,OVC,3800,,,,,,,VFR,,,,,,,,,,,,METAR,345
KLVS 050053Z AUTO 16014KT 10SM CLR 14/01 A3006 RMK AO2 SLP113 T01440011,KLVS,2024-05-05T00:53:00Z,35.6558,-105.139,14.4,1.1,160,14,,10+,30.06,1011.3,,TRUE,TRUE,,,,,,,CLR,,,,,,,,VFR,,,,,,,,,,,,METAR,2095
KLVM 050053Z AUTO 08018G28KT 10SM FEW100 16/M03 A2971 RMK AO2 PK WND 07030/0016 SLP063 T01561033 $,KLVM,2024-05-05T00:53:00Z,45.6984,-110.442,15.6,-3.3,80,18,28,10+,29.71,1006.3,,TRUE,TRUE,TRUE,,,,,,FEW,10000,,,,,,,VFR,,,,,,,,,,,,METAR,1418
KLVK 050053Z 27015G23KT 10SM FEW031 BKN055 BKN070 12/06 A2984 RMK AO2 PK WND 25028/0039 SLP102 T01220056,KLVK,2024-05-05T00:53:00Z,37.6931,-121.815,12.2,5.6,270,15,23,10+,29.84,1010.2,,,TRUE,,,,,,,FEW,3100,BKN,5500,BKN,7000,,,VFR,,,,,,,,,,,,METAR,120
KLVJ 050053Z AUTO 13012G19KT 8SM FEW026 BKN037 OVC049 26/22 A2990 RMK AO2 SLP125 T02610222,KLVJ,2024-05-05T00:53:00Z,29.5192,-95.2423,26.1,22.2,130,12,19,8,29.90,1012.5,,TRUE,TRUE,,,,,,,FEW,2600,BKN,3700,OVC,4900,,,VFR,,,,,,,,,,,,METAR,11
KLUK 050053Z 00000KT 5SM BR OVC100 21/21 A2990 RMK AO2 LTG DSNT SE AND S SLP119 T02110206,KLUK,2024-05-05T00:53:00Z,39.106,-84.4161,21.1,20.6,0,0,,5,29.90,1011.9,,,TRUE,,,,,,BR,OVC,10000,,,,,,,MVFR,,,,,,,,,,,,METAR,144
KLSE 050053Z 33010G19KT 10SM FEW026 13/07 A2996 RMK AO2 SLP145 T01280072,KLSE,2024-05-05T00:53:00Z,43.8792,-91.253,12.8,7.2,330,10,19,10+,29.96,1014.5,,,TRUE,,,,,,,FEW,2600,,,,,,,VFR,,,,,,,,,,,,METAR,198
KLPR 050053Z AUTO 15007KT 10SM BKN012 OVC110 19/17 A2994 RMK AO2 SLP137 T01940172 TSNO $,KLPR,2024-05-05T00:53:00Z,41.3463,-82.1788,19.4,17.2,150,7,,10+,29.94,1013.7,,TRUE,TRUE,TRUE,,TRUE,,,,BKN,1200,OVC,11000,,,,,MVFR,,,,,,,,,,,,METAR,241
KLOZ 050053Z AUTO 22004KT 10SM CLR 18/17 A2999 RMK AO2 RAE35 TSE2355 SLP145 P0003 T01830167 $,KLOZ,2024-05-05T00:53:00Z,37.0896,-84.0688,18.3,16.7,220,4,,10+,29.99,1014.5,,TRUE,TRUE,TRUE,,,,,,CLR,,,,,,,,VFR,,,,,,0.03,,,,,,METAR,361
KLOU 050053Z 18009KT 10SM BKN046 BKN060 22/18 A2991 RMK AO2 SLP124 T02220178,KLOU,2024-05-05T00:53:00Z,38.2302,-85.6629,22.2,17.8,180,9,,10+,29.91,1012.4,,,TRUE,,,,,,,BKN,4600,BKN,6000,,,,,VFR,,,,,,,,,,,,METAR,165
KLOL 050053Z AUTO VRB06G21KT 10SM OVC090 10/M01 A2954 RMK AO2 PK WND 26035/0004 WSHFT 0029 RAB38E47 SLP999 P0000 T01001011,KLOL,2024-05-05T00:53:00Z,40.0685,-118.57,10,-1.1,VRB,6,21,10+,29.54,999.9,,TRUE,TRUE,,,,,,,OVC,9000,,,,,,,VFR,,,,,,0.005,,,,,,METAR,1191
KLNS 050053Z 11010KT 6SM -RA BR FEW007 OVC014 11/09 A3025 RMK AO2 SLP244 P0002 T01060094,KLNS,2024-05-05T00:53:00Z,40.1206,-76.2944,10.6,9.4,110,10,,6,30.25,1024.4,,,TRUE,,,,,,-RA BR,FEW,700,OVC,1400,,,,,MVFR,,,,,,0.02,,,,,,METAR,122
KLND 050053Z AUTO 32006KT 10SM FEW110 16/01 A2978 RMK AO2 SLP065 T01560011,KLND,2024-05-05T00:53:00Z,42.8154,-108.726,15.6,1.1,320,6,,10+,29.78,1006.5,,TRUE,TRUE,,,,,,,FEW,11000,,,,,,,VFR,,,,,,,,,,,,METAR,1700
KLMT 050053Z 27016KT 10SM FEW038 BKN050 OVC060 04/M02 A2959 RMK AO2 PK WND 28026/0017 SLP012 T00391017,KLMT,2024-05-05T00:53:00Z,42.147,-121.726,3.9,-1.7,270,16,,10+,29.59,1001.2,,,TRUE,,,,,,,FEW,3800,BKN,5000,OVC,6000,,,VFR,,,,,,,,,,,,METAR,1246
KLLQ 050053Z AUTO 16008KT 10SM CLR 22/20 A2995 RMK AO2 LTG DSNT SE SLP139 T02170200 $,KLLQ,2024-05-05T00:53:00Z,33.636,-91.7555,21.7,20,160,8,,10+,29.95,1013.9,,TRUE,TRUE,TRUE,,,,,,CLR,,,,,,,,VFR,,,,,,,,,,,,METAR,86
KLKV 050053Z AUTO 20015KT 10SM FEW031 OVC047 A2954 RMK AO2 UPB22E36 SLPNO P0000 FZRANO $,KLKV,2024-05-05T00:53:00Z,42.1538,-120.403,,,200,15,,10+,29.54,,,TRUE,TRUE,TRUE,,,TRUE,,,FEW,3100,OVC,4700,,,,,VFR,,,,,,0.005,,,,,,METAR,1440
KLIT 050053Z 00000KT 10SM SCT030 SCT160 22/18 A2997 RMK AO2 SLP148 T02170183 $,KLIT,2024-05-05T00:53:00Z,34.7273,-92.2358,21.7,18.3,0,0,,10+,29.97,1014.8,,,TRUE,TRUE,,,,,,SCT,3000,SCT,16000,,,,,VFR,,,,,,,,,,,,METAR,77
KLHX 050053Z AUTO 12016G22KT 10SM CLR 16/01 A2999 RMK AO2 SLP133 T01560006 $,KLHX,2024-05-05T00:53:00Z,38.0495,-103.513,15.6,0.6,120,16,22,10+,29.99,1013.3,,TRUE,TRUE,TRUE,,,,,,CLR,,,,,,,,VFR,,,,,,,,,,,,METAR,1289
KLHQ 050053Z AUTO 15007KT 10SM FEW031 SCT065 BKN110 20/19 A2994 RMK AO2 RAE19 SLP133 P0001 T02000189,KLHQ,2024-05-05T00:53:00Z,39.7573,-82.6633,20,18.9,150,7,,10+,29.94,1013.3,,TRUE,TRUE,,,,,,,FEW,3100,SCT,6500,BKN,11000,,,VFR,,,,,,0.01,,,,,,METAR,259
KLGB 050053Z 29011KT 10SM OVC022 18/12 A2991 RMK AO2 SLP126 T01830117,KLGB,2024-05-05T00:53:00Z,33.8118,-118.147,18.3,11.7,290,11,,10+,29.91,1012.6,,,TRUE,,,,,,,OVC,2200,,,,,,,MVFR,,,,,,,,,,,,METAR,10
KLFT 050053Z AUTO 15005KT 10SM CLR 26/22 A2995 RMK AO2 SLP140 T02610217,KLFT,2024-05-05T00:53:00Z,30.1986,-91.9896,26.1,21.7,150,5,,10+,29.95,1014,,TRUE,TRUE,,,,,,,CLR,,,,,,,,VFR,,,,,,,,,,,,METAR,9
KLFK 050053Z AUTO 09005KT 10SM CLR 24/21 A2992 RMK AO2 SLP130 T02390211,KLFK,2024-05-05T00:53:00Z,31.2359,-94.7546,23.9,21.1,90,5,,10+,29.92,1013,,TRUE,TRUE,,,,,,,CLR,,,,,,,,VFR,,,,,,,,,,,,METAR,87
KLEE 050053Z AUTO 10008KT 10SM FEW029 FEW047 BKN095 26/20 A3003 RMK AO2 SLP168 T02560200,KLEE,2024-05-05T00:53:00Z,28.8214,-81.8006,25.6,20,100,8,,10+,30.03,1016.8,,TRUE,TRUE,,,,,,,FEW,2900,FEW,4700,BKN,9500,,,VFR,,,,,,,,,,,,METAR,21
KLEB 050053Z VRB04KT 10SM CLR 13/07 A3031 RMK AO2 SLP262 T01330067,KLEB,2024-05-05T00:53:00Z,43.6271,-72.3054,13.3,6.7,VRB,4,,10+,30.31,1026.2,,,TRUE,,,,,,,CLR,,,,,,,,VFR,,,,,,,,,,,,METAR,169
KLCH 050053Z 16006KT 10SM CLR 24/22 A2993 RMK AO2 SLP144 T02390222,KLCH,2024-05-05T00:53:00Z,30.1255,-93.2277,23.9,22.2,160,6,,10+,29.93,1014.4,,,TRUE,,,,,,,CLR,,,,,,,,VFR,,,,,,,,,,,,METAR,2
KLBX 050053Z AUTO 12009KT 10SM BKN014 BKN019 OVC041 25/24 A2988 RMK AO2 SLP119 T02500239,KLBX,2024-05-05T00:53:00Z,29.1154,-95.4632,25,23.9,120,9,,10+,29.88,1011.9,,TRUE,TRUE,,,,,,,BKN,1400,BKN,1900,OVC,4100,,,MVFR,,,,,,,,,,,,METAR,4
KLBF 050053Z AUTO 15004KT 10SM CLR 16/02 A3003 RMK AO2 SLP168 T01610022,KLBF,2024-05-05T00:53:00Z,41.122,-100.669,16.1,2.2,150,4,,10+,30.03,1016.8,,TRUE,TRUE,,,,,,,CLR,,,,,,,,VFR,,,,,,,,,,,,METAR,843
KLBB 050053Z 05019G26KT 10SM SCT016 BKN026 BKN140 14/13 A2992 RMK AO2 PK WND 05026/0053 LTG DSNT E-S RAE2358 SLP099 CB DSNT NE-SE MOV NE P0000 T01440128,KLBB,2024-05-05T00:53:00Z,33.6658,-101.823,14.4,12.8,50,19,26,10+,29.92,1009.9,,,TRUE,,,,,,,SCT,1600,BKN,2600,BKN,14000,,,MVFR,,,,,,0.005,,,,,,METAR,996
KLAX 050053Z 26014KT 10SM SCT013 BKN029 BKN034 16/11 A2991 RMK AO2 SLP129 T01560111,KLAX,2024-05-05T00:53:00Z,33.9382,-118.387,15.6,11.1,260,14,,10+,29.91,1012.9,,,TRUE,,,,,,,SCT,1300,BKN,2900,BKN,3400,,,MVFR,,,,,,,,,,,,METAR,30
KLAW 050053Z AUTO 02017G22KT 10SM SCT029 BKN041 18/14 A2994 RMK AO2 LTG DSNT SE SLP131 T01830144,KLAW,2024-05-05T00:53:00Z,34.5577,-98.4172,18.3,14.4,20,17,22,10+,29.94,1013.1,,TRUE,TRUE,,,,,,,SCT,2900,BKN,4100,,,,,VFR,,,,,,,,,,,,METAR,328
KLAR 050053Z AUTO 14020G29KT 10SM CLR 11/M01 A2994 RMK AO2 PK WND 15029/0049 SLP103 T01111011,KLAR,2024-05-05T00:53:00Z,41.3165,-105.673,11.1,-1.1,140,20,29,10+,29.94,1010.3,,TRUE,TRUE,,,,,,,CLR,,,,,,,,VFR,,,,,,,,,,,,METAR,2217
KLAN 050053Z 13008KT 10SM CLR 19/16 A2987 RMK AO2 SLP112 T01940161,KLAN,2024-05-05T00:53:00Z,42.7761,-84.5997,19.4,16.1,130,8,,10+,29.87,1011.2,,,TRUE,,,,,,,CLR,,,,,,,,VFR,,,,,,,,,,,,METAR,261
KLAA 050053Z AUTO 15013KT 10SM CLR 17/01 A3001 RMK AO2 SLP145 T01670006,KLAA,2024-05-05T00:53:00Z,38.0718,-102.687,16.7,0.6,150,13,,10+,30.01,1014.5,,TRUE,TRUE,,,,,,,CLR,,,,,,,,VFR,,,,,,,,,,,,METAR,1129
KJLN 050053Z 01007KT 10SM FEW050 SCT120 18/14 A3000 RMK AO2 SLP150 T01830139 $,KJLN,2024-05-05T00:53:00Z,37.1522,-94.4952,18.3,13.9,10,7,,10+,30.00,1015,,,TRUE,TRUE,,,,,,FEW,5000,SCT,12000,,,,,VFR,,,,,,,,,,,,METAR,297
KJKL 050053Z AUTO 00000KT 10SM SCT110 22/16 A2996 RMK AO2 SLP134 T02170161,KJKL,2024-05-05T00:53:00Z,37.5913,-83.3137,21.7,16.1,0,0,,10+,29.96,1013.4,,TRUE,TRUE,,,,,,,SCT,11000,,,,,,,VFR,,,,,,,,,,,,METAR,414
KJER 050053Z AUTO 10SM SCT120 18/01 A2946 RMK AO2 SLP960 T01780006,KJER,2024-05-05T00:53:00Z,42.7274,-114.455,17.8,0.6,,,,10+,29.46,996,,TRUE,TRUE,,,,,,,SCT,12000,,,,,,,VFR,,,,,,,,,,,,METAR,1226
KJEF 050053Z 30009KT 10SM BKN030 19/13 A2999 RMK AO2 SLP142 T01940133 $,KJEF,2024-05-05T00:53:00Z,38.5945,-92.1567,19.4,13.3,300,9,,10+,29.99,1014.2,,,TRUE,TRUE,,,,,,BKN,3000,,,,,,,MVFR,,,,,,,,,,,,METAR,167
KJBR 050053Z AUTO 26005KT 10SM CLR 23/16 A2995 RMK AO2 SLP138 T02330156 $,KJBR,2024-05-05T00:53:00Z,35.8357,-90.6442,23.3,15.6,260,5,,10+,29.95,1013.8,,TRUE,TRUE,TRUE,,,,,,CLR,,,,,,,,VFR,,,,,,,,,,,,METAR,79
KIXD 050053Z 35007KT 10SM BKN027 14/08 A3006 RMK AO2 SLP176 T01440083,KIXD,2024-05-05T00:53:00Z,38.8221,-94.8902,14.4,8.3,350,7,,10+,30.06,1017.6,,,TRUE,,,,,,,BKN,2700,,,,,,,MVFR,,,,,,,,,,,,METAR,322
KIWI 050053Z AUTO 00000KT 10SM BKN044 08/06 A3042 RMK AO2 SLP301 T00830056,KIWI,2024-05-05T00:53:00Z,43.9639,-69.7114,8.3,5.6,0,0,,10+,30.42,1030.1,,TRUE,TRUE,,,,,,,BKN,4400,,,,,,,VFR,,,,,,,,,,,,METAR,16
KITR 050053Z AUTO 14012KT 10SM CLR 14/03 A3003 RMK AO2 SLP157 T01390033,KITR,2024-05-05T00:53:00Z,39.2415,-102.282,13.9,3.3,140,12,,10+,30.03,1015.7,,TRUE,TRUE,,,,,,,CLR,,,,,,,,VFR,,,,,,,,,,,,METAR,1285
KIPL 050053Z AUTO 26023G35KT 10SM CLR 28/09 A2966 RMK AO2 PK WND 24037/2355 SLP043 T02830089 PWINO,KIPL,2024-05-05T00:53:00Z,32.8346,-115.577,28.3,8.9,260,23,35,10+,29.66,1004.3,,TRUE,TRUE,,,,,TRUE,,CLR,,,,,,,,VFR,,,,,,,,,,,,METAR,-16
KINK 050053Z AUTO 07014G22KT 10SM CLR 21/17 A2983 RMK AO2 PK WND 05026/2358 SLP065 T02110167,KINK,2024-05-05T00:53:00Z,31.7801,-103.202,21.1,16.7,70,14,22,10+,29.83,1006.5,,TRUE,TRUE,,,,,,,CLR,,,,,,,,VFR,,,,,,,,,,,,METAR,857
KIML 050053Z AUTO 14012KT 10SM CLR 15/01 A3003 RMK AO2 SLP171 T01500011,KIML,2024-05-05T00:53:00Z,40.5106,-101.624,15,1.1,140,12,,10+,30.03,1017.1,,TRUE,TRUE,,,,,,,CLR,,,,,,,,VFR,,,,,,,,,,,,METAR,997
KILM 050053Z 14004KT 10SM CLR 23/18 A3010 RMK AO2 SLP192 T02280178,KILM,2024-05-05T00:53:00Z,34.2668,-77.8999,22.8,17.8,140,4,,10+,30.10,1019.2,,,TRUE,,,,,,,CLR,,,,,,,,VFR,,,,,,,,,,,,METAR,9
KIDA 050053Z 17011KT 10SM CLR 21/M01 A2962 RMK AO2 SLP005 T02061006,KIDA,2024-05-05T00:53:00Z,43.5204,-112.068,20.6,-0.6,170,11,,10+,29.62,1000.5,,,TRUE,,,,,,,CLR,,,,,,,,VFR,,,,,,,,,,,,METAR,1444
KICT 050053Z 05011KT 10SM FEW033 BKN065 BKN250 17/10 A3002 RMK AO2 SLP160 T01720100 $,KICT,2024-05-05T00:53:00Z,37.6475,-97.43,17.2,10,50,11,,10+,30.02,1016,,,TRUE,TRUE,,,,,,FEW,3300,BKN,6500,BKN,25000,,,VFR,,,,,,,,,,,,METAR,428
KICR 050053Z AUTO 07003KT CLR 14/02 A3003 RMK AO2 SLP173 T01440022 $,KICR,2024-05-05T00:53:00Z,43.391,-99.8462,14.4,2.2,70,3,,,30.03,1017.3,,TRUE,TRUE,TRUE,,,,,,CLR,,,,,,,,,,,,,,,,,,,,METAR,618
KIAH 050053Z 12009KT 10SM FEW027 BKN095 BKN250 26/21 A2990 RMK AO2 SLP124 T02560211,KIAH,2024-05-05T00:53:00Z,29.9844,-95.3607,25.6,21.1,120,9,,10+,29.90,1012.4,,,TRUE,,,,,,,FEW,2700,BKN,9500,BKN,25000,,,VFR,,,,,,,,,,,,METAR,27
KIAG 050053Z 17012KT 10SM SCT075 OVC095 19/11 A3001 RMK AO2 SLP163 T01890106,KIAG,2024-05-05T00:53:00Z,43.1083,-78.9382,18.9,10.6,170,12,,10+,30.01,1016.3,,,TRUE,,,,,,,SCT,7500,OVC,9500,,,,,VFR,,,,,,,,,,,,METAR,179
KHZY 050053Z AUTO 13009KT 10SM OVC017 16/11 A3000 RMK AO2 SLP157 T01560111,KHZY,2024-05-05T00:53:00Z,41.7794,-80.6968,15.6,11.1,130,9,,10+,30.00,1015.7,,TRUE,TRUE,,,,,,,OVC,1700,,,,,,,MVFR,,,,,,,,,,,,METAR,279
KHYR 050053Z AUTO 00000KT 10SM CLR 11/06 A2997 RMK AO2 SLP155 T01060056,KHYR,2024-05-05T00:53:00Z,46.0303,-91.4426,10.6,5.6,0,0,,10+,29.97,1015.5,,TRUE,TRUE,,,,,,,CLR,,,,,,,,VFR,,,,,,,,,,,,METAR,369
KHWO 050053Z AUTO 10012KT 10SM FEW026 27/20 A3002 RMK AO2 SLP166 T02670200 $,KHWO,2024-05-05T00:53:00Z,25.9996,-80.2412,26.7,20,100,12,,10+,30.02,1016.6,,TRUE,TRUE,TRUE,,,,,,FEW,2600,,,,,,,VFR,,,,,,,,,,,,METAR,2
KHVR 050053Z AUTO 14013KT 10SM CLR 16/M02 A2978 RMK AO2 SLP095 T01611017,KHVR,2024-05-05T00:53:00Z,48.5425,-109.764,16.1,-1.7,140,13,,10+,29.78,1009.5,,TRUE,TRUE,,,,,,,CLR,,,,,,,,VFR,,,,,,,,,,,,METAR,789
KHVN 050053Z 10008KT 10SM OVC017 12/08 A3035 RMK AO2 SLP276 T01170083,KHVN,2024-05-05T00:53:00Z,41.259,-72.8891,11.7,8.3,100,8,,10+,30.35,1027.6,,,TRUE,,,,,,,OVC,1700,,,,,,,MVFR,,,,,,,,,,,,METAR,4
KHUL 050053Z AUTO 14005KT 10SM OVC050 11/05 A3037 RMK AO2 SLP289 T01110050,KHUL,2024-05-05T00:53:00Z,46.1185,-67.7929,11.1,5,140,5,,10+,30.37,1028.9,,TRUE,TRUE,,,,,,,OVC,5000,,,,,,,VFR,,,,,,,,,,,,METAR,148
KHUF 050053Z 00000KT 10SM FEW060 23/17 A2987 RMK AO2 SLP110 T02280172,KHUF,2024-05-05T00:53:00Z,39.4429,-87.3221,22.8,17.2,0,0,,10+,29.87,1011,,,TRUE,,,,,,,FEW,6000,,,,,,,VFR,,,,,,,,,,,,METAR,174
KHTL 050053Z AUTO 15005KT 10SM CLR 18/13 A2987 RMK AO2 SLP118 T01780133,KHTL,2024-05-05T00:53:00Z,44.359,-84.6739,17.8,13.3,150,5,,10+,29.87,1011.8,,TRUE,TRUE,,,,,,,CLR,,,,,,,,VFR,,,,,,,,,,,,METAR,350
KHSV 050053Z 19005KT 10SM FEW060 FEW120 SCT250 23/20 A2996 RMK AO2 SLP138 T02330200 $,KHSV,2024-05-05T00:53:00Z,34.6441,-86.7861,23.3,20,190,5,,10+,29.96,1013.8,,,TRUE,TRUE,,,,,,FEW,6000,FEW,12000,SCT,25000,,,VFR,,,,,,,,,,,,METAR,190
KHSI 050053Z AUTO 10005KT 10SM CLR 14/03 A3008 RMK AO2 SLP187 T01390033,KHSI,2024-05-05T00:53:00Z,40.6002,-98.4264,13.9,3.3,100,5,,10+,30.08,1018.7,,TRUE,TRUE,,,,,,,CLR,,,,,,,,VFR,,,,,,,,,,,,METAR,592
KHRO 050053Z AUTO 22003KT 10SM CLR 18/17 A2998 RMK AO2 SLP141 T01830167 $,KHRO,2024-05-05T00:53:00Z,36.2673,-93.1566,18.3,16.7,220,3,,10+,29.98,1014.1,,TRUE,TRUE,TRUE,,,,,,CLR,,,,,,,,VFR,,,,,,,,,,,,METAR,417
KHRI 050053Z AUTO 03009KT 10SM FEW085 19/08 A2942 RMK AO2 SLP959 T01890078 $,KHRI,2024-05-05T00:53:00Z,45.8259,-119.261,18.9,7.8,30,9,,10+,29.42,995.9,,TRUE,TRUE,TRUE,,,,,,FEW,8500,,,,,,,VFR,,,,,,,,,,,,METAR,194
KHQM 050053Z AUTO 29012KT 8SM -RA OVC009 10/09 A2961 RMK AO2 CIG 006V012 SLP031 P0004 T01000089,KHQM,2024-05-05T00:53:00Z,46.9729,-123.931,10,8.9,290,12,,8,29.61,1003.1,,TRUE,TRUE,,,,,,-RA,OVC,900,,,,,,,IFR,,,,,,0.04,,,,,,METAR,4
KHOU 050053Z 11014KT 10SM SCT017 BKN026 OVC049 26/22 A2989 RMK AO2 LTG DSNT W SLP125 T02610217,KHOU,2024-05-05T00:53:00Z,29.6458,-95.2821,26.1,21.7,110,14,,10+,29.89,1012.5,,,TRUE,,,,,,,SCT,1700,BKN,2600,OVC,4900,,,MVFR,,,,,,,,,,,,METAR,13
KHOT 050053Z AUTO 11003KT 10SM CLR 23/18 A2997 RMK AO2 LTG DSNT N AND NW SLP143 T02330183 $,KHOT,2024-05-05T00:53:00Z,34.4755,-93.1041,23.3,18.3,110,3,,10+,29.97,1014.3,,TRUE,TRUE,TRUE,,,,,,CLR,,,,,,,,VFR,,,,,,,,,,,,METAR,153
KHLN 050053Z 06008KT 10SM FEW120 17/M04 A2967 RMK AO2 SLP061 T01671044,KHLN,2024-05-05T00:53:00Z,46.6045,-111.989,16.7,-4.4,60,8,,10+,29.67,1006.1,,,TRUE,,,,,,,FEW,12000,,,,,,,VFR,,,,,,,,,,,,METAR,1178
KHLG 050053Z AUTO 12007KT 8SM -RA SCT008 BKN025 OVC110 16/14 A3000 RMK AO2 RAB00 SLP156 P0003 T01610144,KHLG,2024-05-05T00:53:00Z,40.1699,-80.6441,16.1,14.4,120,7,,8,30.00,1015.6,,TRUE,TRUE,,,,,,-RA,SCT,800,BKN,2500,OVC,11000,,,MVFR,,,,,,0.03,,,,,,METAR,365
KHLC 050053Z AUTO 11010KT 10SM CLR 16/04 A3005 RMK AO2 SLP175 T01560044,KHLC,2024-05-05T00:53:00Z,39.3741,-99.8299,15.6,4.4,110,10,,10+,30.05,1017.5,,TRUE,TRUE,,,,,,,CLR,,,,,,,,VFR,,,,,,,,,,,,METAR,667
KHKY 050053Z AUTO 06004KT 5SM BKN003 OVC060 19/18 A3007 RMK AO2 RAE28 SLP165 P0003 T01890178,KHKY,2024-05-05T00:53:00Z,35.742,-81.3822,18.9,17.8,60,4,,5,30.07,1016.5,,TRUE,TRUE,,,,,,,BKN,300,OVC,6000,,,,,LIFR,,,,,,0.03,,,,,,METAR,357
KHKS 050053Z 00000KT 10SM CLR 26/19 A2997 RMK AO2 SLP142 T02610194,KHKS,2024-05-05T00:53:00Z,32.3376,-90.2214,26.1,19.4,0,0,,10+,29.97,1014.2,,,TRUE,,,,,,,CLR,,,,,,,,VFR,,,,,,,,,,,,METAR,103
KHKA 050053Z AUTO 30004KT 10SM CLR 23/17 A2992 RMK AO2 SLP130 T02330167 $,KHKA,2024-05-05T00:53:00Z,35.9378,-89.8332,23.3,16.7,300,4,,10+,29.92,1013,,TRUE,TRUE,TRUE,,,,,,CLR,,,,,,,,VFR,,,,,,,,,,,,METAR,78
KHJO 050053Z AUTO 29009KT 260V010 4SM RA BKN041 OVC055 15/11 A2987 RMK AO2 PRESRR SLP116 P0007 T01500111,KHJO,2024-05-05T00:53:00Z,36.3114,-119.623,15,11.1,290,9,,4,29.87,1011.6,,TRUE,TRUE,,,,,,RA,BKN,4100,OVC,5500,,,,,MVFR,,,,,,0.07,,,,,,METAR,73
KHIB 050053Z AUTO 33003KT 10SM FEW050 SCT070 11/03 A2995 RMK AO2 SLP152 T01060028,KHIB,2024-05-05T00:53:00Z,47.3804,-92.8325,10.6,2.8,330,3,,10+,29.95,1015.2,,TRUE,TRUE,,,,,,,FEW,5000,SCT,7000,,,,,VFR,,,,,,,,,,,,METAR,409
KHHR 050053Z 27011KT 10SM OVC015 17/11 A2991 RMK AO2 SLP128 T01670111,KHHR,2024-05-05T00:53:00Z,33.9235,-118.333,16.7,11.1,270,11,,10+,29.91,1012.8,,,TRUE,,,,,,,OVC,1500,,,,,,,MVFR,,,,,,,,,,,,METAR,21
KHGR 050053Z 10003KT 4SM -RA BR SCT009 OVC012 11/11 A3020 RMK AO2 SLP237 P0004 T01110106 $,KHGR,2024-05-05T00:53:00Z,39.7062,-77.7304,11.1,10.6,100,3,,4,30.20,1023.7,,,TRUE,TRUE,,,,,-RA BR,SCT,900,OVC,1200,,,,,MVFR,,,,,,0.04,,,,,,METAR,206
KHFD 050053Z 17006KT 10SM BKN042 11/07 A3034 RMK AO2 SLP273 T01110072,KHFD,2024-05-05T00:53:00Z,41.7352,-72.6512,11.1,7.2,170,6,,10+,30.34,1027.3,,,TRUE,,,,,,,BKN,4200,,,,,,,VFR,,,,,,,,,,,,METAR,3
KHEI 050053Z AUTO 16005KT 10SM CLR 14/M03 A2995 RMK AO2 SLP153 T01441028 $,KHEI,2024-05-05T00:53:00Z,46.0108,-102.652,14.4,-2.8,160,5,,10+,29.95,1015.3,,TRUE,TRUE,TRUE,,,,,,CLR,,,,,,,,VFR,,,,,,,,,,,,METAR,824
KHBG 050053Z AUTO 00000KT 10SM CLR 25/19 A2998 RMK AO2 SLP147 T02500189,KHBG,2024-05-05T00:53:00Z,31.2648,-89.2561,25,18.9,0,0,,10+,29.98,1014.7,,TRUE,TRUE,,,,,,,CLR,,,,,,,,VFR,,,,,,,,,,,,METAR,45
KHAO 050053Z AUTO 00000KT 10SM CLR 21/19 A2990 RMK AO2 SLP123 T02060194 PNO,KHAO,2024-05-05T00:53:00Z,39.3612,-84.5206,20.6,19.4,0,0,,10+,29.90,1012.3,,TRUE,TRUE,,,,,,,CLR,,,,,,,,VFR,,,,,,,,,,,,METAR,185
KGZH 050053Z AUTO 22006KT 10SM SCT050 BKN070 OVC100 26/19 A2999 RMK AO2 SLP151 T02560194 $,KGZH,2024-05-05T00:53:00Z,31.4191,-87.0484,25.6,19.4,220,6,,10+,29.99,1015.1,,TRUE,TRUE,TRUE,,,,,,SCT,5000,BKN,7000,OVC,10000,,,VFR,,,,,,,,,,,,METAR,77
KGWO 050053Z AUTO 00000KT 10SM CLR 23/20 A2996 RMK AO2 SLP143 T02330200,KGWO,2024-05-05T00:53:00Z,33.4961,-90.0894,23.3,20,0,0,,10+,29.96,1014.3,,TRUE,TRUE,,,,,,,CLR,,,,,,,,VFR,,,,,,,,,,,,METAR,42
KGVL 050053Z AUTO 00000KT 10SM BKN110 21/17 A3006 RMK AO2 SLP167 T02110167,KGVL,2024-05-05T00:53:00Z,34.2721,-83.8305,21.1,16.7,0,0,,10+,30.06,1016.7,,TRUE,TRUE,,,,,,,BKN,11000,,,,,,,VFR,,,,,,,,,,,,METAR,387
KGUY 050053Z AUTO 10008KT 10SM OVC031 14/08 A3001 RMK AO2 SLP145 T01440083,KGUY,2024-05-05T00:53:00Z,36.6819,-101.505,14.4,8.3,100,8,,10+,30.01,1014.5,,TRUE,TRUE,,,,,,,OVC,3100,,,,,,,VFR,,,,,,,,,,,,METAR,950
KGUP 050053Z AUTO 24012G20KT 10SM CLR 21/M07 A2992 RMK AO2 PK WND 22028/0008 SLP040 T02111072,KGUP,2024-05-05T00:53:00Z,35.5086,-108.793,21.1,-7.2,240,12,20,10+,29.92,1004,,TRUE,TRUE,,,,,,,CLR,,,,,,,,VFR,,,,,,,,,,,,METAR,1972
KGTF 050053Z 09014KT 10SM CLR 16/M01 A2969 RMK AO2 SLP064 T01561006,KGTF,2024-05-05T00:53:00Z,47.4733,-111.383,15.6,-0.6,90,14,,10+,29.69,1006.4,,,TRUE,,,,,,,CLR,,,,,,,,VFR,,,,,,,,,,,,METAR,1117
KGSH 050053Z AUTO 12005KT 10SM CLR 21/15 A2986 RMK AO2 SLP108 T02060150,KGSH,2024-05-05T00:53:00Z,41.5265,-85.7872,20.6,15,120,5,,10+,29.86,1010.8,,TRUE,TRUE,,,,,,,CLR,,,,,,,,VFR,,,,,,,,,,,,METAR,252
KGRR 050053Z 12007KT 10SM BKN080 OVC150 21/16 A2986 RMK AO2 SLP110 T02110161 $,KGRR,2024-05-05T00:53:00Z,42.8821,-85.523,21.1,16.1,120,7,,10+,29.86,1011,,,TRUE,TRUE,,,,,,BKN,8000,OVC,15000,,,,,VFR,,,,,,,,,,,,METAR,239
KGRI 050053Z 08005KT 10SM CLR 14/05 A3008 RMK AO2 SLP192 T01390050,KGRI,2024-05-05T00:53:00Z,40.9615,-98.313,13.9,5,80,5,,10+,30.08,1019.2,,,TRUE,,,,,,,CLR,,,,,,,,VFR,,,,,,,,,,,,METAR,562
KGRB 050053Z 30011KT 10SM OVC017 14/11 A2987 RMK AO2 RAB2357E48 SLP117 P0000 T01390106,KGRB,2024-05-05T00:53:00Z,44.4796,-88.137,13.9,10.6,300,11,,10+,29.87,1011.7,,,TRUE,,,,,,,OVC,1700,,,,,,,MVFR,,,,,,0.005,,,,,,METAR,209
KGOK 050053Z AUTO 04003KT 10SM SCT038 19/13 A2998 RMK AO2 SLP146 T01890133,KGOK,2024-05-05T00:53:00Z,35.8517,-97.4142,18.9,13.3,40,3,,10+,29.98,1014.6,,TRUE,TRUE,,,,,,,SCT,3800,,,,,,,VFR,,,,,,,,,,,,METAR,326
KGNV 050053Z 00000KT 10SM FEW038 24/21 A3005 RMK AO2 SLP175 T02390206,KGNV,2024-05-05T00:53:00Z,29.6917,-82.276,23.9,20.6,0,0,,10+,30.05,1017.5,,,TRUE,,,,,,,FEW,3800,,,,,,,VFR,,,,,,,,,,,,METAR,41
KGMU 050053Z 00000KT 10SM -RA FEW004 BKN055 OVC085 18/18 A3006 RMK AO2 SLP172 P0015 T01830178,KGMU,2024-05-05T00:53:00Z,34.8487,-82.3501,18.3,17.8,0,0,,10+,30.06,1017.2,,,TRUE,,,,,,-RA,FEW,400,BKN,5500,OVC,8500,,,VFR,,,,,,0.15,,,,,,METAR,309
KGLR 050053Z AUTO 16009KT 10SM CLR 20/13 A2986 RMK AO2 SLP108 T02000133,KGLR,2024-05-05T00:53:00Z,45.0166,-84.6894,20,13.3,160,9,,10+,29.86,1010.8,,TRUE,TRUE,,,,,,,CLR,,,,,,,,VFR,,,,,,,,,,,,METAR,403
KGLH 050053Z AUTO 31005KT 7SM -RA FEW049 BKN090 OVC110 26/22 A2996 RMK AO2 LTG DSNT SW RAB20 SLP150 P0002 T02560217,KGLH,2024-05-05T00:53:00Z,33.4772,-90.9847,25.6,21.7,310,5,,7,29.96,1015,,TRUE,TRUE,,,,,,-RA,FEW,4900,BKN,9000,OVC,11000,,,VFR,,,,,,0.02,,,,,,METAR,40
KGLD 050053Z AUTO 13014KT 10SM CLR 14/01 A3003 RMK AO2 SLP163 T01390011,KGLD,2024-05-05T00:53:00Z,39.3673,-101.693,13.9,1.1,130,14,,10+,30.03,1016.3,,TRUE,TRUE,,,,,,,CLR,,,,,,,,VFR,,,,,,,,,,,,METAR,1111
KGKY 050053Z 07005KT 10SM FEW060 BKN070 OVC095 25/20 A2987 RMK AO2 SLP105 T02500200,KGKY,2024-05-05T00:53:00Z,32.6583,-97.0951,25,20,70,5,,10+,29.87,1010.5,,,TRUE,,,,,,,FEW,6000,BKN,7000,OVC,9500,,,VFR,,,,,,,,,,,,METAR,189
KGKJ 050053Z AUTO VRB05KT 10SM OVC010 13/10 A3004 RMK AO2 CIG 009V014 SLP169 T01280100,KGKJ,2024-05-05T00:53:00Z,41.6258,-80.2123,12.8,10,VRB,5,,10+,30.04,1016.9,,TRUE,TRUE,,,,,,,OVC,1000,,,,,,,MVFR,,,,,,,,,,,,METAR,428
KGJT 050053Z 19006KT 10SM CLR 24/M04 A2974 RMK AO2 SLP020 T02441044,KGJT,2024-05-05T00:53:00Z,39.1344,-108.541,24.4,-4.4,190,6,,10+,29.74,1002,,,TRUE,,,,,,,CLR,,,,,,,,VFR,,,,,,,,,,,,METAR,1475
KGIF 050053Z AUTO 11012KT 10SM CLR 25/19 A3002 RMK AO2 LTG DSNT NW SLP164 T02500194,KGIF,2024-05-05T00:53:00Z,28.0614,-81.7568,25,19.4,110,12,,10+,30.02,1016.4,,TRUE,TRUE,,,,,,,CLR,,,,,,,,VFR,,,,,,,,,,,,METAR,44
KGGW 050053Z AUTO 18008KT 10SM CLR 15/M05 A2988 RMK AO2 SLP131 T01501050,KGGW,2024-05-05T00:53:00Z,48.2142,-106.621,15,-5,180,8,,10+,29.88,1013.1,,TRUE,TRUE,,,,,,,CLR,,,,,,,,VFR,,,,,,,,,,,,METAR,698
KGGG 050053Z 20004KT 10SM BKN036 26/22 A2993 RMK AO2 SLP129 T02610217,KGGG,2024-05-05T00:53:00Z,32.3909,-94.714,26.1,21.7,200,4,,10+,29.93,1012.9,,,TRUE,,,,,,,BKN,3600,,,,,,,VFR,,,,,,,,,,,,METAR,107
KGFL 050053Z AUTO VRB03KT 10SM FEW055 OVC120 14/11 A3022 RMK AO2 SLP236 T01390111,KGFL,2024-05-05T00:53:00Z,43.3385,-73.6102,13.9,11.1,VRB,3,,10+,30.22,1023.6,,TRUE,TRUE,,,,,,,FEW,5500,OVC,12000,,,,,VFR,,,,,,,,,,,,METAR,99
KGFK 050053Z 02008KT 10SM BKN055 11/06 A2999 RMK AO2 SLP163 T01110056,KGFK,2024-05-05T00:53:00Z,47.9428,-97.1829,11.1,5.6,20,8,,10+,29.99,1016.3,,,TRUE,,,,,,,BKN,5500,,,,,,,VFR,,,,,,,,,,,,METAR,256
KGEZ 050053Z AUTO 19005KT 10SM CLR 24/17 A2987 RMK AO2 SLP109 T02390167,KGEZ,2024-05-05T00:53:00Z,39.5854,-85.7998,23.9,16.7,190,5,,10+,29.87,1010.9,,TRUE,TRUE,,,,,,,CLR,,,,,,,,VFR,,,,,,,,,,,,METAR,245
KGEY 050053Z AUTO 16007KT 10SM CLR 18/M06 A2975 RMK AO2 SLP073 T01781061,KGEY,2024-05-05T00:53:00Z,44.5173,-108.075,17.8,-6.1,160,7,,10+,29.75,1007.3,,TRUE,TRUE,,,,,,,CLR,,,,,,,,VFR,,,,,,,,,,,,METAR,1191
KGEU 050053Z 24012KT 10SM SKC 33/M04 A2965,KGEU,2024-05-05T00:53:00Z,33.528,-112.293,33,-4,240,12,,10+,29.65,,,,,,,,,,,SKC,,,,,,,,VFR,,,,,,,,,,,,METAR,319
KGEG 050053Z 08010KT 10SM BKN080 OVC095 20/M01 A2951 RMK AO2 SLP983 T02001006,KGEG,2024-05-05T00:53:00Z,47.6217,-117.528,20,-0.6,80,10,,10+,29.51,998.3,,,TRUE,,,,,,,BKN,8000,OVC,9500,,,,,VFR,,,,,,,,,,,,METAR,718
KGCC 050053Z AUTO 15016KT 10SM CLR 16/M04 A2984 RMK AO2 SLP097 T01611039 $,KGCC,2024-05-05T00:53:00Z,44.3398,-105.542,16.1,-3.9,150,16,,10+,29.84,1009.7,,TRUE,TRUE,TRUE,,,,,,CLR,,,,,,,,VFR,,,,,,,,,,,,METAR,1328
KGAG 050053Z AUTO 05011KT 10SM OVC033 17/10 A2999 RMK AO2 SLP144 T01720100 $,KGAG,2024-05-05T00:53:00Z,36.2966,-99.7686,17.2,10,50,11,,10+,29.99,1014.4,,TRUE,TRUE,TRUE,,,,,,OVC,3300,,,,,,,VFR,,,,,,,,,,,,METAR,670
KFYV 050053Z 00000KT 10SM CLR 19/18 A2996 RMK AO2 SLP136 T01940178,KFYV,2024-05-05T00:53:00Z,36.0103,-94.1624,19.4,17.8,0,0,,10+,29.96,1013.6,,,TRUE,,,,,,,CLR,,,,,,,,VFR,,,,,,,,,,,,METAR,377
KFXE 050053Z AUTO 10011KT 10SM CLR 26/21 A3001 RMK AO2 SLP165 T02610206,KFXE,2024-05-05T00:53:00Z,26.199,-80.1776,26.1,20.6,100,11,,10+,30.01,1016.5,,TRUE,TRUE,,,,,,,CLR,,,,,,,,VFR,,,,,,,,,,,,METAR,3
KFWN 050053Z AUTO 00000KT 10SM OVC049 12/06 A3030 RMK AO2 SLP262 T01220061,KFWN,2024-05-05T00:53:00Z,41.1993,-74.6259,12.2,6.1,0,0,,10+,30.30,1026.2,,TRUE,TRUE,,,,,,,OVC,4900,,,,,,,VFR,,,,,,,,,,,,METAR,129
KFVE 050053Z AUTO 12007KT 10SM FEW050 OVC100 13/05 A3034 RMK AO2 SLP277 T01280050,KFVE,2024-05-05T00:53:00Z,47.2852,-68.3072,12.8,5,120,7,,10+,30.34,1027.7,,TRUE,TRUE,,,,,,,FEW,5000,OVC,10000,,,,,VFR,,,,,,,,,,,,METAR,299
KFUL 050053Z 27008KT 10SM BKN024 OVC038 17/12 A2989 RMK AO2 SLP121 T01720117,KFUL,2024-05-05T00:53:00Z,33.8715,-117.986,17.2,11.7,270,8,,10+,29.89,1012.1,,,TRUE,,,,,,,BKN,2400,OVC,3800,,,,,MVFR,,,,,,,,,,,,METAR,23
KFTY 050053Z 00000KT 10SM CLR 22/18 A3001 RMK AO2 SLP156 T02220178,KFTY,2024-05-05T00:53:00Z,33.7776,-84.5247,22.2,17.8,0,0,,10+,30.01,1015.6,,,TRUE,,,,,,,CLR,,,,,,,,VFR,,,,,,,,,,,,METAR,245
KFTW 050053Z 06006KT 10SM SCT043 23/21 A2986 RMK AO2 LTG DSNT N SLP104 T02280206,KFTW,2024-05-05T00:53:00Z,32.8248,-97.364,22.8,20.6,60,6,,10+,29.86,1010.4,,,TRUE,,,,,,,SCT,4300,,,,,,,VFR,,,,,,,,,,,,METAR,213
KFST 050053Z AUTO 02013KT 10SM BKN036 24/19 A2980 RMK AO2 LTG DSNT NE SLP047 T02390189,KFST,2024-05-05T00:53:00Z,30.9119,-102.917,23.9,18.9,20,13,,10+,29.80,1004.7,,TRUE,TRUE,,,,,,,BKN,3600,,,,,,,VFR,,,,,,,,,,,,METAR,917
KFSM 050053Z 13004KT 10SM CLR 24/19 A2991 RMK AO2 SLP124 T02390194,KFSM,2024-05-05T00:53:00Z,35.3335,-94.3653,23.9,19.4,130,4,,10+,29.91,1012.4,,,TRUE,,,,,,,CLR,,,,,,,,VFR,,,,,,,,,,,,METAR,136
KFRG 050053Z AUTO 10009KT 10SM BKN016 OVC060 11/07 A3033 RMK AO2 SLP272 T01060067,KFRG,2024-05-05T00:53:00Z,40.7344,-73.4164,10.6,6.7,100,9,,10+,30.33,1027.2,,TRUE,TRUE,,,,,,,BKN,1600,OVC,6000,,,,,MVFR,,,,,,,,,,,,METAR,23
KFPR 050053Z AUTO 11009KT 10SM SCT026 SCT032 25/19 A3003 RMK AO2 SLP169 T02500189,KFPR,2024-05-05T00:53:00Z,27.4981,-80.3763,25,18.9,110,9,,10+,30.03,1016.9,,TRUE,TRUE,,,,,,,SCT,2600,SCT,3200,,,,,VFR,,,,,,,,,,,,METAR,7
KFOZ 050053Z AUTO 32003KT 10SM SCT048 BKN065 13/03 A3001 RMK AO2,KFOZ,2024-05-05T00:53:00Z,47.7832,-93.6533,13,3,320,3,,10+,30.01,,,TRUE,TRUE,,,,,,,SCT,4800,BKN,6500,,,,,VFR,,,,,,,,,,,,METAR,412
KFOK 050053Z 12010G16KT 10SM OVC010 10/07 A3036 RMK AO1 SLP279 T01000072,KFOK,2024-05-05T00:53:00Z,40.8506,-72.6193,10,7.2,120,10,16,10+,30.36,1027.9,,,TRUE,,,,,,,OVC,1000,,,,,,,MVFR,,,,,,,,,,,,METAR,13
KFOE 050053Z 03004KT 10SM CLR 14/08 A3005 RMK AO2 SLP173 T01440083 $,KFOE,2024-05-05T00:53:00Z,38.9414,-95.6513,14.4,8.3,30,4,,10+,30.05,1017.3,,,TRUE,TRUE,,,,,,CLR,,,,,,,,VFR,,,,,,,,,,,,METAR,315
KFNT 050053Z 15006KT 10SM FEW025 OVC037 20/17 A2989 RMK AO2 SLP120 T02000167,KFNT,2024-05-05T00:53:00Z,42.9669,-83.75,20,16.7,150,6,,10+,29.89,1012,,,TRUE,,,,,,,FEW,2500,OVC,3700,,,,,VFR,,,,,,,,,,,,METAR,235
KFNB 050053Z AUTO 06006KT 10SM CLR 14/08 A3006 RMK AO2 SLP179 T01390078,KFNB,2024-05-05T00:53:00Z,40.0791,-95.5893,13.9,7.8,60,6,,10+,30.06,1017.9,,TRUE,TRUE,,,,,,,CLR,,,,,,,,VFR,,,,,,,,,,,,METAR,301
KFMY 050053Z 00000KT 10SM FEW055 22/19 A2999 RMK AO2 LTG DSNT N AND NE RAE23 SLP159 P0000 T02220194,KFMY,2024-05-05T00:53:00Z,26.584,-81.8615,22.2,19.4,0,0,,10+,29.99,1015.9,,,TRUE,,,,,,,FEW,5500,,,,,,,VFR,,,,,,0.005,,,,,,METAR,4
KFMN 050053Z 15011KT 10SM FEW110 23/M07 A2984 RMK AO2 SLP064 T02331067,KFMN,2024-05-05T00:53:00Z,36.7435,-108.229,23.3,-6.7,150,11,,10+,29.84,1006.4,,,TRUE,,,,,,,FEW,11000,,,,,,,VFR,,,,,,,,,,,,METAR,1677
KFLO 050053Z 11005KT 10SM FEW120 21/20 A3007 RMK AO2 SLP181 T02110200,KFLO,2024-05-05T00:53:00Z,34.1877,-79.7308,21.1,20,110,5,,10+,30.07,1018.1,,,TRUE,,,,,,,FEW,12000,,,,,,,VFR,,,,,,,,,,,,METAR,43
KFLL 050053Z 09011KT 10SM FEW026 FEW055 28/20 A3000 RMK AO2 SLP159 T02780200,KFLL,2024-05-05T00:53:00Z,26.0787,-80.1622,27.8,20,90,11,,10+,30.00,1015.9,,,TRUE,,,,,,,FEW,2600,FEW,5500,,,,,VFR,,,,,,,,,,,,METAR,1
KFLD 050053Z AUTO 32012KT 10SM OVC019 14/10 A2990 RMK AO2 SLP127 T01390100,KFLD,2024-05-05T00:53:00Z,43.7695,-88.4907,13.9,10,320,12,,10+,29.90,1012.7,,TRUE,TRUE,,,,,,,OVC,1900,,,,,,,MVFR,,,,,,,,,,,,METAR,242
KFHR 050053Z AUTO 24007KT 10SM FEW080 OVC100 14/07 A2956 RMK AO2 RAB03E15 SLP009 P0000 T01440072,KFHR,2024-05-05T00:53:00Z,48.52,-123.026,14.4,7.2,240,7,,10+,29.56,1000.9,,TRUE,TRUE,,,,,,,FEW,8000,OVC,10000,,,,,VFR,,,,,,0.005,,,,,,METAR,34
KFFT 050053Z AUTO 20006KT 10SM FEW055 21/17 A2992 RMK AO2 SLP127 T02110172,KFFT,2024-05-05T00:53:00Z,38.1846,-84.9039,21.1,17.2,200,6,,10+,29.92,1012.7,,TRUE,TRUE,,,,,,,FEW,5500,,,,,,,VFR,,,,,,,,,,,,METAR,235
KFFC 050053Z AUTO 00000KT 10SM FEW041 22/19 A3002 RMK AO2 SLP162 T02170194,KFFC,2024-05-05T00:53:00Z,33.3543,-84.5689,21.7,19.4,0,0,,10+,30.02,1016.2,,TRUE,TRUE,,,,,,,FEW,4100,,,,,,,VFR,,,,,,,,,,,,METAR,242
KFDY 050053Z AUTO 12007KT 10SM SCT075 OVC120 21/18 A2988 RMK AO2 LTG DSNT N AND NW SLP113 T02110178,KFDY,2024-05-05T00:53:00Z,41.0137,-83.6681,21.1,17.8,120,7,,10+,29.88,1011.3,,TRUE,TRUE,,,,,,,SCT,7500,OVC,12000,,,,,VFR,,,,,,,,,,,,METAR,247
KFDR 050053Z AUTO 04011KT 10SM FEW075 18/15 A2989 RMK AO2 LTG DSNT SE AND S SLP111 T01830150,KFDR,2024-05-05T00:53:00Z,34.3531,-98.9876,18.3,15,40,11,,10+,29.89,1011.1,,TRUE,TRUE,,,,,,,FEW,7500,,,,,,,VFR,,,,,,,,,,,,METAR,378
KFCM 050053Z 30004KT 10SM FEW065 15/04 A2998 RMK AO2 SLP154 T01500039,KFCM,2024-05-05T00:53:00Z,44.8321,-93.4705,15,3.9,300,4,,10+,29.98,1015.4,,,TRUE,,,,,,,FEW,6500,,,,,,,VFR,,,,,,,,,,,,METAR,276
KFAY 050053Z 00000KT 10SM FEW085 BKN110 21/19 A3009 RMK AO2 SLP182 T02060194 $,KFAY,2024-05-05T00:53:00Z,34.9895,-78.8801,20.6,19.4,0,0,,10+,30.09,1018.2,,,TRUE,TRUE,,,,,,FEW,8500,BKN,11000,,,,,VFR,,,,,,,,,,,,METAR,57
KFAR 050053Z 32007KT 10SM CLR 13/04 A2999 RMK AO2 SLP160 T01330044,KFAR,2024-05-05T00:53:00Z,46.9242,-96.8119,13.3,4.4,320,7,,10+,29.99,1016,,,TRUE,,,,,,,CLR,,,,,,,,VFR,,,,,,,,,,,,METAR,276
KEYW 050053Z 10014KT 10SM FEW024 27/21 A2998 RMK AO2 SLP158 T02670211 $,KEYW,2024-05-05T00:53:00Z,24.5571,-81.7554,26.7,21.1,100,14,,10+,29.98,1015.8,,,TRUE,TRUE,,,,,,FEW,2400,,,,,,,VFR,,,,,,,,,,,,METAR,1
KEYE 050053Z AUTO 23003KT 10SM CLR 25/14 A2987 RMK AO2 SLP107 T02500144,KEYE,2024-05-05T00:53:00Z,39.8248,-86.2958,25,14.4,230,3,,10+,29.87,1010.7,,TRUE,TRUE,,,,,,,CLR,,,,,,,,VFR,,,,,,,,,,,,METAR,248
KEWB 050053Z 07007KT 10SM FEW013 OVC036 09/06 A3036 RMK AO2 SLP281 T00890061,KEWB,2024-05-05T00:53:00Z,41.6791,-70.9591,8.9,6.1,70,7,,10+,30.36,1028.1,,,TRUE,,,,,,,FEW,1300,OVC,3600,,,,,VFR,,,,,,,,,,,,METAR,22
KEVW 050053Z AUTO 17010G21KT 10SM FEW100 16/M05 A2977 RMK AO2 SLP028 T01561050,KEVW,2024-05-05T00:53:00Z,41.2727,-111.031,15.6,-5,170,10,21,10+,29.77,1002.8,,TRUE,TRUE,,,,,,,FEW,10000,,,,,,,VFR,,,,,,,,,,,,METAR,2178
KETH 050053Z AUTO 33006KT 10SM SCT070 14/02 A3001 RMK AO2,KETH,2024-05-05T00:53:00Z,45.7828,-96.5461,14,2,330,6,,10+,30.01,,,TRUE,TRUE,,,,,,,SCT,7000,,,,,,,VFR,,,,,,,,,,,,METAR,309
KESF 050053Z AUTO 00000KT 9SM CLR 24/22 A2992 RMK AO2 SLP129 T02440222,KESF,2024-05-05T00:53:00Z,31.3963,-92.2828,24.4,22.2,0,0,,9,29.92,1012.9,,TRUE,TRUE,,,,,,,CLR,,,,,,,,VFR,,,,,,,,,,,,METAR,27
KEQY 050053Z AUTO 00000KT 10SM BKN004 OVC110 19/19 A3007 RMK AO2 SLP186 T01940189,KEQY,2024-05-05T00:53:00Z,35.0147,-80.6242,19.4,18.9,0,0,,10+,30.07,1018.6,,TRUE,TRUE,,,,,,,BKN,400,OVC,11000,,,,,LIFR,,,,,,,,,,,,METAR,205
KEPH 050053Z AUTO 31015G20KT 10SM SCT060 OVC075 14/08 A2949 RMK AO2 RAE2358 SLP986 P0000 T01390078,KEPH,2024-05-05T00:53:00Z,47.3078,-119.516,13.9,7.8,310,15,20,10+,29.49,998.6,,TRUE,TRUE,,,,,,,SCT,6000,OVC,7500,,,,,VFR,,,,,,0.005,,,,,,METAR,382
KENW 050053Z 17004KT 10SM -RA OVC090 18/16 A2984 RMK AO2 LTG DSNT E SLP104 P0007 T01830161 $,KENW,2024-05-05T00:53:00Z,42.5953,-87.9383,18.3,16.1,170,4,,10+,29.84,1010.4,,,TRUE,TRUE,,,,,-RA,OVC,9000,,,,,,,VFR,,,,,,0.07,,,,,,METAR,222
KEMP 050053Z AUTO 03007KT 10SM CLR 16/09 A3004 RMK AO2 SLP171 T01560089,KEMP,2024-05-05T00:53:00Z,38.3291,-96.1945,15.6,8.9,30,7,,10+,30.04,1017.1,,TRUE,TRUE,,,,,,,CLR,,,,,,,,VFR,,,,,,,,,,,,METAR,366
KELY 050053Z AUTO 17028G49KT 10SM FEW110 17/M03 A2958 RMK AO2 PK WND 16050/0024 SLP963 T01721028,KELY,2024-05-05T00:53:00Z,39.2954,-114.847,17.2,-2.8,170,28,49,10+,29.58,996.3,,TRUE,TRUE,,,,,,,FEW,11000,,,,,,,VFR,,,,,,,,,,,,METAR,1906
KELN 050053Z AUTO 29011KT 10SM OVC070 13/09 A2951 RMK AO2 RAE26 SLP989 P0000 T01280089,KELN,2024-05-05T00:53:00Z,47.0338,-120.531,12.8,8.9,290,11,,10+,29.51,998.9,,TRUE,TRUE,,,,,,,OVC,7000,,,,,,,VFR,,,,,,0.005,,,,,,METAR,532
KELM 050053Z VRB05G15KT 10SM OVC022 13/09 A3017 RMK AO2 PK WND 17026/0000 RAB23E39 SLP218 P0000 T01330089,KELM,2024-05-05T00:53:00Z,42.1601,-76.89,13.3,8.9,VRB,5,15,10+,30.17,1021.8,,,TRUE,,,,,,,OVC,2200,,,,,,,MVFR,,,,,,0.005,,,,,,METAR,287
KELD 050053Z AUTO 19005KT 10SM SCT044 25/19 A2994 RMK AO2 SLP134 T02500194,KELD,2024-05-05T00:53:00Z,33.2207,-92.814,25,19.4,190,5,,10+,29.94,1013.4,,TRUE,TRUE,,,,,,,SCT,4400,,,,,,,VFR,,,,,,,,,,,,METAR,76
KEET 050053Z AUTO 00000KT 10SM CLR 23/19 A2998 RMK AO2 SLP146 T02330189,KEET,2024-05-05T00:53:00Z,33.1783,-86.7818,23.3,18.9,0,0,,10+,29.98,1014.6,,TRUE,TRUE,,,,,,,CLR,,,,,,,,VFR,,,,,,,,,,,,METAR,172
KEEO 050053Z AUTO 00000KT 10SM FEW120 18/M05 A2982 RMK AO2 SLP067 T01831050,KEEO,2024-05-05T00:53:00Z,40.0444,-107.888,18.3,-5,0,0,,10+,29.82,1006.7,,TRUE,TRUE,,,,,,,FEW,12000,,,,,,,VFR,,,,,,,,,,,,METAR,1957
KECP 050053Z 22003KT 10SM CLR 24/21 A3000 RMK AO1 SLP169 T02440206,KECP,2024-05-05T00:53:00Z,30.3487,-85.7884,24.4,20.6,220,3,,10+,30.00,1016.9,,,TRUE,,,,,,,CLR,,,,,,,,VFR,,,,,,,,,,,,METAR,17
KDXR 050053Z 15008KT 10SM CLR 12/07 A3033 RMK AO2 SLP268 T01170067 $,KDXR,2024-05-05T00:53:00Z,41.3722,-73.4834,11.7,6.7,150,8,,10+,30.33,1026.8,,,TRUE,TRUE,,,,,,CLR,,,,,,,,VFR,,,,,,,,,,,,METAR,138
KDVT 050053Z 27010KT 10SM CLR 32/M01 A2970 RMK AO2 SLP036 T03171006,KDVT,2024-05-05T00:53:00Z,33.6902,-112.066,31.7,-0.6,270,10,,10+,29.70,1003.6,,,TRUE,,,,,,,CLR,,,,,,,,VFR,,,,,,,,,,,,METAR,454
KDVP 050053Z AUTO 32006KT 10SM SCT060 13/02 A3005 RMK AO2 T01320020,KDVP,2024-05-05T00:53:00Z,43.9906,-95.781,13.2,2,320,6,,10+,30.05,,,TRUE,TRUE,,,,,,,SCT,6000,,,,,,,VFR,,,,,,,,,,,,METAR,493
KDUJ 050053Z AUTO 12010KT 8SM -RA BKN006 OVC010 10/08 A3010 RMK AO2 CIG 004V008 SLP194 P0005 T01000078,KDUJ,2024-05-05T00:53:00Z,41.1795,-78.8933,10,7.8,120,10,,8,30.10,1019.4,,TRUE,TRUE,,,,,,-RA,BKN,600,OVC,1000,,,,,IFR,,,,,,0.05,,,,,,METAR,552
KDTW 050053Z 00000KT 9SM SCT040 BKN060 19/17 A2991 RMK AO2 SLP127 T01940167,KDTW,2024-05-05T00:53:00Z,42.2311,-83.3312,19.4,16.7,0,0,,9,29.91,1012.7,,,TRUE,,,,,,,SCT,4000,BKN,6000,,,,,VFR,,,,,,,,,,,,METAR,192
KDTS 050053Z 21004KT 10SM CLR 24/22 A3000 RMK AO2 SLP158 T02440222,KDTS,2024-05-05T00:53:00Z,30.3933,-86.4674,24.4,22.2,210,4,,10+,30.00,1015.8,,,TRUE,,,,,,,CLR,,,,,,,,VFR,,,,,,,,,,,,METAR,5
KDTO 050053Z 20004KT 10SM OVC060 23/21 A2990 RMK AO2 LTG DSNT W AND NW RAE12 SLP116 P0000 T02330211,KDTO,2024-05-05T00:53:00Z,33.2088,-97.1992,23.3,21.1,200,4,,10+,29.90,1011.6,,,TRUE,,,,,,,OVC,6000,,,,,,,VFR,,,,,,0.005,,,,,,METAR,199
KDTN 050053Z 13004KT 10SM CLR 27/17 A2992 RMK AO2 SLP131 T02670172,KDTN,2024-05-05T00:53:00Z,32.5429,-93.745,26.7,17.2,130,4,,10+,29.92,1013.1,,,TRUE,,,,,,,CLR,,,,,,,,VFR,,,,,,,,,,,,METAR,53
KDRT 050053Z AUTO 12012G19KT 8SM BKN033 OVC039 27/22 A2973 RMK AO2 LTG DSNT N SLP058 T02720217 $,KDRT,2024-05-05T00:53:00Z,29.3784,-100.927,27.2,21.7,120,12,19,8,29.73,1005.8,,TRUE,TRUE,TRUE,,,,,,BKN,3300,OVC,3900,,,,,VFR,,,,,,,,,,,,METAR,303
KDRO 050053Z AUTO 13010KT 10SM FEW110 17/M01 A2994 RMK AO2 PK WND 14027/2354 SLP096 T01721011,KDRO,2024-05-05T00:53:00Z,37.1431,-107.76,17.2,-1.1,130,10,,10+,29.94,1009.6,,TRUE,TRUE,,,,,,,FEW,11000,,,,,,,VFR,,,,,,,,,,,,METAR,2021
KDRA 050053Z AUTO 22027G43KT 10SM CLR 22/M04 A2961 RMK AO2 PK WND 22044/2354 SLP992 T02171044,KDRA,2024-05-05T00:53:00Z,36.621,-116.029,21.7,-4.4,220,27,43,10+,29.61,999.2,,TRUE,TRUE,,,,,,,CLR,,,,,,,,VFR,,,,,,,,,,,,METAR,988
KDNL 050053Z AUTO 19009KT 10SM -RA SCT027 BKN047 OVC090 21/18 A3005 RMK AO2 LTG DSNT NW RAB35 SLP171 P0000 T02110178 $,KDNL,2024-05-05T00:53:00Z,33.4668,-82.0385,21.1,17.8,190,9,,10+,30.05,1017.1,,TRUE,TRUE,TRUE,,,,,-RA,SCT,2700,BKN,4700,OVC,9000,,,VFR,,,,,,0.005,,,,,,METAR,126
KDMO 050053Z AUTO 33011KT 10SM OVC024 16/11 A3004 RMK AO2 SLP167 T01610111,KDMO,2024-05-05T00:53:00Z,38.712,-93.1747,16.1,11.1,330,11,,10+,30.04,1016.7,,TRUE,TRUE,,,,,,,OVC,2400,,,,,,,MVFR,,,,,,,,,,,,METAR,271
KDMN 050053Z AUTO 26014G22KT 10SM CLR 28/M10 A2985 RMK AO2 PK WND 25029/0021 SLP041 T02781100,KDMN,2024-05-05T00:53:00Z,32.2592,-107.721,27.8,-10,260,14,22,10+,29.85,1004.1,,TRUE,TRUE,,,,,,,CLR,,,,,,,,VFR,,,,,,,,,,,,METAR,1310
KDMH 050053Z AUTO 14/10 A3025 RMK AO1 SLP242 T01390100,KDMH,2024-05-05T00:53:00Z,39.281,-76.611,13.9,10,,,,,30.25,1024.2,,TRUE,TRUE,,,,,,,,,,,,,,,,,,,,,,,,,,,METAR,4
KDLS 050053Z AUTO 29011G19KT 10SM -RA OVC055 09/ A2956 RMK AO2 PK WND 31027/0042 SLP009 P0004 T0094 $,KDLS,2024-05-05T00:53:00Z,45.619,-121.166,9.4,,290,11,19,10+,29.56,1000.9,,TRUE,TRUE,TRUE,,,,,-RA,OVC,5500,,,,,,,VFR,,,,,,0.04,,,,,,METAR,71
KDLN 050053Z AUTO 16009KT 10SM CLR 15/M04 A2964 RMK AO2 SLP022 T01501044,KDLN,2024-05-05T00:53:00Z,45.2584,-112.555,15,-4.4,160,9,,10+,29.64,1002.2,,TRUE,TRUE,,,,,,,CLR,,,,,,,,VFR,,,,,,,,,,,,METAR,1586
KDKK 050053Z AUTO 15010G20KT 100V180 10SM SCT070 16/09 A3002 RMK AO2 SLP165 T01610089,KDKK,2024-05-05T00:53:00Z,42.4932,-79.2762,16.1,8.9,150,10,20,10+,30.02,1016.5,,TRUE,TRUE,,,,,,,SCT,7000,,,,,,,VFR,,,,,,,,,,,,METAR,205
KDHT 050053Z AUTO 08007KT 10SM OVC028 14/07 A3003 RMK AO2 SLP146 T01390072 $,KDHT,2024-05-05T00:53:00Z,36.0252,-102.549,13.9,7.2,80,7,,10+,30.03,1014.6,,TRUE,TRUE,TRUE,,,,,,OVC,2800,,,,,,,MVFR,,,,,,,,,,,,METAR,1217
KDHN 050053Z AUTO 26006KT 10SM VCTS BKN055 BKN070 28/19 A3002 RMK AO2 LTG DSNT E SLP161 T02830194,KDHN,2024-05-05T00:53:00Z,31.3177,-85.4432,28.3,19.4,260,6,,10+,30.02,1016.1,,TRUE,TRUE,,,,,,VCTS,BKN,5500,BKN,7000,,,,,VFR,,,,,,,,,,,,METAR,113
KDGW 050053Z AUTO 14014KT 10SM CLR 16/M02 A2986 RMK AO2 SLP105 T01561022,KDGW,2024-05-05T00:53:00Z,42.796,-105.38,15.6,-2.2,140,14,,10+,29.86,1010.5,,TRUE,TRUE,,,,,,,CLR,,,,,,,,VFR,,,,,,,,,,,,METAR,1503
KDFW 050053Z 11005KT 10SM FEW030 OVC050 25/19 A2987 RMK AO2 LTG DSNT NW SLP106 T02500194,KDFW,2024-05-05T00:53:00Z,32.8974,-97.0219,25,19.4,110,5,,10+,29.87,1010.6,,,TRUE,,,,,,,FEW,3000,OVC,5000,,,,,VFR,,,,,,,,,,,,METAR,168
KDFI 050053Z AUTO 08005KT 10SM OVC080 21/18 A2989 RMK AO2 LTG DSNT E SLP119 T02110178,KDFI,2024-05-05T00:53:00Z,41.3357,-84.4285,21.1,17.8,80,5,,10+,29.89,1011.9,,TRUE,TRUE,,,,,,,OVC,8000,,,,,,,VFR,,,,,,,,,,,,METAR,215
KDEW 050053Z AUTO 07009KT 10SM OVC110 19/00 A2953 RMK AO2 SLP992 T01890000 $,KDEW,2024-05-05T00:53:00Z,47.9742,-117.429,18.9,0,70,9,,10+,29.53,999.2,,TRUE,TRUE,TRUE,,,,,,OVC,11000,,,,,,,VFR,,,,,,,,,,,,METAR,672
KDET 050053Z 11005KT 10SM OVC050 21/17 A2992 RMK AO2 SLPNO T02060167,KDET,2024-05-05T00:53:00Z,42.4072,-83.009,20.6,16.7,110,5,,10+,29.92,,,,TRUE,,,,,,,OVC,5000,,,,,,,VFR,,,,,,,,,,,,METAR,190
KDEQ 050053Z AUTO 36008G25KT 10SM SCT043 BKN065 21/14 A2995 RMK AO2 PK WND 33028/0043 LTG DSNT N AND NW SLP138 T02060139,KDEQ,2024-05-05T00:53:00Z,34.048,-94.4016,20.6,13.9,360,8,25,10+,29.95,1013.8,,TRUE,TRUE,,,,,,,SCT,4300,BKN,6500,,,,,VFR,,,,,,,,,,,,METAR,107
KDEN 050053Z 16014KT 10SM FEW100 FEW140 SCT220 16/00 A2993 RMK AO2 SLP104 VIRGA SW T01560000,KDEN,2024-05-05T00:53:00Z,39.8466,-104.656,15.6,0,160,14,,10+,29.93,1010.4,,,TRUE,,,,,,,FEW,10000,FEW,14000,SCT,22000,,,VFR,,,,,,,,,,,,METAR,1656
KDCU 050053Z AUTO 19004KT 10SM CLR 23/19 A2996 RMK AO2 SLP138 T02330194 $,KDCU,2024-05-05T00:53:00Z,34.658,-86.9434,23.3,19.4,190,4,,10+,29.96,1013.8,,TRUE,TRUE,TRUE,,,,,,CLR,,,,,,,,VFR,,,,,,,,,,,,METAR,180
KDBQ 050053Z 33015KT 10SM OVC027 14/08 A2995 RMK AO2 SLP145 T01390083,KDBQ,2024-05-05T00:53:00Z,42.3984,-90.7092,13.9,8.3,330,15,,10+,29.95,1014.5,,,TRUE,,,,,,,OVC,2700,,,,,,,MVFR,,,,,,,,,,,,METAR,317
KDAN 050053Z AUTO 06005KT 10SM OVC003 15/14 A3014 RMK AO2 RAB39E48 SLP199 P0000 T01500139,KDAN,2024-05-05T00:53:00Z,36.5729,-79.335,15,13.9,60,5,,10+,30.14,1019.9,,TRUE,TRUE,,,,,,,OVC,300,,,,,,,LIFR,,,,,,0.005,,,,,,METAR,170
KDAL 050053Z 10005KT 10SM BKN060 OVC075 26/19 A2988 RMK AO2 SLP111 T02560189 $,KDAL,2024-05-05T00:53:00Z,32.8384,-96.8358,25.6,18.9,100,5,,10+,29.88,1011.1,,,TRUE,TRUE,,,,,,BKN,6000,OVC,7500,,,,,VFR,,,,,,,,,,,,METAR,148
KDAB 050053Z VRB04KT 10SM FEW150 24/20 A3003 RMK AO2 SLP169 T02440200,KDAB,2024-05-05T00:53:00Z,29.1735,-81.0719,24.4,20,VRB,4,,10+,30.03,1016.9,,,TRUE,,,,,,,FEW,15000,,,,,,,VFR,,,,,,,,,,,,METAR,8
KCYS 050053Z 16017G26KT 10SM CLR 13/M02 A2997 RMK AO2 PK WND 16028/0014 SLP129 T01331017,KCYS,2024-05-05T00:53:00Z,41.1579,-104.808,13.3,-1.7,160,17,26,10+,29.97,1012.9,,,TRUE,,,,,,,CLR,,,,,,,,VFR,,,,,,,,,,,,METAR,1868
KCXO 050053Z 13006KT 10SM SCT025 OVC095 25/21 A2991 RMK AO2 LTG DSNT N SLP124 T02500211,KCXO,2024-05-05T00:53:00Z,30.3611,-95.4176,25,21.1,130,6,,10+,29.91,1012.4,,,TRUE,,,,,,,SCT,2500,OVC,9500,,,,,VFR,,,,,,,,,,,,METAR,69
KCUT 050053Z AUTO 17007KT 10SM CLR 11/M03 A2996 RMK AO2 SLP139 T01111033,KCUT,2024-05-05T00:53:00Z,43.7331,-103.615,11.1,-3.3,170,7,,10+,29.96,1013.9,,TRUE,TRUE,,,,,,,CLR,,,,,,,,VFR,,,,,,,,,,,,METAR,1700
KCUB 050053Z AUTO 12003KT 10SM BKN060 OVC085 21/20 A3006 RMK AO2 RAE24 SLP177 P0004 T02060200,KCUB,2024-05-05T00:53:00Z,33.972,-80.9939,20.6,20,120,3,,10+,30.06,1017.7,,TRUE,TRUE,,,,,,,BKN,6000,OVC,8500,,,,,VFR,,,,,,0.04,,,,,,METAR,55
KCSV 050053Z AUTO VRB03KT 10SM SCT075 17/17 A3002 RMK AO2 LTG DSNT E-S RAB17E37 SLP153 P0002 T01720172,KCSV,2024-05-05T00:53:00Z,35.951,-85.0814,17.2,17.2,VRB,3,,10+,30.02,1015.3,,TRUE,TRUE,,,,,,,SCT,7500,,,,,,,VFR,,,,,,0.02,,,,,,METAR,569
KCSM 050053Z AUTO 04013KT 10SM OVC023 17/12 A2998 RMK AO2 SLP142 T01670117,KCSM,2024-05-05T00:53:00Z,35.3568,-99.2041,16.7,11.7,40,13,,10+,29.98,1014.2,,TRUE,TRUE,,,,,,,OVC,2300,,,,,,,MVFR,,,,,,,,,,,,METAR,586
KCRS 050053Z AUTO 12006KT 10SM BKN060 26/20 A2988 RMK AO2 SLP114 T02560200,KCRS,2024-05-05T00:53:00Z,32.0316,-96.3994,25.6,20,120,6,,10+,29.88,1011.4,,TRUE,TRUE,,,,,,,BKN,6000,,,,,,,VFR,,,,,,,,,,,,METAR,136
KCRQ 050053Z 25008KT 10SM BKN013 OVC018 16/12 A2990 RMK AO2 SLP124 T01560122,KCRQ,2024-05-05T00:53:00Z,33.1299,-117.277,15.6,12.2,250,8,,10+,29.90,1012.4,,,TRUE,,,,,,,BKN,1300,OVC,1800,,,,,MVFR,,,,,,,,,,,,METAR,96
KCRG 050053Z 13006KT 10SM CLR 23/19 A3004 RMK AO2 SLP170 T02330194 $,KCRG,2024-05-05T00:53:00Z,30.3371,-81.5128,23.3,19.4,130,6,,10+,30.04,1017,,,TRUE,TRUE,,,,,,CLR,,,,,,,,VFR,,,,,,,,,,,,METAR,12
KCRE 050053Z AUTO 14004KT 10SM CLR 23/19 A3009 RMK AO1 SLP189 T02330189,KCRE,2024-05-05T00:53:00Z,33.8162,-78.7204,23.3,18.9,140,4,,10+,30.09,1018.9,,TRUE,TRUE,,,,,,,CLR,,,,,,,,VFR,,,,,,,,,,,,METAR,9
KCQC 050053Z AUTO 11016G23KT 10SM CLR 14/03 A3005 RMK AO2 SLP123 T01390033 $,KCQC,2024-05-05T00:53:00Z,35.003,-105.663,13.9,3.3,110,16,23,10+,30.05,1012.3,,TRUE,TRUE,TRUE,,,,,,CLR,,,,,,,,VFR,,,,,,,,,,,,METAR,2163
KCPS 050053Z 22003KT 10SM FEW120 19/18 A2993 RMK AO2 LTG DSNT SE RAE04 SLP131 P0001 T01940183 $,KCPS,2024-05-05T00:53:00Z,38.57,-90.156,19.4,18.3,220,3,,10+,29.93,1013.1,,,TRUE,TRUE,,,,,,FEW,12000,,,,,,,VFR,,,,,,0.01,,,,,,METAR,125
KCPR 050053Z 17004KT 10SM CLR 16/M06 A2984 RMK AO2 SLP089 T01611061,KCPR,2024-05-05T00:53:00Z,42.8978,-106.474,16.1,-6.1,170,4,,10+,29.84,1008.9,,,TRUE,,,,,,,CLR,,,,,,,,VFR,,,,,,,,,,,,METAR,1623
KCOT 050053Z AUTO 13013G21KT 10SM SCT045 OVC050 29/20 A2975 RMK AO2 RAE01 SLP065 P0000 T02890200 $,KCOT,2024-05-05T00:53:00Z,28.4585,-99.2228,28.9,20,130,13,21,10+,29.75,1006.5,,TRUE,TRUE,TRUE,,,,,,SCT,4500,OVC,5000,,,,,VFR,,,,,,0.005,,,,,,METAR,144
KCNY 050053Z AUTO 24007KT 10SM CLR 24/M06 A2970 RMK AO2 SLP017 T02441056,KCNY,2024-05-05T00:53:00Z,38.7501,-109.763,24.4,-5.6,240,7,,10+,29.70,1001.7,,TRUE,TRUE,,,,,,,CLR,,,,,,,,VFR,,,,,,,,,,,,METAR,1392
KCNO 050053Z 24013KT 10SM BKN027 OVC043 14/12 A2990 RMK AO2 SLP121 T01440117,KCNO,2024-05-05T00:53:00Z,33.9756,-117.625,14.4,11.7,240,13,,10+,29.90,1012.1,,,TRUE,,,,,,,BKN,2700,OVC,4300,,,,,MVFR,,,,,,,,,,,,METAR,191
KCNM 050053Z AUTO 05012KT 10SM CLR 22/14 A2989 RMK AO2 LTG DSNT S SLP079 T02170139,KCNM,2024-05-05T00:53:00Z,32.3335,-104.258,21.7,13.9,50,12,,10+,29.89,1007.9,,TRUE,TRUE,,,,,,,CLR,,,,,,,,VFR,,,,,,,,,,,,METAR,993
KCLM 050053Z AUTO 30004KT 10SM OVC070 13/08 A2958 RMK AO2 SLP016 T01280083,KCLM,2024-05-05T00:53:00Z,48.1219,-123.507,12.8,8.3,300,4,,10+,29.58,1001.6,,TRUE,TRUE,,,,,,,OVC,7000,,,,,,,VFR,,,,,,,,,,,,METAR,81
KCLL 050053Z 13012G22KT 10SM FEW090 27/21 A2985 RMK AO2 SLP103 T02670206,KCLL,2024-05-05T00:53:00Z,30.5912,-96.3631,26.7,20.6,130,12,22,10+,29.85,1010.3,,,TRUE,,,,,,,FEW,9000,,,,,,,VFR,,,,,,,,,,,,METAR,96
KCKB 050053Z 12005KT 10SM -RA OVC110 18/16 A3001 RMK AO2 RAB2358 SLP151 P0000 T01830161,KCKB,2024-05-05T00:53:00Z,39.3022,-80.2239,18.3,16.1,120,5,,10+,30.01,1015.1,,,TRUE,,,,,,-RA,OVC,11000,,,,,,,VFR,,,,,,0.005,,,,,,METAR,368
KCHO 050053Z 04007KT 2SM BR BKN003 OVC009 14/12 A3018 RMK AO2 SLP218 T01390117,KCHO,2024-05-05T00:53:00Z,38.1374,-78.4551,13.9,11.7,40,7,,2,30.18,1021.8,,,TRUE,,,,,,BR,BKN,300,OVC,900,,,,,LIFR,,,,,,,,,,,,METAR,193
KCHA 050053Z 13005KT 10SM FEW040 FEW120 SCT250 23/19 A2998 RMK AO2 LTG DSNT NE SLP147 CONS LTG DSNT NE CB DSNT NE AND SE TCU DSNT E T02280189,KCHA,2024-05-05T00:53:00Z,35.0336,-85.2004,22.8,18.9,130,5,,10+,29.98,1014.7,,,TRUE,,,,,,,FEW,4000,FEW,12000,SCT,25000,,,VFR,,,,,,,,,,,,METAR,203
KCGI 050053Z AUTO 00000KT 10SM FEW095 24/19 A2992 RMK AO2 LTG DSNT W-N SLP129 T02390194,KCGI,2024-05-05T00:53:00Z,37.2254,-89.5785,23.9,19.4,0,0,,10+,29.92,1012.9,,TRUE,TRUE,,,,,,,FEW,9500,,,,,,,VFR,,,,,,,,,,,,METAR,103
KCEZ 050053Z AUTO 21014KT 10SM CLR 22/M07 A2985 RMK AO2 SLP057 T02221067 $,KCEZ,2024-05-05T00:53:00Z,37.3071,-108.626,22.2,-6.7,210,14,,10+,29.85,1005.7,,TRUE,TRUE,TRUE,,,,,,CLR,,,,,,,,VFR,,,,,,,,,,,,METAR,1801
KCEW 050053Z AUTO 20005KT 10SM CLR 24/18 A3001 RMK AO2 SLP158 T02440183,KCEW,2024-05-05T00:53:00Z,30.7771,-86.5194,24.4,18.3,200,5,,10+,30.01,1015.8,,TRUE,TRUE,,,,,,,CLR,,,,,,,,VFR,,,,,,,,,,,,METAR,47
KCDW 050053Z 15005KT 10SM OVC055 12/06 A3032 RMK AO2 SLP273 T01220056,KCDW,2024-05-05T00:53:00Z,40.8764,-74.2829,12.2,5.6,150,5,,10+,30.32,1027.3,,,TRUE,,,,,,,OVC,5500,,,,,,,VFR,,,,,,,,,,,,METAR,52
KCDS 050053Z AUTO 03008G17KT 10SM OVC022 17/13 A2995 RMK AO2 SLP128 T01720133 $,KCDS,2024-05-05T00:53:00Z,34.4275,-100.284,17.2,13.3,30,8,17,10+,29.95,1012.8,,TRUE,TRUE,TRUE,,,,,,OVC,2200,,,,,,,MVFR,,,,,,,,,,,,METAR,595
KCDR 050053Z AUTO 16011KT 10SM CLR 17/00 A2993 RMK AO2 SLP146 T01670000 $,KCDR,2024-05-05T00:53:00Z,42.8374,-103.098,16.7,0,160,11,,10+,29.93,1014.6,,TRUE,TRUE,TRUE,,,,,,CLR,,,,,,,,VFR,,,,,,,,,,,,METAR,1002
KCDD 050053Z AUTO 00000KT 10SM SCT100 11/03 A2998 RMK AO2,KCDD,2024-05-05T00:53:00Z,48.2601,-92.4748,11,3,0,0,,10+,29.98,,,TRUE,TRUE,,,,,,,SCT,10000,,,,,,,VFR,,,,,,,,,,,,METAR,344
KCDC 050053Z AUTO 21026G39KT 10SM CLR 19/M03 A2972 RMK AO2 PK WND 21039/0053 SLP021 T01891028,KCDC,2024-05-05T00:53:00Z,37.7067,-113.097,18.9,-2.8,210,26,39,10+,29.72,1002.1,,TRUE,TRUE,,,,,,,CLR,,,,,,,,VFR,,,,,,,,,,,,METAR,1703
KCCR 050053Z 24015G20KT 10SM FEW028 FEW060 13/07 A2983 RMK AO2 PK WND 21028/0010 SLP086 T01280067,KCCR,2024-05-05T00:53:00Z,37.9916,-122.053,12.8,6.7,240,15,20,10+,29.83,1008.6,,,TRUE,,,,,,,FEW,2800,FEW,6000,,,,,VFR,,,,,,,,,,,,METAR,6
KCAG 050053Z AUTO 09006KT 10SM CLR 19/M03 A2983 RMK AO2 SLP075 T01941028,KCAG,2024-05-05T00:53:00Z,40.493,-107.524,19.4,-2.8,90,6,,10+,29.83,1007.5,,TRUE,TRUE,,,,,,,CLR,,,,,,,,VFR,,,,,,,,,,,,METAR,1888
KBYI 050053Z AUTO 12011G24KT 10SM FEW110 18/01 A2947 RMK AO2 PK WND 14026/0032 SLP960 T01780011,KBYI,2024-05-05T00:53:00Z,42.5452,-113.769,17.8,1.1,120,11,24,10+,29.47,996,,TRUE,TRUE,,,,,,,FEW,11000,,,,,,,VFR,,,,,,,,,,,,METAR,1263
KBYG 050053Z AUTO 15017KT 10SM CLR 16/M02 A2979 RMK AO2 PK WND 15030/2357 SLP070 T01611022,KBYG,2024-05-05T00:53:00Z,44.3812,-106.719,16.1,-2.2,150,17,,10+,29.79,1007,,TRUE,TRUE,,,,,,,CLR,,,,,,,,VFR,,,,,,,,,,,,METAR,1503
KBWG 050053Z AUTO 20003KT 10SM CLR 24/17 A2992 RMK AO2 SLP128 T02390172,KBWG,2024-05-05T00:53:00Z,36.9647,-86.4238,23.9,17.2,200,3,,10+,29.92,1012.8,,TRUE,TRUE,,,,,,,CLR,,,,,,,,VFR,,,,,,,,,,,,METAR,159
KBVY 050053Z AUTO 11006KT 10SM FEW011 OVC036 08/06 A3038 RMK AO2 SLP284 T00780056,KBVY,2024-05-05T00:53:00Z,42.5841,-70.9153,7.8,5.6,110,6,,10+,30.38,1028.4,,TRUE,TRUE,,,,,,,FEW,1100,OVC,3600,,,,,VFR,,,,,,,,,,,,METAR,28
KBVO 050053Z AUTO 02007KT 10SM CLR 18/13 A3000 RMK AO2 SLP151 T01830128,KBVO,2024-05-05T00:53:00Z,36.7664,-96.0129,18.3,12.8,20,7,,10+,30.00,1015.1,,TRUE,TRUE,,,,,,,CLR,,,,,,,,VFR,,,,,,,,,,,,METAR,210
KBUR 050053Z 20011KT 10SM SCT033 OVC043 16/10 A2989 RMK AO2 SLP114 T01610100,KBUR,2024-05-05T00:53:00Z,34.1996,-118.365,16.1,10,200,11,,10+,29.89,1011.4,,,TRUE,,,,,,,SCT,3300,OVC,4300,,,,,VFR,,,,,,,,,,,,METAR,221
KBTR 050053Z 00000KT 10SM CLR 24/21 A2996 RMK AO2 SLP143 T02390206,KBTR,2024-05-05T00:53:00Z,30.5378,-91.1468,23.9,20.6,0,0,,10+,29.96,1014.3,,,TRUE,,,,,,,CLR,,,,,,,,VFR,,,,,,,,,,,,METAR,20
KBTM 050053Z AUTO 10SM CLR 14/M05 A2968 RMK AO2 SLP042 T01391050,KBTM,2024-05-05T00:53:00Z,45.9644,-112.501,13.9,-5,,,,10+,29.68,1004.2,,TRUE,TRUE,,,,,,,CLR,,,,,,,,VFR,,,,,,,,,,,,METAR,1680
KBTL 050053Z 14006KT 10SM CLR 21/16 A2987 RMK AO2 SLP112 T02110161 $,KBTL,2024-05-05T00:53:00Z,42.3119,-85.2415,21.1,16.1,140,6,,10+,29.87,1011.2,,,TRUE,TRUE,,,,,,CLR,,,,,,,,VFR,,,,,,,,,,,,METAR,282
KBRO 050053Z 13011KT 8SM BKN014 OVC024 28/25 A2975 RMK AO2 SLP071 T02780250 $,KBRO,2024-05-05T00:53:00Z,25.9146,-97.4231,27.8,25,130,11,,8,29.75,1007.1,,,TRUE,TRUE,,,,,,BKN,1400,OVC,2400,,,,,MVFR,,,,,,,,,,,,METAR,6
KBRL 050053Z AUTO 33010G21KT 10SM SCT026 15/10 A2998 RMK AO2 SLP151 T01500100 $,KBRL,2024-05-05T00:53:00Z,40.7729,-91.1255,15,10,330,10,21,10+,29.98,1015.1,,TRUE,TRUE,TRUE,,,,,,SCT,2600,,,,,,,VFR,,,,,,,,,,,,METAR,208
KBRD 050053Z AUTO 35005KT 10SM FEW060 14/03 A2997 RMK AO2 SLP156 T01440028,KBRD,2024-05-05T00:53:00Z,46.4021,-94.1273,14.4,2.8,350,5,,10+,29.97,1015.6,,TRUE,TRUE,,,,,,,FEW,6000,,,,,,,VFR,,,,,,,,,,,,METAR,372
KBPT 050053Z 12010KT 10SM OVC090 24/23 A2990 RMK AO2 SLP126 T02440228 $,KBPT,2024-05-05T00:53:00Z,29.9521,-94.0262,24.4,22.8,120,10,,10+,29.90,1012.6,,,TRUE,TRUE,,,,,,OVC,9000,,,,,,,VFR,,,,,,,,,,,,METAR,6
KBPK 050053Z AUTO 29003KT 10SM CLR 19/16 A2997 RMK AO2 SLP141 T01890161 $,KBPK,2024-05-05T00:53:00Z,36.3705,-92.4719,18.9,16.1,290,3,,10+,29.97,1014.1,,TRUE,TRUE,TRUE,,,,,,CLR,,,,,,,,VFR,,,,,,,,,,,,METAR,279
KBPI 050053Z AUTO 21006KT 10SM CLR 15/M06 A2982 RMK AO2 SLP065 T01501056,KBPI,2024-05-05T00:53:00Z,42.578,-110.11,15,-5.6,210,6,,10+,29.82,1006.5,,TRUE,TRUE,,,,,,,CLR,,,,,,,,VFR,,,,,,,,,,,,METAR,2120
KBOI 050053Z 07009KT 10SM -RA OVC065 16/08 A2945 RMK AO2 RAE2356B19 SLP958 P0000 T01610078,KBOI,2024-05-05T00:53:00Z,43.567,-116.241,16.1,7.8,70,9,,10+,29.45,995.8,,,TRUE,,,,,,-RA,OVC,6500,,,,,,,VFR,,,,,,0.005,,,,,,METAR,860
KBNO 050053Z AUTO 14009KT 10SM -RA BKN040 OVC050 09/05 A2950 RMK AO2 SLP978 P0001 T00890050,KBNO,2024-05-05T00:53:00Z,43.5949,-118.958,8.9,5,140,9,,10+,29.50,997.8,,TRUE,TRUE,,,,,,-RA,BKN,4000,OVC,5000,,,,,VFR,,,,,,0.01,,,,,,METAR,1263
KBNA 050053Z 19003KT 10SM FEW120 SCT250 21/17 A2995 RMK AO2 SLP138 T02060172,KBNA,2024-05-05T00:53:00Z,36.1105,-86.6881,20.6,17.2,190,3,,10+,29.95,1013.8,,,TRUE,,,,,,,FEW,12000,SCT,25000,,,,,VFR,,,,,,,,,,,,METAR,168
KBMQ 050053Z AUTO 10010G18KT 9SM BKN008 BKN040 OVC047 22/22 A2984 RMK AO2 CIG 006V010 SLP090 T02220217,KBMQ,2024-05-05T00:53:00Z,30.7407,-98.2354,22.2,21.7,100,10,18,9,29.84,1009,,TRUE,TRUE,,,,,,,BKN,800,BKN,4000,OVC,4700,,,IFR,,,,,,,,,,,,METAR,387
KBMG 050053Z 24004KT 10SM CLR 21/16 A2989 RMK AO2 SLP117 T02110161,KBMG,2024-05-05T00:53:00Z,39.1432,-86.6168,21.1,16.1,240,4,,10+,29.89,1011.7,,,TRUE,,,,,,,CLR,,,,,,,,VFR,,,,,,,,,,,,METAR,254
KBLI 050053Z 18006KT 10SM OVC090 14/08 A2954 RMK AO2 SLP010 T01390078,KBLI,2024-05-05T00:53:00Z,48.7991,-122.541,13.9,7.8,180,6,,10+,29.54,1001,,,TRUE,,,,,,,OVC,9000,,,,,,,VFR,,,,,,,,,,,,METAR,46
KBKV 050053Z 02004KT 10SM CLR 24/19 A3002 RMK AO2 LTG DSNT SE SLP164 T02440194,KBKV,2024-05-05T00:53:00Z,28.4739,-82.4537,24.4,19.4,20,4,,10+,30.02,1016.4,,,TRUE,,,,,,,CLR,,,,,,,,VFR,,,,,,,,,,,,METAR,21
KBKL 050053Z 13011KT 10SM SCT019 BKN120 19/15 A2994 RMK AO2 SLP135 T01940150,KBKL,2024-05-05T00:53:00Z,41.5173,-81.6832,19.4,15,130,11,,10+,29.94,1013.5,,,TRUE,,,,,,,SCT,1900,BKN,12000,,,,,VFR,,,,,,,,,,,,METAR,177
KBKE 050053Z AUTO 14006KT 10SM OVC060 14/04 A2950 RMK AO2 SLP976 T01440044,KBKE,2024-05-05T00:53:00Z,44.843,-117.81,14.4,4.4,140,6,,10+,29.50,997.6,,TRUE,TRUE,,,,,,,OVC,6000,,,,,,,VFR,,,,,,,,,,,,METAR,1025
KBIV 050053Z AUTO 00000KT 10SM CLR 21/14 A2984 RMK AO2 SLP103 T02060144,KBIV,2024-05-05T00:53:00Z,42.7463,-86.0968,20.6,14.4,0,0,,10+,29.84,1010.3,,TRUE,TRUE,,,,,,,CLR,,,,,,,,VFR,,,,,,,,,,,,METAR,207
KBIL 050053Z 10015KT 10SM FEW120 SCT250 17/M03 A2977 RMK AO2 SLP082 T01671033,KBIL,2024-05-05T00:53:00Z,45.8072,-108.546,16.7,-3.3,100,15,,10+,29.77,1008.2,,,TRUE,,,,,,,FEW,12000,SCT,25000,,,,,VFR,,,,,,,,,,,,METAR,1089
KBHM 050053Z 28005KT 10SM FEW039 FEW250 26/17 A3000 RMK AO2 SLP149 T02610167,KBHM,2024-05-05T00:53:00Z,33.5655,-86.7449,26.1,16.7,280,5,,10+,30.00,1014.9,,,TRUE,,,,,,,FEW,3900,FEW,25000,,,,,VFR,,,,,,,,,,,,METAR,191
KBGR 050053Z 19006KT 10SM OVC045 11/06 A3040 RMK AO2 SLP293 T01060056,KBGR,2024-05-05T00:53:00Z,44.7979,-68.8195,10.6,5.6,190,6,,10+,30.40,1029.3,,,TRUE,,,,,,,OVC,4500,,,,,,,VFR,,,,,,,,,,,,METAR,45
KBGM 050053Z AUTO 16012G26KT 10SM BKN034 OVC041 12/06 A3020 RMK AO2 PK WND 15026/0044 SLP228 T01220056 $,KBGM,2024-05-05T00:53:00Z,42.2068,-75.9799,12.2,5.6,160,12,26,10+,30.20,1022.8,,TRUE,TRUE,TRUE,,,,,,BKN,3400,OVC,4100,,,,,VFR,,,,,,,,,,,,METAR,485
KBFM 050053Z AUTO 00000KT 10SM BKN021 26/21 A3000 RMK AO2 SLP158 T02560211,KBFM,2024-05-05T00:53:00Z,30.6147,-88.063,25.6,21.1,0,0,,10+,30.00,1015.8,,TRUE,TRUE,,,,,,,BKN,2100,,,,,,,MVFR,,,,,,,,,,,,METAR,7
KBFI 050053Z 00000KT 10SM -RA BKN050 OVC070 13/11 A2956 RMK AO2 SLP010 P0000 T01330106,KBFI,2024-05-05T00:53:00Z,47.5455,-122.315,13.3,10.6,0,0,,10+,29.56,1001,,,TRUE,,,,,,-RA,BKN,5000,OVC,7000,,,,,VFR,,,,,,0.005,,,,,,METAR,7
KBFF 050053Z AUTO 16012KT 10SM CLR 17/00 A2994 RMK AO2 SLP132 T01720000,KBFF,2024-05-05T00:53:00Z,41.8747,-103.601,17.2,0,160,12,,10+,29.94,1013.2,,TRUE,TRUE,,,,,,,CLR,,,,,,,,VFR,,,,,,,,,,,,METAR,1204
KBFD 050053Z AUTO 14009KT 10SM -RA OVC008 10/08 A3011 RMK AO2 SLP193 P0001 T01000083,KBFD,2024-05-05T00:53:00Z,41.7984,-78.6354,10,8.3,140,9,,10+,30.11,1019.3,,TRUE,TRUE,,,,,,-RA,OVC,800,,,,,,,IFR,,,,,,0.01,,,,,,METAR,642
KBEH 050053Z AUTO 12003KT 10SM CLR 24/14 A2983 RMK AO2 SLP099 T02390144,KBEH,2024-05-05T00:53:00Z,42.129,-86.4152,23.9,14.4,120,3,,10+,29.83,1009.9,,TRUE,TRUE,,,,,,,CLR,,,,,,,,VFR,,,,,,,,,,,,METAR,196
KBDE 050053Z AUTO 31004KT 10SM BKN060 11/04 A2998 RMK AO2 SLP158 T01110039,KBDE,2024-05-05T00:53:00Z,48.7261,-94.6122,11.1,3.9,310,4,,10+,29.98,1015.8,,TRUE,TRUE,,,,,,,BKN,6000,,,,,,,VFR,,,,,,,,,,,,METAR,330
KBCT 050053Z 12008G14KT 10SM FEW026 26/20 A3002,KBCT,2024-05-05T00:53:00Z,26.379,-80.106,26,20,120,8,14,10+,30.02,,,,,,,,,,,FEW,2600,,,,,,,VFR,,,,,,,,,,,,METAR,3
KBCE 050053Z AUTO 18012G23KT 10SM BKN095 15/M04 A2987 RMK AO2 PK WND 19029/0039 SLP047 T01501039,KBCE,2024-05-05T00:53:00Z,37.7013,-112.149,15,-3.9,180,12,23,10+,29.87,1004.7,,TRUE,TRUE,,,,,,,BKN,9500,,,,,,,VFR,,,,,,,,,,,,METAR,2311
KBBW 050053Z AUTO 10006KT 10SM CLR 14/04 A3004 RMK AO2 SLP175 T01440039,KBBW,2024-05-05T00:53:00Z,41.4365,-99.6385,14.4,3.9,100,6,,10+,30.04,1017.5,,TRUE,TRUE,,,,,,,CLR,,,,,,,,VFR,,,,,,,,,,,,METAR,771
KBAF 050053Z 16008KT 10SM OVC036 14/08 A3031 RMK AO2 SLP266 T01440078,KBAF,2024-05-05T00:53:00Z,42.16,-72.7124,14.4,7.8,160,8,,10+,30.31,1026.6,,,TRUE,,,,,,,OVC,3600,,,,,,,VFR,,,,,,,,,,,,METAR,80
KAZO 050053Z 13004KT 10SM CLR 22/16 A2987 RMK AO2 SLP110 T02220161,KAZO,2024-05-05T00:53:00Z,42.2283,-85.546,22.2,16.1,130,4,,10+,29.87,1011,,,TRUE,,,,,,,CLR,,,,,,,,VFR,,,,,,,,,,,,METAR,264
KAXN 050053Z AUTO 29009KT 10SM CLR 14/01 A3000 RMK AO2 SLP166 T01390006,KAXN,2024-05-05T00:53:00Z,45.868,-95.394,13.9,0.6,290,9,,10+,30.00,1016.6,,TRUE,TRUE,,,,,,,CLR,,,,,,,,VFR,,,,,,,,,,,,METAR,433
KAUS 050053Z 11005KT 10SM BKN085 24/23 A2980 RMK AO2 SLP084 T02440228,KAUS,2024-05-05T00:53:00Z,30.2099,-97.6806,24.4,22.8,110,5,,10+,29.80,1008.4,,,TRUE,,,,,,,BKN,8500,,,,,,,VFR,,,,,,,,,,,,METAR,148
KAUG 050053Z AUTO 20004KT 10SM OVC041 10/06 A3039 RMK AO2 SLP294 T01000056,KAUG,2024-05-05T00:53:00Z,44.3161,-69.797,10,5.6,200,4,,10+,30.39,1029.4,,TRUE,TRUE,,,,,,,OVC,4100,,,,,,,VFR,,,,,,,,,,,,METAR,107
KATY 050053Z AUTO 27004KT 10SM CLR 14/01 A3002 RMK AO2 SLP171 T01390011,KATY,2024-05-05T00:53:00Z,44.9045,-97.1496,13.9,1.1,270,4,,10+,30.02,1017.1,,TRUE,TRUE,,,,,,,CLR,,,,,,,,VFR,,,,,,,,,,,,METAR,531
KASX 050053Z AUTO 00000KT 10SM CLR 11/06 A2996 RMK AO2 SLP151 T01110056,KASX,2024-05-05T00:53:00Z,46.5468,-90.9184,11.1,5.6,0,0,,10+,29.96,1015.1,,TRUE,TRUE,,,,,,,CLR,,,,,,,,VFR,,,,,,,,,,,,METAR,249
KASE 050053Z 18017G26KT 10SM BKN100 13/M03 A2997 RMK AO2 PK WND 18026/0050 SLP085 T01331028,KASE,2024-05-05T00:53:00Z,39.2299,-106.871,13.3,-2.8,180,17,26,10+,29.97,1008.5,,,TRUE,,,,,,,BKN,10000,,,,,,,VFR,,,,,,,,,,,,METAR,2384
KASD 050053Z AUTO 14004KT 10SM CLR 26/22 A2997 RMK AO2 SLP147 T02610222,KASD,2024-05-05T00:53:00Z,30.3436,-89.8224,26.1,22.2,140,4,,10+,29.97,1014.7,,TRUE,TRUE,,,,,,,CLR,,,,,,,,VFR,,,,,,,,,,,,METAR,8
KARB 050053Z 14006KT 8SM FEW035 BKN060 18/17 A2990 RMK AO2 SLP124 T01830167,KARB,2024-05-05T00:53:00Z,42.2239,-83.7398,18.3,16.7,140,6,,8,29.90,1012.4,,,TRUE,,,,,,,FEW,3500,BKN,6000,,,,,VFR,,,,,,,,,,,,METAR,251
KARA 050053Z 17008KT 8SM CLR 25/22 A2995 RMK AO2 SLP140 T02500217,KARA,2024-05-05T00:53:00Z,30.0292,-91.8845,25,21.7,170,8,,8,29.95,1014,,,TRUE,,,,,,,CLR,,,,,,,,VFR,,,,,,,,,,,,METAR,5
KAQP 050053Z AUTO 35003KT 10SM CLR 16/04 A3001 RMK AO2 TSNO,KAQP,2024-05-05T00:53:00Z,45.2249,-96.0041,16,4,350,3,,10+,30.01,,,TRUE,TRUE,,,TRUE,,,,CLR,,,,,,,,VFR,,,,,,,,,,,,METAR,312
KAPF 050053Z 31003KT 10SM FEW050 OVC080 26/22 A2999 RMK AO2 SLP155 T02610217,KAPF,2024-05-05T00:53:00Z,26.155,-81.7751,26.1,21.7,310,3,,10+,29.99,1015.5,,,TRUE,,,,,,,FEW,5000,OVC,8000,,,,,VFR,,,,,,,,,,,,METAR,2
KAPA 050053Z 19011KT 10SM FEW075 SCT095 BKN130 BKN220 14/M01 A2994 RMK AO2 SLP117 VIRGA S-W T01441011,KAPA,2024-05-05T00:53:00Z,39.5599,-104.848,14.4,-1.1,190,11,,10+,29.94,1011.7,,,TRUE,,,,,,,FEW,7500,SCT,9500,BKN,13000,BKN,22000,VFR,,,,,,,,,,,,METAR,1791
KAOO 050053Z AUTO 13007KT 6SM -RA BR OVC009 10/08 A3017 RMK AO2 RAE05B42 CIG 007V012 SLP220 P0001 T01000083,KAOO,2024-05-05T00:53:00Z,40.2999,-78.3168,10,8.3,130,7,,6,30.17,1022,,TRUE,TRUE,,,,,,-RA BR,OVC,900,,,,,,,IFR,,,,,,0.01,,,,,,METAR,450
KAOH 050053Z AUTO 13006KT 10SM CLR 21/18 A2989 RMK AO2 SLP118 T02060178,KAOH,2024-05-05T00:53:00Z,40.7081,-84.0214,20.6,17.8,130,6,,10+,29.89,1011.8,,TRUE,TRUE,,,,,,,CLR,,,,,,,,VFR,,,,,,,,,,,,METAR,294
KANB 050053Z AUTO 00000KT 10SM FEW046 BKN120 23/20 A2998 RMK AO2 RAE2355 SLP146 P0000 T02330200,KANB,2024-05-05T00:53:00Z,33.5904,-85.8479,23.3,20,0,0,,10+,29.98,1014.6,,TRUE,TRUE,,,,,,,FEW,4600,BKN,12000,,,,,VFR,,,,,,0.005,,,,,,METAR,187
KAMW 050053Z AUTO 35005KT 10SM CLR 13/07 A3004 RMK AO2 SLP168 T01280072,KAMW,2024-05-05T00:53:00Z,41.9905,-93.6185,12.8,7.2,350,5,,10+,30.04,1016.8,,TRUE,TRUE,,,,,,,CLR,,,,,,,,VFR,,,,,,,,,,,,METAR,282
KAMG 050053Z AUTO 00000KT 10SM FEW120 22/18 A3003 RMK AO2 SLP166 T02220178,KAMG,2024-05-05T00:53:00Z,31.5401,-82.5074,22.2,17.8,0,0,,10+,30.03,1016.6,,TRUE,TRUE,,,,,,,FEW,12000,,,,,,,VFR,,,,,,,,,,,,METAR,61
KAMA 050053Z 09007KT 10SM OVC018 14/09 A3000 RMK AO2 SLP136 T01440094,KAMA,2024-05-05T00:53:00Z,35.2203,-101.717,14.4,9.4,90,7,,10+,30.00,1013.6,,,TRUE,,,,,,,OVC,1800,,,,,,,MVFR,,,,,,,,,,,,METAR,1102
KALW 050053Z 17006KT 10SM CLR 18/08 A2944 RMK AO2 SLP965 T01780083,KALW,2024-05-05T00:53:00Z,46.0946,-118.286,17.8,8.3,170,6,,10+,29.44,996.5,,,TRUE,,,,,,,CLR,,,,,,,,VFR,,,,,,,,,,,,METAR,355
KALI 050053Z AUTO 13011KT BKN075 27/22 A2977 RMK AO2 SLP077 T02670222 $,KALI,2024-05-05T00:53:00Z,27.7413,-98.0251,26.7,22.2,130,11,,,29.77,1007.7,,TRUE,TRUE,TRUE,,,,,,BKN,7500,,,,,,,,,,,,,,,,,,,METAR,52
KAKO 050053Z AUTO 14012G22KT 10SM CLR 14/M01 A2999 RMK AO2 SLP145 T01391006,KAKO,2024-05-05T00:53:00Z,40.1743,-103.215,13.9,-0.6,140,12,22,10+,29.99,1014.5,,TRUE,TRUE,,,,,,,CLR,,,,,,,,VFR,,,,,,,,,,,,METAR,1431
KAIA 050053Z AUTO 16014G20KT 10SM CLR 14/01 A2997 RMK AO2 SLP148 T01440006 $,KAIA,2024-05-05T00:53:00Z,42.0573,-102.802,14.4,0.6,160,14,20,10+,29.97,1014.8,,TRUE,TRUE,TRUE,,,,,,CLR,,,,,,,,VFR,,,,,,,,,,,,METAR,1198
KAGS 050053Z 21011G21KT 4SM +RA BR FEW030 BKN036 OVC050 19/18 A3003 RMK AO2 PK WND 23027/0029 RAB33 SLP168 P0019 T01940183 $,KAGS,2024-05-05T00:53:00Z,33.3652,-81.9635,19.4,18.3,210,11,21,4,30.03,1016.8,,,TRUE,TRUE,,,,,+RA BR,FEW,3000,BKN,3600,OVC,5000,,,MVFR,,,,,,0.19,,,,,,METAR,40
KAGC 050053Z 11008KT 6SM -RA BR FEW020 SCT047 OVC090 13/12 A3003 RMK AO2 RAB30 SLP170 P0002 T01330117,KAGC,2024-05-05T00:53:00Z,40.3551,-79.9215,13.3,11.7,110,8,,6,30.03,1017,,,TRUE,,,,,,-RA BR,FEW,2000,SCT,4700,OVC,9000,,,VFR,,,,,,0.02,,,,,,METAR,380
KAFW 050053Z 09003KT 10SM FEW030 BKN060 OVC250 24/21 A2988 RMK AO2 SLP108 T02390206 $,KAFW,2024-05-05T00:53:00Z,32.99,-97.32,23.9,20.6,90,3,,10+,29.88,1010.8,,,TRUE,TRUE,,,,,,FEW,3000,BKN,6000,OVC,25000,,,VFR,,,,,,,,,,,,METAR,208
KAEX 050053Z 21005KT 10SM CLR 26/22 A2992 RMK AO2 SLP135 T02560217,KAEX,2024-05-05T00:53:00Z,31.3346,-92.5585,25.6,21.7,210,5,,10+,29.92,1013.5,,,TRUE,,,,,,,CLR,,,,,,,,VFR,,,,,,,,,,,,METAR,25
KADG 050053Z AUTO 12006KT 9SM BKN090 19/17 A2992 RMK AO2 SLP130 T01940167,KADG,2024-05-05T00:53:00Z,41.8678,-84.0794,19.4,16.7,120,6,,9,29.92,1013,,TRUE,TRUE,,,,,,,BKN,9000,,,,,,,VFR,,,,,,,,,,,,METAR,244
KACV 050053Z AUTO 35006KT 4SM R32/5500VP6000FT RA BR FEW020 OVC034 07/05 A2982 RMK AO2 RAB43 SLP104 P0003 T00720050 $,KACV,2024-05-05T00:53:00Z,40.9784,-124.105,7.2,5,350,6,,4,29.82,1010.4,,TRUE,TRUE,TRUE,,,,,RA BR,FEW,2000,OVC,3400,,,,,MVFR,,,,,,0.03,,,,,,METAR,63
KACK 050053Z AUTO 06008KT 10SM OVC008 08/07 A3036 RMK AO2 CIG 006V010 SLP281 T00830067,KACK,2024-05-05T00:53:00Z,41.2541,-70.0589,8.3,6.7,60,8,,10+,30.36,1028.1,,TRUE,TRUE,,,,,,,OVC,800,,,,,,,IFR,,,,,,,,,,,,METAR,12
KABY 050053Z AUTO 13005KT 10SM -RA FEW026 SCT060 BKN100 22/19 A3004 RMK AO2 LTG DSNT S RAB05 SLP172 P0002 T02170194,KABY,2024-05-05T00:53:00Z,31.5364,-84.1958,21.7,19.4,130,5,,10+,30.04,1017.2,,TRUE,TRUE,,,,,,-RA,FEW,2600,SCT,6000,BKN,10000,,,VFR,,,,,,0.02,,,,,,METAR,60
KABR 050053Z AUTO 23004KT 10SM CLR 16/02 A3000 RMK AO2 SLP165 T01610017,KABR,2024-05-05T00:53:00Z,45.4436,-98.4138,16.1,1.7,230,4,,10+,30.00,1016.5,,TRUE,TRUE,,,,,,,CLR,,,,,,,,VFR,,,,,,,,,,,,METAR,397
KAAF 050053Z AUTO 21004KT 10SM SCT017 25/22 A3000 RMK AO2 SLP160 T02500217,KAAF,2024-05-05T00:53:00Z,29.7268,-85.0248,25,21.7,210,4,,10+,30.00,1016,,TRUE,TRUE,,,,,,,SCT,1700,,,,,,,VFR,,,,,,,,,,,,METAR,5
PTYA 050052Z 06012G18KT 12SM FEW017 BKN300 32/23 A2981 RMK SLP095 T03160229,PTYA,2024-05-05T00:52:00Z,9.487,138.077,31.6,22.9,60,12,18,12,29.81,1009.5,,,,,,,,,,FEW,1700,BKN,30000,,,,,VFR,,,,,,,,,,,,METAR,4
PTPN 050052Z 07015KT 15SM BKN017TCU OVC130 31/27 A2975 RMK TCU SE-SW,PTPN,2024-05-05T00:52:00Z,6.986,158.21,31,27,70,15,,15,29.75,,,,,,,,,,,BKN,1700,OVC,13000,,,,,MVFR,,,,,,,,,,,,METAR,3
PATA 050052Z 12009KT 10SM BKN080 BKN120 09/M02 A2932 RMK AO2 SLP933 T00941022 $,PATA,2024-05-05T00:52:00Z,65.173,-152.107,9.4,-2.2,120,9,,10+,29.32,993.3,,,TRUE,TRUE,,,,,,BKN,8000,BKN,12000,,,,,VFR,,,,,,,,,,,,METAR,62
PAKU 050052Z 06020KT 1 1/2SM R06/P6000FT DRSN BR BKN013 BKN070 M14/M16 A3002,PAKU,2024-05-05T00:52:00Z,70.331,-149.613,-14,-16,60,20,,1.5,30.02,,,,,,,,,,DRSN BR,BKN,1300,BKN,7000,,,,,IFR,,,,,,,,,,,,METAR,23
PABA 050052Z 05015KT 3SM -SN BR BKN013 BKN019 OVC025 M13/M16 A2998 RMK AO2 SLP161 P0000 T11331156 FZRANO,PABA,2024-05-05T00:52:00Z,70.135,-143.585,-13.3,-15.6,50,15,,3,29.98,1016.1,,,TRUE,,,,TRUE,,-SN BR,BKN,1300,BKN,1900,OVC,2500,,,MVFR,,,,,,0.005,,,,,,METAR,1
KVTN 050052Z AUTO 00000KT 10SM CLR 16/M04 A3002 RMK AO2 SLP171 T01611044,KVTN,2024-05-05T00:52:00Z,42.8585,-100.551,16.1,-4.4,0,0,,10+,30.02,1017.1,,TRUE,TRUE,,,,,,,CLR,,,,,,,,VFR,,,,,,,,,,,,METAR,790
KUGN 050052Z COR 13005KT 10SM -RA FEW070 BKN090 OVC110 17/16 A2984 RMK AO2 LTG DSNT NE-SE P0000 T01720161 LAST,KUGN,2024-05-05T00:52:00Z,42.4255,-87.8634,17.2,16.1,130,5,,10+,29.84,,TRUE,,TRUE,,,,,,-RA,FEW,7000,BKN,9000,OVC,11000,,,VFR,,,,,,0.005,,,,,,SPECI,217
KTRM 050052Z AUTO 34020G25KT 10SM CLR 26/08 A2965 RMK AO2 PK WND 35027/0008 SLP040 T02610083,KTRM,2024-05-05T00:52:00Z,33.6317,-116.164,26.1,8.3,340,20,25,10+,29.65,1004,,TRUE,TRUE,,,,,,,CLR,,,,,,,,VFR,,,,,,,,,,,,METAR,-39
KTOL 050052Z 07004KT 3SM BR FEW075 BKN090 18/17 A2990 RMK AO2 LTG DSNT E-S RAE22 TSE2357 SLP123 P0003 T01830172,KTOL,2024-05-05T00:52:00Z,41.5871,-83.8054,18.3,17.2,70,4,,3,29.90,1012.3,,,TRUE,,,,,,BR,FEW,7500,BKN,9000,,,,,MVFR,,,,,,0.03,,,,,,METAR,206
KTOA 050052Z 25012KT 10SM BKN016 BKN040 15/12 A2991,KTOA,2024-05-05T00:52:00Z,33.803,-118.336,15,12,250,12,,10+,29.91,,,,,,,,,,,BKN,1600,BKN,4000,,,,,MVFR,,,,,,,,,,,,METAR,30
KTAN 050052Z AUTO 00000KT 10SM FEW013 BKN037 09/05 A3037 RMK AO2 SLP283 T00940050,KTAN,2024-05-05T00:52:00Z,41.8756,-71.0208,9.4,5,0,0,,10+,30.37,1028.3,,TRUE,TRUE,,,,,,,FEW,1300,BKN,3700,,,,,VFR,,,,,,,,,,,,METAR,8
KSUX 050052Z 32004KT 10SM CLR 14/08 A3006 RMK AO2 SLP180 T01390078 $,KSUX,2024-05-05T00:52:00Z,42.3917,-96.3795,13.9,7.8,320,4,,10+,30.06,1018,,,TRUE,TRUE,,,,,,CLR,,,,,,,,VFR,,,,,,,,,,,,METAR,332
KSPS 050052Z AUTO 03009KT 10SM VCTS -RA BKN020 OVC026 19/18 A2991 RMK AO2 LTG DSNT NE AND W RAB14 SLP119 P0007 T01940178,KSPS,2024-05-05T00:52:00Z,33.9785,-98.493,19.4,17.8,30,9,,10+,29.91,1011.9,,TRUE,TRUE,,,,,,VCTS -RA,BKN,2000,OVC,2600,,,,,MVFR,,,,,,0.07,,,,,,METAR,310
KSPI 050052Z 18003KT 10SM OVC030 19/17 A2992 RMK AO2 SLP129 T01890172 $,KSPI,2024-05-05T00:52:00Z,39.8453,-89.684,18.9,17.2,180,3,,10+,29.92,1012.9,,,TRUE,TRUE,,,,,,OVC,3000,,,,,,,MVFR,,,,,,,,,,,,METAR,179
KSGF 050052Z 33009KT 10SM CLR 20/16 A2998 RMK AO2 SLP144 T02000161,KSGF,2024-05-05T00:52:00Z,37.2398,-93.39,20,16.1,330,9,,10+,29.98,1014.4,,,TRUE,,,,,,,CLR,,,,,,,,VFR,,,,,,,,,,,,METAR,387
KREO 050052Z AUTO 25013KT 07/05 A2950 RMK AO1 PK WND 26032/0013 SLP987 P0002 T00720050,KREO,2024-05-05T00:52:00Z,42.5902,-117.865,7.2,5,250,13,,,29.50,998.7,,TRUE,TRUE,,,,,,,,,,,,,,,,,,,,,0.02,,,,,,METAR,1237
KRAP 050052Z 15012KT 10SM CLR 15/02 A2993 RMK AO2 SLP138 T01500022 $,KRAP,2024-05-05T00:52:00Z,44.0458,-103.054,15,2.2,150,12,,10+,29.93,1013.8,,,TRUE,TRUE,,,,,,CLR,,,,,,,,VFR,,,,,,,,,,,,METAR,965
KPYM 050052Z AUTO 06007KT 10SM FEW009 OVC033 08/06 A3036 RMK AO2 SLP285 T00830061 $,KPYM,2024-05-05T00:52:00Z,41.9085,-70.7278,8.3,6.1,60,7,,10+,30.36,1028.5,,TRUE,TRUE,TRUE,,,,,,FEW,900,OVC,3300,,,,,VFR,,,,,,,,,,,,METAR,42
KPWK 050052Z 18004KT 10SM SCT049 BKN065 OVC090 18/16 A2987 RMK AO2 LTG DSNT E AND SE RAE10 TSE19 SLP114 P0005 T01780161 $,KPWK,2024-05-05T00:52:00Z,42.1208,-87.9048,17.8,16.1,180,4,,10+,29.87,1011.4,,,TRUE,TRUE,,,,,,SCT,4900,BKN,6500,OVC,9000,,,VFR,,,,,,0.05,,,,,,METAR,194
KPPF 050052Z AUTO 02006KT 10SM SCT060 19/12 A3001 RMK AO2 SLP155 T01890122,KPPF,2024-05-05T00:52:00Z,37.3281,-95.5044,18.9,12.2,20,6,,10+,30.01,1015.5,,TRUE,TRUE,,,,,,,SCT,6000,,,,,,,VFR,,,,,,,,,,,,METAR,265
KP69 050052Z AUTO 01003KT 15/09 A2946 RMK AO1 SLP978 T01500094 $,KP69,2024-05-05T00:52:00Z,46.144,-115.597,15,9.4,10,3,,,29.46,997.8,,TRUE,TRUE,TRUE,,,,,,,,,,,,,,,,,,,,,,,,,,METAR,447
KORE 050052Z AUTO 14005KT 10SM CLR 12/06 A3034 RMK AO2 SLP277 T01170061,KORE,2024-05-05T00:52:00Z,42.57,-72.287,11.7,6.1,140,5,,10+,30.34,1027.7,,TRUE,TRUE,,,,,,,CLR,,,,,,,,VFR,,,,,,,,,,,,METAR,165
KOMA 050052Z 00000KT 10SM SCT060 16/07 A3006 RMK AO2 SLP180 T01560067,KOMA,2024-05-05T00:52:00Z,41.3119,-95.9018,15.6,6.7,0,0,,10+,30.06,1018,,,TRUE,,,,,,,SCT,6000,,,,,,,VFR,,,,,,,,,,,,METAR,299
KOKC 050052Z 03016KT 10SM BKN022 BKN120 BKN250 18/13 A2995 RMK AO2 SLP132 BKN022 V SCT T01780128,KOKC,2024-05-05T00:52:00Z,35.3843,-97.6003,17.8,12.8,30,16,,10+,29.95,1013.2,,,TRUE,,,,,,,BKN,2200,BKN,12000,BKN,25000,,,MVFR,,,,,,,,,,,,METAR,391
KOKB 050052Z AUTO 27007KT 4SM HZ BKN017 BKN024 OVC034 17/13 A2990 RMK AO2 SLP124 T01670128,KOKB,2024-05-05T00:52:00Z,33.2195,-117.35,16.7,12.8,270,7,,4,29.90,1012.4,,TRUE,TRUE,,,,,,HZ,BKN,1700,BKN,2400,OVC,3400,,,MVFR,,,,,,,,,,,,METAR,7
KNZY 050052Z 28010KT 10SM BKN020 BKN032 17/14 A2991 RMK AO2 SLP129 T01720139,KNZY,2024-05-05T00:52:00Z,32.6922,-117.21,17.2,13.9,280,10,,10+,29.91,1012.9,,,TRUE,,,,,,,BKN,2000,BKN,3200,,,,,MVFR,,,,,,,,,,,,METAR,4
KNRB 050052Z AUTO 14008KT 10SM CLR 26/19 A3004 RMK AO2 SLP170 T02560194,KNRB,2024-05-05T00:52:00Z,30.396,-81.423,25.6,19.4,140,8,,10+,30.04,1017,,TRUE,TRUE,,,,,,,CLR,,,,,,,,VFR,,,,,,,,,,,,METAR,4
KNHK 050052Z AUTO 09012KT 10SM OVC014 15/11 A3021 RMK AO2 SLP230 T01500111 $,KNHK,2024-05-05T00:52:00Z,38.284,-76.408,15,11.1,90,12,,10+,30.21,1023,,TRUE,TRUE,TRUE,,,,,,OVC,1400,,,,,,,MVFR,,,,,,,,,,,,METAR,5
KNFW 050052Z AUTO 09003KT 10SM CLR 23/20 A2987 RMK AO2 SLP099 T02330200 $,KNFW,2024-05-05T00:52:00Z,32.781,-97.436,23.3,20,90,3,,10+,29.87,1009.9,,TRUE,TRUE,TRUE,,,,,,CLR,,,,,,,,VFR,,,,,,,,,,,,METAR,188
KMWH 050052Z 33015G23KT 10SM FEW065 BKN090 16/08 A2948 RMK AO2 PK WND 33026/0034 SLP982 T01560083 $,KMWH,2024-05-05T00:52:00Z,47.193,-119.315,15.6,8.3,330,15,23,10+,29.48,998.2,,,TRUE,TRUE,,,,,,FEW,6500,BKN,9000,,,,,VFR,,,,,,,,,,,,METAR,355
KMLI 050052Z 31013G23KT 10SM OVC039 17/11 A2994 RMK AO2 SLP139 T01670106,KMLI,2024-05-05T00:52:00Z,41.4482,-90.5237,16.7,10.6,310,13,23,10+,29.94,1013.9,,,TRUE,,,,,,,OVC,3900,,,,,,,VFR,,,,,,,,,,,,METAR,174
KMKE 050052Z 24003KT 3SM -RA BR FEW022 BKN045 OVC070 17/17 A2983 RMK AO2 LTG DSNT SE TSE06B29E52 SLP100 P0037 T01720167,KMKE,2024-05-05T00:52:00Z,42.9549,-87.9045,17.2,16.7,240,3,,3,29.83,1010,,,TRUE,,,,,,-RA BR,FEW,2200,BKN,4500,OVC,7000,,,MVFR,,,,,,0.37,,,,,,METAR,203
KMHK 050052Z 04006KT 10SM CLR 16/09 A3005 RMK AO2 SLP175 T01560089,KMHK,2024-05-05T00:52:00Z,39.1346,-96.6789,15.6,8.9,40,6,,10+,30.05,1017.5,,,TRUE,,,,,,,CLR,,,,,,,,VFR,,,,,,,,,,,,METAR,320
KMEB 050052Z AUTO 10004KT 8SM BKN120 20/20 A3009 RMK AO2 SLP186 T02000200,KMEB,2024-05-05T00:52:00Z,34.7913,-79.3683,20,20,100,4,,8,30.09,1018.6,,TRUE,TRUE,,,,,,,BKN,12000,,,,,,,VFR,,,,,,,,,,,,METAR,65
KMDH 050052Z 24006KT 10SM VCTS SCT095 25/18 A2993 RMK AO2 LTG DSNT ALQDS SLP131 T02500178,KMDH,2024-05-05T00:52:00Z,37.7833,-89.2453,25,17.8,240,6,,10+,29.93,1013.1,,,TRUE,,,,,,VCTS,SCT,9500,,,,,,,VFR,,,,,,,,,,,,METAR,122
KMBG 050052Z AUTO 16006KT 10SM CLR 15/02 A2997 RMK AO2 SLP154 T01500017,KMBG,2024-05-05T00:52:00Z,45.543,-100.404,15,1.7,160,6,,10+,29.97,1015.4,,TRUE,TRUE,,,,,,,CLR,,,,,,,,VFR,,,,,,,,,,,,METAR,515
KLWC 050052Z AUTO 04004KT 10SM CLR 15/09 A3006 RMK AO1 SLP176 T01500089,KLWC,2024-05-05T00:52:00Z,39.0078,-95.2115,15,8.9,40,4,,10+,30.06,1017.6,,TRUE,TRUE,,,,,,,CLR,,,,,,,,VFR,,,,,,,,,,,,METAR,252
KIOW 050052Z AUTO 32012KT 10SM OVC037 15/09 A3000 RMK AO2 PK WND 30028/0009 SLP158 T01500089,KIOW,2024-05-05T00:52:00Z,41.6394,-91.5445,15,8.9,320,12,,10+,30.00,1015.8,,TRUE,TRUE,,,,,,,OVC,3700,,,,,,,VFR,,,,,,,,,,,,METAR,199
KIJD 050052Z AUTO 21006KT 10SM OVC033 11/07 A3034 RMK AO2 SLP275 T01060067,KIJD,2024-05-05T00:52:00Z,41.7425,-72.1825,10.6,6.7,210,6,,10+,30.34,1027.5,,TRUE,TRUE,,,,,,,OVC,3300,,,,,,,VFR,,,,,,,,,,,,METAR,73
KIEN 050052Z AUTO 17008KT 10SM CLR 16/00 A2995 RMK AO2 SLP149 T01560000 $,KIEN,2024-05-05T00:52:00Z,43.0261,-102.52,15.6,0,170,8,,10+,29.95,1014.9,,TRUE,TRUE,TRUE,,,,,,CLR,,,,,,,,VFR,,,,,,,,,,,,METAR,1002
KIAD 050052Z 11006KT 3SM BR BKN008 OVC015 12/10 A3021 RMK AO2 SLP231 T01170100,KIAD,2024-05-05T00:52:00Z,38.9348,-77.4473,11.7,10,110,6,,3,30.21,1023.1,,,TRUE,,,,,,BR,BKN,800,OVC,1500,,,,,IFR,,,,,,,,,,,,METAR,90
KHUT 050052Z 06009KT 10SM CLR 16/09 A3003 RMK AO2 SLP159 T01610089,KHUT,2024-05-05T00:52:00Z,38.0682,-97.8607,16.1,8.9,60,9,,10+,30.03,1015.9,,,TRUE,,,,,,,CLR,,,,,,,,VFR,,,,,,,,,,,,METAR,464
KHRL 050052Z 13011KT 10SM BKN024 27/23 A2975 RMK AO2 SLP073 T02720233 $,KHRL,2024-05-05T00:52:00Z,26.2303,-97.6556,27.2,23.3,130,11,,10+,29.75,1007.3,,,TRUE,TRUE,,,,,,BKN,2400,,,,,,,MVFR,,,,,,,,,,,,METAR,9
KHIE 050052Z AUTO 17009G20KT 10SM CLR 12/06 A3030 RMK AO2 SLP265 T01170056,KHIE,2024-05-05T00:52:00Z,44.3659,-71.5522,11.7,5.6,170,9,20,10+,30.30,1026.5,,TRUE,TRUE,,,,,,,CLR,,,,,,,,VFR,,,,,,,,,,,,METAR,321
KGLS 050052Z AUTO 09012KT 10SM SCT010 OVC031 25/24 A2990 RMK AO2 SLP125 T02500239,KGLS,2024-05-05T00:52:00Z,29.2704,-94.8642,25,23.9,90,12,,10+,29.90,1012.5,,TRUE,TRUE,,,,,,,SCT,1000,OVC,3100,,,,,VFR,,,,,,,,,,,,METAR,2
KFIT 050052Z AUTO 12004KT 10SM CLR 10/05 A3037 RMK AO2 SLP286 T01000050,KFIT,2024-05-05T00:52:00Z,42.5549,-71.757,10,5,120,4,,10+,30.37,1028.6,,TRUE,TRUE,,,,,,,CLR,,,,,,,,VFR,,,,,,,,,,,,METAR,102
KEST 050052Z AUTO 10SM SCT065 13/07 A3003 RMK AO2 SLP172 T01330072,KEST,2024-05-05T00:52:00Z,43.4008,-94.7476,13.3,7.2,,,,10+,30.03,1017.2,,TRUE,TRUE,,,,,,,SCT,6500,,,,,,,VFR,,,,,,,,,,,,METAR,401
KDVN 050052Z AUTO 30018KT 10SM OVC035 16/09 A2997 RMK AO2 PK WND 30028/0001 SLP145 T01560094,KDVN,2024-05-05T00:52:00Z,41.6133,-90.5948,15.6,9.4,300,18,,10+,29.97,1014.5,,TRUE,TRUE,,,,,,,OVC,3500,,,,,,,VFR,,,,,,,,,,,,METAR,227
KDPA 050052Z 00000KT 10SM BKN047 OVC055 18/16 A2986 RMK AO2 SLP109 T01780156,KDPA,2024-05-05T00:52:00Z,41.8964,-88.2512,17.8,15.6,0,0,,10+,29.86,1010.9,,,TRUE,,,,,,,BKN,4700,OVC,5500,,,,,VFR,,,,,,,,,,,,METAR,228
KDDC 050052Z AUTO 09009KT 10SM CLR 16/06 A3002 RMK AO2 SLP156 T01610061,KDDC,2024-05-05T00:52:00Z,37.7711,-99.9692,16.1,6.1,90,9,,10+,30.02,1015.6,,TRUE,TRUE,,,,,,,CLR,,,,,,,,VFR,,,,,,,,,,,,METAR,786
KDCA 050052Z 08008KT 3SM -DZ BR BKN008 OVC013 12/11 A3022 RMK AO2 SLP234 P0000 T01220106,KDCA,2024-05-05T00:52:00Z,38.8472,-77.0345,12.2,10.6,80,8,,3,30.22,1023.4,,,TRUE,,,,,,-DZ BR,BKN,800,OVC,1300,,,,,IFR,,,,,,0.005,,,,,,METAR,4
KCVG 050052Z 18004KT 10SM BKN090 22/19 A2991 RMK AO2 LTG DSNT E-S SLP119 T02170194,KCVG,2024-05-05T00:52:00Z,39.0444,-84.6724,21.7,19.4,180,4,,10+,29.91,1011.9,,,TRUE,,,,,,,BKN,9000,,,,,,,VFR,,,,,,,,,,,,METAR,264
KCQX 050052Z AUTO 07007KT 10SM OVC007 08/07 A3038 RMK AO2 SLP289 T00830067 PWINO $,KCQX,2024-05-05T00:52:00Z,41.6878,-69.9932,8.3,6.7,70,7,,10+,30.38,1028.9,,TRUE,TRUE,TRUE,,,,TRUE,,OVC,700,,,,,,,IFR,,,,,,,,,,,,METAR,17
KCNU 050052Z AUTO 01007KT 10SM CLR 18/11 A3002 RMK AO2 SLP158 T01830111,KCNU,2024-05-05T00:52:00Z,37.6705,-95.4846,18.3,11.1,10,7,,10+,30.02,1015.8,,TRUE,TRUE,,,,,,,CLR,,,,,,,,VFR,,,,,,,,,,,,METAR,301
KCLT 050052Z 14004KT 10SM SCT009 BKN120 BKN250 20/18 A3007 RMK AO2 SLP191 T02000183 $,KCLT,2024-05-05T00:52:00Z,35.2225,-80.9543,20,18.3,140,4,,10+,30.07,1019.1,,,TRUE,TRUE,,,,,,SCT,900,BKN,12000,BKN,25000,,,VFR,,,,,,,,,,,,METAR,223
KCKV 050052Z AUTO 22006KT 10SM CLR 23/ A2992 RMK AO2 SLP128 T0228 $,KCKV,2024-05-05T00:52:00Z,36.6169,-87.4118,22.8,,220,6,,10+,29.92,1012.8,,TRUE,TRUE,TRUE,,,,,,CLR,,,,,,,,VFR,,,,,,,,,,,,METAR,166
KCID 050052Z 33014G22KT 10SM OVC034 13/09 A2999 RMK AO2 SLP154 T01330089 $,KCID,2024-05-05T00:52:00Z,41.8829,-91.7246,13.3,8.9,330,14,22,10+,29.99,1015.4,,,TRUE,TRUE,,,,,,OVC,3400,,,,,,,VFR,,,,,,,,,,,,METAR,257
KCFV 050052Z AUTO 03007KT 10SM -RA CLR 19/13 A2998 RMK AO2 SLP149 P0000 T01890128,KCFV,2024-05-05T00:52:00Z,37.0912,-95.5726,18.9,12.8,30,7,,10+,29.98,1014.9,,TRUE,TRUE,,,,,,-RA,CLR,,,,,,,,VFR,,,,,,0.005,,,,,,METAR,228
KBML 050052Z AUTO 13007KT 10SM BKN080 OVC100 11/06 A3032 RMK AO2 SLP273 T01110061,KBML,2024-05-05T00:52:00Z,44.576,-71.1782,11.1,6.1,130,7,,10+,30.32,1027.3,,TRUE,TRUE,,,,,,,BKN,8000,OVC,10000,,,,,VFR,,,,,,,,,,,,METAR,344
KBLU 050052Z AUTO 1/4SM -SN FZFG VV002 M02/M02 A2970 RMK AO2 LTG DSNT W FZRAB39E44SNE28B44 SLP054 P0002 I1001 T10171022,KBLU,2024-05-05T00:52:00Z,39.2762,-120.709,-1.7,-2.2,,,,0.25,29.70,1005.4,,TRUE,TRUE,,,,,,-SN FZFG,OVX,0,,,,,,,LIFR,,,,,,0.02,,,,,200,METAR,1605
KBLH 050052Z AUTO 22016G24KT 10SM CLR 34/03 A2964 RMK AO2 SLP030 T03390028,KBLH,2024-05-05T00:52:00Z,33.6188,-114.715,33.9,2.8,220,16,24,10+,29.64,1003,,TRUE,TRUE,,,,,,,CLR,,,,,,,,VFR,,,,,,,,,,,,METAR,119
KBIS 050052Z AUTO 05004KT 10SM CLR 13/02 A2998 RMK AO2 SLP162 T01330017,KBIS,2024-05-05T00:52:00Z,46.7823,-100.757,13.3,1.7,50,4,,10+,29.98,1016.2,,TRUE,TRUE,,,,,,,CLR,,,,,,,,VFR,,,,,,,,,,,,METAR,506
KBDR 050052Z 12010KT 10SM BKN070 11/07 A3034 RMK AO2 SLP273 T01060072,KBDR,2024-05-05T00:52:00Z,41.1642,-73.1266,10.6,7.2,120,10,,10+,30.34,1027.3,,,TRUE,,,,,,,BKN,7000,,,,,,,VFR,,,,,,,,,,,,METAR,5
KATL 050052Z COR 15005KT 10SM SCT042 SCT250 24/18 A3002 RMK AO2 SLP158 CB DSNT W-NW TCU DSNT SW MDT CU DSNT S T02390178 $,KATL,2024-05-05T00:52:00Z,33.6297,-84.4422,23.9,17.8,150,5,,10+,30.02,1015.8,TRUE,,TRUE,TRUE,,,,,,SCT,4200,SCT,25000,,,,,VFR,,,,,,,,,,,,METAR,309
KARR 050052Z 26005KT 9SM SCT045 BKN055 BKN070 18/16 A2986 RMK AO2 SLP110 T01830161,KARR,2024-05-05T00:52:00Z,41.7713,-88.4815,18.3,16.1,260,5,,9,29.86,1011,,,TRUE,,,,,,,SCT,4500,BKN,5500,BKN,7000,,,VFR,,,,,,,,,,,,METAR,213
KAQW 050052Z AUTO 10012G27KT 10SM CLR 16/07 A3027 RMK AO2 PK WND 10028/0042 SLP251 T01560072,KAQW,2024-05-05T00:52:00Z,42.6973,-73.1696,15.6,7.2,100,12,27,10+,30.27,1025.1,,TRUE,TRUE,,,,,,,CLR,,,,,,,,VFR,,,,,,,,,,,,METAR,196
KALS 050052Z AUTO 27013G31KT 10SM FEW060 BKN075 OVC090 13/M03 A3004 RMK AO2 PK WND 24036/0031 SLP131 T01331033,KALS,2024-05-05T00:52:00Z,37.4393,-105.862,13.3,-3.3,270,13,31,10+,30.04,1013.1,,TRUE,TRUE,,,,,,,FEW,6000,BKN,7500,OVC,9000,,,VFR,,,,,,,,,,,,METAR,2299
KAFN 050052Z AUTO 11004KT 10SM CLR 10/05 A3035 RMK AO2 SLP284 T01000050 $,KAFN,2024-05-05T00:52:00Z,42.8067,-72.0013,10,5,110,4,,10+,30.35,1028.4,,TRUE,TRUE,TRUE,,,,,,CLR,,,,,,,,VFR,,,,,,,,,,,,METAR,308
KABQ 050052Z 06012G22KT 10SM FEW070 BKN100 BKN150 22/M01 A2991 RMK AO2 SLP066 VIRGA SE-S SHRA DSNT NE T02171006,KABQ,2024-05-05T00:52:00Z,35.0419,-106.615,21.7,-0.6,60,12,22,10+,29.91,1006.6,,,TRUE,,,,,,,FEW,7000,BKN,10000,BKN,15000,,,VFR,,,,,,,,,,,,METAR,1620
PAMD 050051Z AUTO 21005KT 10SM OVC005 06/05 A2938 RMK AO2 RAE50 CIG 004V009 SLP936 P0000 T00560050,PAMD,2024-05-05T00:51:00Z,59.442,-146.317,5.6,5,210,5,,10+,29.38,993.6,,TRUE,TRUE,,,,,,,OVC,500,,,,,,,IFR,,,,,,0.005,,,,,,METAR,20
MUGM 050051Z 2805KT 10SM FEW025 SCT250 26/23 A2993 RMK AO2 SLP135 T02560233 $,MUGM,2024-05-05T00:51:00Z,19.909,-75.206,25.6,23.3,,,,10+,29.93,1013.5,,,TRUE,TRUE,,,,,,FEW,2500,SCT,25000,,,,,VFR,,,,,,,,,,,,METAR,21
KYNG 050051Z 12008KT 10SM OVC008 14/12 A3001 RMK AO2 RAE47 SLP160 P0000 T01390117,KYNG,2024-05-05T00:51:00Z,41.2548,-80.6736,13.9,11.7,120,8,,10+,30.01,1016,,,TRUE,,,,,,,OVC,800,,,,,,,IFR,,,,,,0.005,,,,,,METAR,356
KXWA 050051Z AUTO 08005KT 10SM CLR 12/00 A2995 RMK AO2 SLP159 T01220000,KXWA,2024-05-05T00:51:00Z,48.2542,-103.747,12.2,0,80,5,,10+,29.95,1015.9,,TRUE,TRUE,,,,,,,CLR,,,,,,,,VFR,,,,,,,,,,,,METAR,717
KVNY 050051Z 23005KT 10SM FEW031 BKN048 18/09 A2987 RMK AO2 SLP111 T01780094,KVNY,2024-05-05T00:51:00Z,34.2121,-118.491,17.8,9.4,230,5,,10+,29.87,1011.1,,,TRUE,,,,,,,FEW,3100,BKN,4800,,,,,VFR,,,,,,,,,,,,METAR,241
KVCT 050051Z 12014KT 8SM FEW040 26/22 A2983 RMK AO2 SLP098 T02610217,KVCT,2024-05-05T00:51:00Z,28.8624,-96.9301,26.1,21.7,120,14,,8,29.83,1009.8,,,TRUE,,,,,,,FEW,4000,,,,,,,VFR,,,,,,,,,,,,METAR,33
KTEB 050051Z 14007KT 10SM OVC065 12/06 A3031 RMK AO2 SLP265 T01220056,KTEB,2024-05-05T00:51:00Z,40.859,-74.0562,12.2,5.6,140,7,,10+,30.31,1026.5,,,TRUE,,,,,,,OVC,6500,,,,,,,VFR,,,,,,,,,,,,METAR,3
KSTL 050051Z 29007KT 10SM FEW040 SCT110 BKN250 22/18 A2993 RMK AO2 SLP128 CB DSNT N-S MOV E T02220178 $,KSTL,2024-05-05T00:51:00Z,38.7524,-90.3734,22.2,17.8,290,7,,10+,29.93,1012.8,,,TRUE,TRUE,,,,,,FEW,4000,SCT,11000,BKN,25000,,,VFR,,,,,,,,,,,,METAR,163
KSQL 050051Z 25010KT 10SM FEW024 SCT055 11/08 A2987,KSQL,2024-05-05T00:51:00Z,37.5119,-122.248,11,8,250,10,,10+,29.87,,,,,,,,,,,FEW,2400,SCT,5500,,,,,VFR,,,,,,,,,,,,SPECI,1
KSNT 050051Z AUTO VRB06KT 13/M03 A2957 RMK AO1 SLP952 T01331028,KSNT,2024-05-05T00:51:00Z,44.1708,-114.927,13.3,-2.8,VRB,6,,,29.57,995.2,,TRUE,TRUE,,,,,,,,,,,,,,,,,,,,,,,,,,,METAR,1980
KSMX 050051Z 16005KT 5SM BR BKN013 OVC019 13/12 A2988 RMK AO2 RAB24E35 SLP122 P0000 T01280122,KSMX,2024-05-05T00:51:00Z,34.894,-120.452,12.8,12.2,160,5,,5,29.88,1012.2,,,TRUE,,,,,,BR,BKN,1300,OVC,1900,,,,,MVFR,,,,,,0.005,,,,,,METAR,73
KSMO 050051Z 21009KT 10SM SCT025 16/13 A2991 RMK AO2 SLP127 T01610128,KSMO,2024-05-05T00:51:00Z,34.021,-118.447,16.1,12.8,210,9,,10+,29.91,1012.7,,,TRUE,,,,,,,SCT,2500,,,,,,,VFR,,,,,,,,,,,,METAR,56
KSLK 050051Z AUTO 17006KT 10SM OVC120 16/06 A3018 RMK AO2 SLP221 T01560061,KSLK,2024-05-05T00:51:00Z,44.3928,-74.2029,15.6,6.1,170,6,,10+,30.18,1022.1,,TRUE,TRUE,,,,,,,OVC,12000,,,,,,,VFR,,,,,,,,,,,,METAR,502
KSJT 050051Z 04012G19KT 10SM BKN013 OVC020 21/18 A2983 RMK AO2 WSHFT 0015 LTG DSNT W-NE SLP084 T02110178,KSJT,2024-05-05T00:51:00Z,31.3517,-100.495,21.1,17.8,40,12,19,10+,29.83,1008.4,,,TRUE,,,,,,,BKN,1300,OVC,2000,,,,,MVFR,,,,,,,,,,,,METAR,582
KSDB 050051Z AUTO 17013G23KT M1/4SM FG VV001 08/07 A2986 RMK AO2 SLP084 T00780072 $,KSDB,2024-05-05T00:51:00Z,34.7433,-118.725,7.8,7.2,170,13,23,0.25,29.86,1008.4,,TRUE,TRUE,TRUE,,,,,FG,OVX,0,,,,,,,LIFR,,,,,,,,,,,100,METAR,1377
KSAT 050051Z 11015KT 10SM FEW050 BKN075 OVC250 26/21 A2980 RMK AO2 SLP075 T02610206,KSAT,2024-05-05T00:51:00Z,29.5443,-98.4839,26.1,20.6,110,15,,10+,29.80,1007.5,,,TRUE,,,,,,,FEW,5000,BKN,7500,OVC,25000,,,VFR,,,,,,,,,,,,METAR,246
KSAN 050051Z 28010KT 10SM SCT017 OVC028 18/13 A2993 RMK AO2 SLP136 T01780128 $,KSAN,2024-05-05T00:51:00Z,32.7365,-117.197,17.8,12.8,280,10,,10+,29.93,1013.6,,,TRUE,TRUE,,,,,,SCT,1700,OVC,2800,,,,,MVFR,,,,,,,,,,,,METAR,3
KSAD 050051Z AUTO 25004KT 10SM CLR 30/M06 A2975 RMK AO2 SLP032 T03001061,KSAD,2024-05-05T00:51:00Z,32.8565,-109.636,30,-6.1,250,4,,10+,29.75,1003.2,,TRUE,TRUE,,,,,,,CLR,,,,,,,,VFR,,,,,,,,,,,,METAR,937
KROW 050051Z 10011G20KT 10SM CLR 22/12 A2991 RMK AO2 SLP075 T02170117,KROW,2024-05-05T00:51:00Z,33.3074,-104.508,21.7,11.7,100,11,20,10+,29.91,1007.5,,,TRUE,,,,,,,CLR,,,,,,,,VFR,,,,,,,,,,,,METAR,1105
KRDU 050051Z 03005KT 8SM SCT003 BKN005 OVC100 19/17 A3010 RMK AO2 RAB2354E44 SLP192 P0001 T01890172 VISNO RWY 23R $,KRDU,2024-05-05T00:51:00Z,35.8923,-78.782,18.9,17.2,30,5,,8,30.10,1019.2,,,TRUE,TRUE,,,,,,SCT,300,BKN,500,OVC,10000,,,IFR,,,,,,0.01,,,,,,METAR,121
KPWM 050051Z 15007KT 10SM FEW025 BKN042 BKN120 08/06 A3040 RMK AO2 SLP296 T00780061 $,KPWM,2024-05-05T00:51:00Z,43.6424,-70.3044,7.8,6.1,150,7,,10+,30.40,1029.6,,,TRUE,TRUE,,,,,,FEW,2500,BKN,4200,BKN,12000,,,VFR,,,,,,,,,,,,METAR,15
KPVD 050051Z 08007KT 10SM FEW035 FEW150 BKN250 09/07 A3037 RMK AO2 SLP283 T00890067,KPVD,2024-05-05T00:51:00Z,41.7225,-71.4325,8.9,6.7,80,7,,10+,30.37,1028.3,,,TRUE,,,,,,,FEW,3500,FEW,15000,BKN,25000,,,VFR,,,,,,,,,,,,METAR,15
KPIT 050051Z 11009KT 7SM -RA SCT008 OVC015 14/12 A3001 RMK AO2 RAB02 SLP168 SCT V BKN P0002 T01440122 $,KPIT,2024-05-05T00:51:00Z,40.4814,-80.2083,14.4,12.2,110,9,,7,30.01,1016.8,,,TRUE,TRUE,,,,,-RA,SCT,800,OVC,1500,,,,,MVFR,,,,,,0.02,,,,,,METAR,339
KPHX 050051Z 27004G16KT 10SM BKN250 34/M01 A2966 RMK AO2 SLP026 T03391011,KPHX,2024-05-05T00:51:00Z,33.4278,-112.004,33.9,-1.1,270,4,16,10+,29.66,1002.6,,,TRUE,,,,,,,BKN,25000,,,,,,,VFR,,,,,,,,,,,,METAR,338
KP59 050051Z AUTO 35013KT 07/04 A2987 RMK AO1 SLP120 T00670044,KP59,2024-05-05T00:51:00Z,47.467,-87.875,6.7,4.4,350,13,,,29.87,1012,,TRUE,TRUE,,,,,,,,,,,,,,,,,,,,,,,,,,,METAR,185
KOXC 050051Z 15007KT 10SM BKN011 OVC110 09/07 A3034 RMK AO2 SLP288 T00940072,KOXC,2024-05-05T00:51:00Z,41.4741,-73.1353,9.4,7.2,150,7,,10+,30.34,1028.8,,,TRUE,,,,,,,BKN,1100,OVC,11000,,,,,MVFR,,,,,,,,,,,,METAR,211
KORF 050051Z 09005KT 10SM FEW023 FEW065 16/14 A3015 RMK AO2 SLP210 T01610139 $,KORF,2024-05-05T00:51:00Z,36.9037,-76.1927,16.1,13.9,90,5,,10+,30.15,1021,,,TRUE,TRUE,,,,,,FEW,2300,FEW,6500,,,,,VFR,,,,,,,,,,,,METAR,5
KORD 050051Z 29005KT 10SM FEW046 BKN080 BKN100 OVC250 18/16 A2984 RMK AO2 LTG DSNT NE-SE RAE23 TSE11 SLP102 P0018 T01830161,KORD,2024-05-05T00:51:00Z,41.9602,-87.9316,18.3,16.1,290,5,,10+,29.84,1010.2,,,TRUE,,,,,,,FEW,4600,BKN,8000,BKN,10000,OVC,25000,VFR,,,,,,0.18,,,,,,METAR,202
KOCF 050051Z AUTO 07004KT 10SM BKN037 26/20 A3004 RMK AO2 SLP170 T02560200 $,KOCF,2024-05-05T00:51:00Z,29.1636,-82.221,25.6,20,70,4,,10+,30.04,1017,,TRUE,TRUE,TRUE,,,,,,BKN,3700,,,,,,,VFR,,,,,,,,,,,,METAR,24
KNYC 050051Z AUTO 14005KT 10SM BKN055 BKN070 OVC095 12/06 A3035 RMK AO2 SLP269 T01170056 $,KNYC,2024-05-05T00:51:00Z,40.779,-73.9692,11.7,5.6,140,5,,10+,30.35,1026.9,,TRUE,TRUE,TRUE,,,,,,BKN,5500,BKN,7000,OVC,9500,,,VFR,,,,,,,,,,,,METAR,33
KNBT 050051Z AUTO 14006KT 10SM FEW036 26/20 A3012 RMK AO2 SLP204 T02560200 $,KNBT,2024-05-05T00:51:00Z,35.022,-76.463,25.6,20,140,6,,10+,30.12,1020.4,,TRUE,TRUE,TRUE,,,,,,FEW,3600,,,,,,,VFR,,,,,,,,,,,,METAR,5
KMYL 050051Z AUTO 19020G27KT 10SM SCT055 OVC070 11/02 A2954 RMK AO2 PK WND 18027/0044 SLP997 T01110017,KMYL,2024-05-05T00:51:00Z,44.8943,-116.1,11.1,1.7,190,20,27,10+,29.54,999.7,,TRUE,TRUE,,,,,,,SCT,5500,OVC,7000,,,,,VFR,,,,,,,,,,,,METAR,1532
KMWN 050051Z 18008KT 80SM BKN/// FEW005 FEW020 FEW060 SCT120 SCT180 04/M04 RMK TPS LWR BKN055,KMWN,2024-05-05T00:51:00Z,44.271,-71.304,4,-4,180,8,,80,0.00,,,,,,,,,,,FEW,500,FEW,2000,FEW,6000,SCT,12000,VFR,,,,,,,,,,,,METAR,1911
KMPV 050051Z AUTO 15008KT 10SM FEW080 13/06 A3032 RMK AO2 SLP270 T01280061,KMPV,2024-05-05T00:51:00Z,44.205,-72.5655,12.8,6.1,150,8,,10+,30.32,1027,,TRUE,TRUE,,,,,,,FEW,8000,,,,,,,VFR,,,,,,,,,,,,METAR,336
KLGU 050051Z AUTO 15003KT 10SM FEW120 21/03 A2957 RMK AO2 SLP990 T02110033,KLGU,2024-05-05T00:51:00Z,41.7865,-111.852,21.1,3.3,150,3,,10+,29.57,999,,TRUE,TRUE,,,,,,,FEW,12000,,,,,,,VFR,,,,,,,,,,,,METAR,1359
KLGA 050051Z 13010KT 10SM FEW030 BKN060 OVC120 12/05 A3032 RMK AO2 SLP267 T01170050 $,KLGA,2024-05-05T00:51:00Z,40.7794,-73.8803,11.7,5,130,10,,10+,30.32,1026.7,,,TRUE,TRUE,,,,,,FEW,3000,BKN,6000,OVC,12000,,,VFR,,,,,,,,,,,,METAR,9
KJFK 050051Z 11009KT 10SM FEW019 BKN060 OVC120 11/07 A3034 RMK AO2 SLP272 T01110067,KJFK,2024-05-05T00:51:00Z,40.6392,-73.7639,11.1,6.7,110,9,,10+,30.34,1027.2,,,TRUE,,,,,,,FEW,1900,BKN,6000,OVC,12000,,,VFR,,,,,,,,,,,,METAR,3
KJCT 050051Z AUTO 12004KT 5SM HZ BKN017 OVC022 25/22 A2982 RMK AO2 SLP064 P0001 T02500217,KJCT,2024-05-05T00:51:00Z,30.5105,-99.7665,25,21.7,120,4,,5,29.82,1006.4,,TRUE,TRUE,,,,,,HZ,BKN,1700,OVC,2200,,,,,MVFR,,,,,,0.01,,,,,,METAR,522
KILG 050051Z 11007KT 10SM -RA BKN010 OVC014 10/08 A3028 RMK AO2 CIG 008V013 SLP252 P0000 T01000083 $,KILG,2024-05-05T00:51:00Z,39.6744,-75.6057,10,8.3,110,7,,10+,30.28,1025.2,,,TRUE,TRUE,,,,,-RA,BKN,1000,OVC,1400,,,,,MVFR,,,,,,0.005,,,,,,METAR,22
KIGM 050051Z AUTO 22025G34KT 10SM CLR 25/00 A2974 RMK AO2 PK WND 21034/0042 SLP010 T02500000,KIGM,2024-05-05T00:51:00Z,35.2575,-113.934,25,0,220,25,34,10+,29.74,1001,,TRUE,TRUE,,,,,,,CLR,,,,,,,,VFR,,,,,,,,,,,,METAR,1045
KHTS 050051Z 13004KT 10SM FEW039 BKN080 OVC110 21/18 A2996 RMK AO2 RAB01E15 SLP140 P0000 T02110178,KHTS,2024-05-05T00:51:00Z,38.3653,-82.5548,21.1,17.8,130,4,,10+,29.96,1014,,,TRUE,,,,,,,FEW,3900,BKN,8000,OVC,11000,,,VFR,,,,,,0.005,,,,,,METAR,252
KHSE 050051Z AUTO 12012G17KT 10SM CLR 19/18 A3015 RMK AO2 SLP207 T01940178,KHSE,2024-05-05T00:51:00Z,35.2324,-75.6223,19.4,17.8,120,12,17,10+,30.15,1020.7,,TRUE,TRUE,,,,,,,CLR,,,,,,,,VFR,,,,,,,,,,,,METAR,4
KHDO 050051Z AUTO 08007KT 10SM +RA BKN045 OVC050 26/22 A2979 RMK AO2 SLP072 T02610217 PNO $,KHDO,2024-05-05T00:51:00Z,29.3601,-99.1742,26.1,21.7,80,7,,10+,29.79,1007.2,,TRUE,TRUE,TRUE,,,,,+RA,BKN,4500,OVC,5000,,,,,VFR,,,,,,,,,,,,METAR,280
KEWR 050051Z 14006KT 10SM FEW035 BKN055 OVC080 12/07 A3032 RMK AO2 SLP267 T01220067,KEWR,2024-05-05T00:51:00Z,40.6828,-74.1692,12.2,6.7,140,6,,10+,30.32,1026.7,,,TRUE,,,,,,,FEW,3500,BKN,5500,OVC,8000,,,VFR,,,,,,,,,,,,METAR,2
KERI 050051Z 16018G32KT 10SM BKN047 OVC080 14/10 A2998 RMK AO2 PK WND 17032/0042 RAB2357E12 SLP152 P0000 T01440100,KERI,2024-05-05T00:51:00Z,42.0803,-80.1824,14.4,10,160,18,32,10+,29.98,1015.2,,,TRUE,,,,,,,BKN,4700,OVC,8000,,,,,VFR,,,,,,0.005,,,,,,METAR,222
KELP 050051Z 26008KT 10SM FEW160 FEW250 31/M13 A2981 RMK AO2 SLP026 T03061133,KELP,2024-05-05T00:51:00Z,31.8123,-106.377,30.6,-13.3,260,8,,10+,29.81,1002.6,,,TRUE,,,,,,,FEW,16000,FEW,25000,,,,,VFR,,,,,,,,,,,,METAR,1205
KEKN 050051Z AUTO 00000KT 10SM OVC100 18/14 A3007 RMK AO2 SLP179 T01780144,KEKN,2024-05-05T00:51:00Z,38.8899,-79.8554,17.8,14.4,0,0,,10+,30.07,1017.9,,TRUE,TRUE,,,,,,,OVC,10000,,,,,,,VFR,,,,,,,,,,,,METAR,596
KDAW 050051Z AUTO 12006KT 10SM OVC036 10/05 A3038 RMK AO2 SLP287 T01000050,KDAW,2024-05-05T00:51:00Z,43.2794,-70.9243,10,5,120,6,,10+,30.38,1028.7,,TRUE,TRUE,,,,,,,OVC,3600,,,,,,,VFR,,,,,,,,,,,,METAR,100
KCSG 050051Z AUTO 11003KT 10SM CLR 26/18 A3000 RMK AO2 SLP153 T02610183,KCSG,2024-05-05T00:51:00Z,32.5163,-84.9422,26.1,18.3,110,3,,10+,30.00,1015.3,,TRUE,TRUE,,,,,,,CLR,,,,,,,,VFR,,,,,,,,,,,,METAR,120
KCRP 050051Z 13012KT 10SM FEW017 SCT022 BKN033 BKN250 27/23 A2979 RMK AO2 SLP087 T02720233,KCRP,2024-05-05T00:51:00Z,27.7733,-97.513,27.2,23.3,130,12,,10+,29.79,1008.7,,,TRUE,,,,,,,FEW,1700,SCT,2200,BKN,3300,BKN,25000,VFR,,,,,,,,,,,,METAR,11
KCON 050051Z AUTO 12005KT 10SM CLR 09/06 A3037 RMK AO2 SLP286 T00940056 $,KCON,2024-05-05T00:51:00Z,43.2049,-71.5026,9.4,5.6,120,5,,10+,30.37,1028.6,,TRUE,TRUE,TRUE,,,,,,CLR,,,,,,,,VFR,,,,,,,,,,,,METAR,102
KCMH 050051Z 15009KT 10SM SCT065 OVC110 20/19 A2991 RMK AO2 RAE49 TSE09 CIG 070 NW SLP124 TS DSIPTD P0011 T02000194,KCMH,2024-05-05T00:51:00Z,39.9907,-82.8771,20,19.4,150,9,,10+,29.91,1012.4,,,TRUE,,,,,,,SCT,6500,OVC,11000,,,,,VFR,,,,,,0.11,,,,,,METAR,257
KCLE 050051Z 13009KT 10SM BKN014 OVC110 18/16 A2993 RMK AO2 SLP148 T01830156,KCLE,2024-05-05T00:51:00Z,41.4057,-81.8519,18.3,15.6,130,9,,10+,29.93,1014.8,,,TRUE,,,,,,,BKN,1400,OVC,11000,,,,,MVFR,,,,,,,,,,,,METAR,237
KCDJ 050051Z AUTO 16/09 A3005 RMK AO1 SLP172 T01560094,KCDJ,2024-05-05T00:51:00Z,39.8198,-93.577,15.6,9.4,,,,,30.05,1017.2,,TRUE,TRUE,,,,,,,,,,,,,,,,,,,,,,,,,,,METAR,234
KCAK 050051Z 11009KT 8SM BKN006 OVC020 16/15 A2998 RMK AO2 RAB04E16DZB16E37 SLP148 P0000 T01560150 $,KCAK,2024-05-05T00:51:00Z,40.9181,-81.4434,15.6,15,110,9,,8,29.98,1014.8,,,TRUE,TRUE,,,,,,BKN,600,OVC,2000,,,,,IFR,,,,,,0.005,,,,,,METAR,369
KBKW 050051Z AUTO 15007KT 10SM SCT008 BKN012 OVC110 16/14 A3006 RMK AO2 SLP161 T01560144 VISNO RWY19 $,KBKW,2024-05-05T00:51:00Z,37.7836,-81.1228,15.6,14.4,150,7,,10+,30.06,1016.1,,TRUE,TRUE,TRUE,,,,,,SCT,800,BKN,1200,OVC,11000,,,MVFR,,,,,,,,,,,,METAR,762
KBJC 050051Z 34009KT 10SM FEW100 16/01 A2994,KBJC,2024-05-05T00:51:00Z,39.9008,-105.104,16,1,340,9,,10+,29.94,,,,,,,,,,,FEW,10000,,,,,,,VFR,,,,,,,,,,,,METAR,1694
KBHK 050051Z AUTO 03006KT 10SM CLR 15/M04 A2991 RMK AO2 SLP134 T01501044,KBHK,2024-05-05T00:51:00Z,46.3521,-104.261,15,-4.4,30,6,,10+,29.91,1013.4,,TRUE,TRUE,,,,,,,CLR,,,,,,,,VFR,,,,,,,,,,,,METAR,904
KBGD 050051Z AUTO 05008KT 10SM OVC023 16/09 A3002 RMK AO2 SLP148 T01560089,KBGD,2024-05-05T00:51:00Z,35.695,-101.396,15.6,8.9,50,8,,10+,30.02,1014.8,,TRUE,TRUE,,,,,,,OVC,2300,,,,,,,MVFR,,,,,,,,,,,,METAR,928
KBED 050051Z 09008KT 10SM CLR 08/05 A3037 RMK AO2 SLP296 T00780050,KBED,2024-05-05T00:51:00Z,42.4681,-71.2946,7.8,5,90,8,,10+,30.37,1029.6,,,TRUE,,,,,,,CLR,,,,,,,,VFR,,,,,,,,,,,,METAR,39
KBDL 050051Z 19011KT 10SM BKN040 BKN250 13/07 A3033 RMK AO2 SLP270 T01330067,KBDL,2024-05-05T00:51:00Z,41.9374,-72.682,13.3,6.7,190,11,,10+,30.33,1027,,,TRUE,,,,,,,BKN,4000,BKN,25000,,,,,VFR,,,,,,,,,,,,METAR,52
KBAZ 050051Z AUTO 14012G21KT 8SM FEW048 27/21 A2980 RMK AO2 SLP083 T02670211,KBAZ,2024-05-05T00:51:00Z,29.7089,-98.0459,26.7,21.1,140,12,21,8,29.80,1008.3,,TRUE,TRUE,,,,,,,FEW,4800,,,,,,,VFR,,,,,,,,,,,,METAR,199
KAVX 050051Z AUTO 25010KT 1/4SM HZ VV002 13/10 A2992 RMK AO2 SLP126 T01280100,KAVX,2024-05-05T00:51:00Z,33.4042,-118.415,12.8,10,250,10,,0.25,29.92,1012.6,,TRUE,TRUE,,,,,,HZ,OVX,0,,,,,,,LIFR,,,,,,,,,,,200,METAR,482
KATT 050051Z AUTO 08004KT 10SM FEW043 SCT080 24/22 A2981 RMK AO2 SLP085 T02440217,KATT,2024-05-05T00:51:00Z,30.3208,-97.7604,24.4,21.7,80,4,,10+,29.81,1008.5,,TRUE,TRUE,,,,,,,FEW,4300,SCT,8000,,,,,VFR,,,,,,,,,,,,METAR,203
KALB 050051Z 17012KT 10SM FEW110 BKN130 BKN160 BKN250 17/07 A3025 RMK AO2 SLP242 T01720072,KALB,2024-05-05T00:51:00Z,42.7473,-73.7991,17.2,7.2,170,12,,10+,30.25,1024.2,,,TRUE,,,,,,,FEW,11000,BKN,13000,BKN,16000,BKN,25000,VFR,,,,,,,,,,,,METAR,82
KAHN 050051Z AUTO 00000KT 10SM BKN110 21/19 A3003 RMK AO2 SLP164 T02060189,KAHN,2024-05-05T00:51:00Z,33.9477,-83.3274,20.6,18.9,0,0,,10+,30.03,1016.4,,TRUE,TRUE,,,,,,,BKN,11000,,,,,,,VFR,,,,,,,,,,,,METAR,241
KAFP 050051Z AUTO 00000KT 4SM BR BKN008 20/19 A3008 RMK AO2 T01980192,KAFP,2024-05-05T00:51:00Z,35.0194,-80.0784,19.8,19.2,0,0,,4,30.08,,,TRUE,TRUE,,,,,,BR,BKN,800,,,,,,,IFR,,,,,,,,,,,,METAR,91
KACT 050051Z 08006KT 10SM BKN040 BKN048 OVC060 23/21 A2984 RMK AO2 SLP098 T02330206,KACT,2024-05-05T00:51:00Z,31.618,-97.2283,23.3,20.6,80,6,,10+,29.84,1009.8,,,TRUE,,,,,,,BKN,4000,BKN,4800,OVC,6000,,,VFR,,,,,,,,,,,,METAR,150
K6R6 050051Z AUTO 12015G28KT 26/21 A2976 RMK AO1 PK WND 12033/0034 SLP042 T02560206,K6R6,2024-05-05T00:51:00Z,30.0482,-102.213,25.6,20.6,120,15,28,,29.76,1004.2,,TRUE,TRUE,,,,,,,,,,,,,,,,,,,,,,,,,,,METAR,702
TJBQ 050050Z 10003KT 10SM CLR 26/23 A2995,TJBQ,2024-05-05T00:50:00Z,18.494,-67.128,26,23,100,3,,10+,29.95,,,,,,,,,,,CLR,,,,,,,,VFR,,,,,,,,,,,,METAR,69
PTTP 050050Z 07004KT 15SM SCT018 BKN130 OVC300 30/26 A2978 RMK SLP084 T03010259,PTTP,2024-05-05T00:50:00Z,6.96,158.21,30.1,25.9,70,4,,15,29.78,1008.4,,,,,,,,,,SCT,1800,BKN,13000,OVC,30000,,,VFR,,,,,,,,,,,,METAR,36
PTSA 050050Z 05007KT 10SM BKN020 BKN130 BKN300 31/26 A2975 ,PTSA,2024-05-05T00:50:00Z,5.352,162.956,31,26,50,7,,10+,29.75,,,,,,,,,,,BKN,2000,BKN,13000,BKN,30000,,,MVFR,,,,,,,,,,,,METAR,3
PTRO 050050Z 06011G18KT 13SM FEW010 SCT017 BKN130 BKN300 30/24 A2979 RMK HZ ALQDS,PTRO,2024-05-05T00:50:00Z,7.367,134.544,30,24,60,11,18,13,29.79,,,,,,,,,,,FEW,1000,SCT,1700,BKN,13000,BKN,30000,VFR,,,,,,,,,,,,METAR,30
PTKK 050050Z 04008G16KT 15SM FEW014 BKN120 OVC280 31/29 A2974 RMK SLP072 T03110294,PTKK,2024-05-05T00:50:00Z,7.462,151.843,31.1,29.4,40,8,16,15,29.74,1007.2,,,,,,,,,,FEW,1400,BKN,12000,OVC,28000,,,VFR,,,,,,,,,,,,METAR,3
PGRO 050050Z 07013KT 7SM BKN014 BKN100 29/23 A2982,PGRO,2024-05-05T00:50:00Z,14.172,145.24,29,23,70,13,,7,29.82,,,,,,,,,,,BKN,1400,BKN,10000,,,,,MVFR,,,,,,,,,,,,METAR,181
OOSH 050050Z AUTO 21006KT //// ////// 28/19 Q1006,OOSH,2024-05-05T00:50:00Z,24.388,56.624,28,19,210,6,,,29.70,,,TRUE,,,,,,,,,,,,,,,,,,,,,,,,,,,,METAR,35
OOSA 050050Z VRB01KT 9999 SCT025 28/26 Q1009 NOSIG,OOSA,2024-05-05T00:50:00Z,17.044,54.102,28,26,VRB,1,,6+,29.79,,,,,,TRUE,,,,,SCT,2500,,,,,,,VFR,,,,,,,,,,,,METAR,20
OOMS 050050Z VRB01KT CAVOK 31/17 Q1007 NOSIG,OOMS,2024-05-05T00:50:00Z,23.595,58.298,31,17,VRB,1,,6+,29.73,,,,,,TRUE,,,,,CAVOK,,,,,,,,VFR,,,,,,,,,,,,METAR,8
OOKB 050050Z AUTO VRB02KT CAVOK ////// 28/16 Q1007 NOSIG,OOKB,2024-05-05T00:50:00Z,26.168,56.239,28,16,VRB,2,,6+,29.73,,,TRUE,,,TRUE,,,,,CAVOK,,,,,,,,VFR,,,,,,,,,,,,METAR,30
OODQ 050050Z AUTO 20005KT 9999 R22///// NCD 27/26 Q1008 NOSIG,OODQ,2024-05-05T00:50:00Z,19.511,57.657,27,26,200,5,,6+,29.76,,,TRUE,,,TRUE,,,,,CLR,,,,,,,,VFR,,,,,,,,,,,,METAR,116
OOAD 050050Z AUTO 10006KT //// R31///// // NCD 28/24 Q1011 NOSIG,OOAD,2024-05-05T00:50:00Z,22.5,57.37,28,24,100,6,,,29.85,,,TRUE,,,TRUE,,,,,CLR,,,,,,,,,,,,,,,,,,,,METAR,327
MUVR 050050Z 07007KT 050V110 9999 FEW020 25/23 Q1015,MUVR,2024-05-05T00:50:00Z,23.033,-81.435,25,23,70,7,,6+,29.97,,,,,,,,,,,FEW,2000,,,,,,,VFR,,,,,,,,,,,,METAR,65
MUSC 050050Z 08012KT 9000 SCT025 25/22 Q1015,MUSC,2024-05-05T00:50:00Z,22.494,-79.931,25,22,80,12,,5.59,29.97,,,,,,,,,,,SCT,2500,,,,,,,VFR,,,,,,,,,,,,METAR,97
MUHG 050050Z 06007KT 030V090 9000 SCT020 BKN180 25/23 Q1014,MUHG,2024-05-05T00:50:00Z,20.786,-76.316,25,23,60,7,,5.59,29.94,,,,,,,,,,,SCT,2000,BKN,18000,,,,,VFR,,,,,,,,,,,,METAR,100
MUHA 050050Z 08010KT 050V110 9000 SCT030 26/22 Q1015,MUHA,2024-05-05T00:50:00Z,22.991,-82.41,26,22,80,10,,5.59,29.97,,,,,,,,,,,SCT,3000,,,,,,,VFR,,,,,,,,,,,,METAR,61
MUCU 050050Z 33005KT 300V360 9000 SCT020 27/23 Q1013,MUCU,2024-05-05T00:50:00Z,19.971,-75.837,27,23,330,5,,5.59,29.91,,,,,,,,,,,SCT,2000,,,,,,,VFR,,,,,,,,,,,,METAR,70
MUCM 050050Z 05010KT 9000 SCT030 25/22 Q1014,MUCM,2024-05-05T00:50:00Z,21.42,-77.85,25,22,50,10,,5.59,29.94,,,,,,,,,,,SCT,3000,,,,,,,VFR,,,,,,,,,,,,METAR,125
MUCC 050050Z 10012KT 9000 BKN020 26/23 Q1014,MUCC,2024-05-05T00:50:00Z,22.456,-78.339,26,23,100,12,,5.59,29.94,,,,,,,,,,,BKN,2000,,,,,,,MVFR,,,,,,,,,,,,METAR,7
LXGB 050050Z AUTO 25015KT 9999 NCD 18/08 Q1017,LXGB,2024-05-05T00:50:00Z,36.151,-5.35,18,8,250,15,,6+,30.03,,,TRUE,,,,,,,,CLR,,,,,,,,VFR,,,,,,,,,,,,METAR,5
LWSK 050050Z VRB01KT 9999 FEW100 10/09 Q1007 NOSIG,LWSK,2024-05-05T00:50:00Z,41.952,21.627,10,9,VRB,1,,6+,29.73,,,,,,TRUE,,,,,FEW,10000,,,,,,,VFR,,,,,,,,,,,,METAR,232
LTFO 050050Z 20006KT 8000 -SHRA BKN008 BKN025 15/13 Q1006 RESHRA,LTFO,2024-05-05T00:50:00Z,41.179,40.845,15,13,200,6,,4.97,29.70,,,,,,,,,,-SHRA,BKN,800,BKN,2500,,,,,IFR,,,,,,,,,,,,METAR,5
LTFM 050050Z 03010KT 9999 SCT008 BKN025 13/11 Q1012 NOSIG RMK RWY17L 02011KT RWY34L 02008KT RWY16R 02010KT RWY36 03010KT RWY18 03010KT,LTFM,2024-05-05T00:50:00Z,41.262,28.74,13,11,30,10,,6+,29.88,,,,,,TRUE,,,,,SCT,800,BKN,2500,,,,,MVFR,,,,,,,,,,,,METAR,99
LTFJ 050050Z 06010KT 9999 SCT010 BKN030 13/11 Q1011 NOSIG RMK RWY24R 04010KT RWY06R 02012KT RWY24L 02010KT,LTFJ,2024-05-05T00:50:00Z,40.899,29.309,13,11,60,10,,6+,29.85,,,,,,TRUE,,,,,SCT,1000,BKN,3000,,,,,MVFR,,,,,,,,,,,,METAR,83
LTFH 050050Z 30016KT 9999 BKN035 14/11 Q1007 NOSIG,LTFH,2024-05-05T00:50:00Z,41.255,36.567,14,11,300,16,,6+,29.73,,,,,,TRUE,,,,,BKN,3500,,,,,,,VFR,,,,,,,,,,,,METAR,7
LTFG 050050Z 11006KT 9999 SCT030 15/13 Q1005,LTFG,2024-05-05T00:50:00Z,36.299,32.3,15,13,110,6,,6+,29.68,,,,,,,,,,,SCT,3000,,,,,,,VFR,,,,,,,,,,,,METAR,26
LTFE 050050Z 15004KT 9999 FEW035 BKN100 13/12 Q1006 NOSIG RMK RWY10 17003KT 140V200,LTFE,2024-05-05T00:50:00Z,37.245,27.673,13,12,150,4,,6+,29.70,,,,,,TRUE,,,,,FEW,3500,BKN,10000,,,,,VFR,,,,,,,,,,,,METAR,6
LTFD 050050Z 08009KT 9999 SCT035 BKN100 14/10 Q1009,LTFD,2024-05-05T00:50:00Z,39.559,27.025,14,10,80,9,,6+,29.79,,,,,,,,,,,SCT,3500,BKN,10000,,,,,VFR,,,,,,,,,,,,METAR,15
LTFC 050050Z 06003KT 330V120 9999 FEW035 SCT070 03/03 Q1008 RMK RWY23 VRB01KT,LTFC,2024-05-05T00:50:00Z,37.855,30.368,3,3,60,3,,6+,29.76,,,,,,,,,,,FEW,3500,SCT,7000,,,,,VFR,,,,,,,,,,,,METAR,862
LTDA 050050Z 15013KT 9999 FEW025CB BKN030 17/13 Q1005 NOSIG,LTDA,2024-05-05T00:50:00Z,36.361,36.283,17,13,150,13,,6+,29.68,,,,,,TRUE,,,,,FEW,2500,BKN,3000,,,,,MVFR,,,,,,,,,,,,METAR,80
LTCW 050050Z 21013KT 140V260 9999 -SHRA SCT030 BKN070 10/04 Q1012,LTCW,2024-05-05T00:50:00Z,37.55,44.238,10,4,210,13,,6+,29.88,,,,,,,,,,-SHRA,SCT,3000,BKN,7000,,,,,VFR,,,,,,,,,,,,METAR,1852
LTCV 050050Z 15006KT 9999 FEW035 BKN100 12/11 Q1008,LTCV,2024-05-05T00:50:00Z,37.365,42.06,12,11,150,6,,6+,29.76,,,,,,,,,,,FEW,3500,BKN,10000,,,,,VFR,,,,,,,,,,,,METAR,620
LTCT 050050Z 26004KT 180V300 9999 FEW040 BKN080 12/10 Q1006,LTCT,2024-05-05T00:50:00Z,39.977,43.878,12,10,260,4,,6+,29.70,,,,,,,,,,,FEW,4000,BKN,8000,,,,,VFR,,,,,,,,,,,,METAR,936
LTCS 050050Z 24008KT CAVOK 11/09 Q1007 RMK RWY22 22004KT 2CI200,LTCS,2024-05-05T00:50:00Z,37.445,38.904,11,9,240,8,,6+,29.73,,,,,,,,,,,CAVOK,,,,,,,,VFR,,,,,,,,,,,,METAR,825
LTCN 050050Z 07006KT 9999 SCT035 BKN090 13/13 Q1006,LTCN,2024-05-05T00:50:00Z,37.539,36.953,13,13,70,6,,6+,29.70,,,,,,,,,,,SCT,3500,BKN,9000,,,,,VFR,,,,,,,,,,,,METAR,505
LTCJ 050050Z 04004KT 9999 FEW040 SCT100 11/11 Q1007 NOSIG RMK RWY20 02003KT 340V080 2CU040 4AC100,LTCJ,2024-05-05T00:50:00Z,37.93,41.117,11,11,40,4,,6+,29.73,,,,,,TRUE,,,,,FEW,4000,SCT,10000,,,,,VFR,,,,,,,,,,,,METAR,559
LTCI 050050Z VRB02KT 9999 SCT030 BKN070 09/03 Q1010 NOSIG,LTCI,2024-05-05T00:50:00Z,38.469,43.337,9,3,VRB,2,,6+,29.82,,,,,,TRUE,,,,,SCT,3000,BKN,7000,,,,,VFR,,,,,,,,,,,,METAR,1654
LTCG 050050Z 00000KT 9999 -SHRA SCT012 BKN028 15/13 Q1005 TEMPO 3500 SHRA BR BKN006 BKN025 RMK RWY29 13004KT 100V210,LTCG,2024-05-05T00:50:00Z,40.995,39.782,15,13,0,0,,6+,29.68,,,,,,,,,,-SHRA,SCT,1200,BKN,2800,,,,,MVFR,,,,,,,,,,,,METAR,28
LTCF 050050Z 22010KT 9999 FEW040 BKN100 07/03 Q1008 NOSIG,LTCF,2024-05-05T00:50:00Z,40.562,43.115,7,3,220,10,,6+,29.76,,,,,,TRUE,,,,,FEW,4000,BKN,10000,,,,,VFR,,,,,,,,,,,,METAR,1794
LTCE 050050Z VRB02KT 9999 SCT035 BKN070 06/01 Q1008 NOSIG RMK RWY08R 22012KT RWY26R 23004KT 150V250 RWY08L 23013KT 3CU035 5AC070,LTCE,2024-05-05T00:50:00Z,39.956,41.17,6,1,VRB,2,,6+,29.76,,,,,,TRUE,,,,,SCT,3500,BKN,7000,,,,,VFR,,,,,,,,,,,,METAR,1758
LTCD 050050Z VRB02KT 9999 -SHRA SCT045 BKN070 09/08 Q1005 NOSIG,LTCD,2024-05-05T00:50:00Z,39.71,39.527,9,8,VRB,2,,6+,29.68,,,,,,TRUE,,,,-SHRA,SCT,4500,BKN,7000,,,,,VFR,,,,,,,,,,,,METAR,1146
LTCC 050050Z 25004KT CAVOK 08/07 Q1007 NOSIG RMK RWY16 25003KT 180V270 SKC,LTCC,2024-05-05T00:50:00Z,37.894,40.201,8,7,250,4,,6+,29.73,,,,,,TRUE,,,,,CAVOK,,,,,,,,VFR,,,,,,,,,,,,METAR,676
LTCB 050050Z 22008KT 180V350 9999 -SHRA SCT008 BKN028 14/11 Q1006 TEMPO -TSRA,LTCB,2024-05-05T00:50:00Z,40.967,38.081,14,11,220,8,,6+,29.70,,,,,,,,,,-SHRA,SCT,800,BKN,2800,,,,,MVFR,,,,,,,,,,,,METAR,5
LTCA 050050Z 11006KT 080V140 9999 FEW035 SCT100 BKN200 12/07 Q1006 NOSIG,LTCA,2024-05-05T00:50:00Z,38.607,39.291,12,7,110,6,,6+,29.70,,,,,,TRUE,,,,,FEW,3500,SCT,10000,BKN,20000,,,VFR,,,,,,,,,,,,METAR,887
LTBY 050050Z 32007KT 200V010 9999 BKN035 BKN100 09/06 Q1009,LTBY,2024-05-05T00:50:00Z,39.81,30.519,9,6,320,7,,6+,29.79,,,,,,,,,,,BKN,3500,BKN,10000,,,,,VFR,,,,,,,,,,,,METAR,788
LTBU 050050Z 01007KT 9999 SCT030 BKN070 12/10 Q1011 RMK RWY22 01007KT,LTBU,2024-05-05T00:50:00Z,41.139,27.919,12,10,10,7,,6+,29.85,,,,,,,,,,,SCT,3000,BKN,7000,,,,,VFR,,,,,,,,,,,,METAR,165
LTBS 050050Z 36003KT 320V020 9999 SCT025 BKN080 14/10 Q1005 NOSIG RMK RWY19 33004KT 4CU025 6AC080,LTBS,2024-05-05T00:50:00Z,36.713,28.793,14,10,360,3,,6+,29.68,,,,,,TRUE,,,,,SCT,2500,BKN,8000,,,,,VFR,,,,,,,,,,,,METAR,2
LTBR 050050Z 27003KT 9999 BKN033 SCT090 12/12 Q1010 RESHRA NOSIG RMK RWY07 31003KT 280V350,LTBR,2024-05-05T00:50:00Z,40.255,29.562,12,12,270,3,,6+,29.82,,,,,,TRUE,,,,,BKN,3300,SCT,9000,,,,,VFR,,,,,,,,,,,,METAR,233
LTBJ 050050Z 36007KT 330V030 9999 SCT030 BKN070 14/10 Q1007 NOSIG RMK RWY16 36008KT,LTBJ,2024-05-05T00:50:00Z,38.285,27.155,14,10,360,7,,6+,29.73,,,,,,TRUE,,,,,SCT,3000,BKN,7000,,,,,VFR,,,,,,,,,,,,METAR,123
LTBH 050050Z 03006KT 9999 SCT035 12/10 Q1011,LTBH,2024-05-05T00:50:00Z,40.14,26.425,12,10,30,6,,6+,29.85,,,,,,,,,,,SCT,3500,,,,,,,VFR,,,,,,,,,,,,METAR,8
LTBF 050050Z 00000KT 9999 FEW035 SCT100 11/11 Q1009 NOSIG,LTBF,2024-05-05T00:50:00Z,39.619,27.926,11,11,0,0,,6+,29.79,,,,,,TRUE,,,,,FEW,3500,SCT,10000,,,,,VFR,,,,,,,,,,,,METAR,95
LTBD 050050Z 00000KT 9999 SCT035 SCT090 14/12 Q1007,LTBD,2024-05-05T00:50:00Z,37.816,27.886,14,12,0,0,,6+,29.73,,,,,,,,,,,SCT,3500,SCT,9000,,,,,VFR,,,,,,,,,,,,METAR,29
LTBA 050050Z 03010KT 9999 SCT030 BKN100 13/11 Q1011 RMK RWY23 04009KT 360V060,LTBA,2024-05-05T00:50:00Z,40.982,28.821,13,11,30,10,,6+,29.85,,,,,,,,,,,SCT,3000,BKN,10000,,,,,VFR,,,,,,,,,,,,METAR,33
LTAZ 050050Z 00000KT 9999 BKN030 BKN080 08/07 Q1007 RMK RWY29 32002KT,LTAZ,2024-05-05T00:50:00Z,38.771,34.521,8,7,0,0,,6+,29.73,,,,,,,,,,,BKN,3000,BKN,8000,,,,,MVFR,,,,,,,,,,,,METAR,944
LTAY 050050Z VRB02KT 9999 SCT035 BKN100 05/05 Q1008 NOSIG,LTAY,2024-05-05T00:50:00Z,37.785,29.701,5,5,VRB,2,,6+,29.76,,,,,,TRUE,,,,,SCT,3500,BKN,10000,,,,,VFR,,,,,,,,,,,,METAR,851
LTAU 050050Z 00000KT 9999 FEW015 SCT027 BKN080 07/06 Q1006 RESHRA NOSIG RMK RWY07 31002KT,LTAU,2024-05-05T00:50:00Z,38.77,35.495,7,6,0,0,,6+,29.70,,,,,,TRUE,,,,,FEW,1500,SCT,2700,BKN,8000,,,VFR,,,,,,,,,,,,METAR,1053
LTAT 050050Z VRB02KT 9999 SCT035 BKN090 10/07 Q1005 NOSIG RMK RWY03 VRB02KT,LTAT,2024-05-05T00:50:00Z,38.435,38.092,10,7,VRB,2,,6+,29.68,,,,,,TRUE,,,,,SCT,3500,BKN,9000,,,,,VFR,,,,,,,,,,,,METAR,850
LTAR 050050Z 22004KT 8000 -SHRA BKN005 BKN020 BKN070 03/03 Q1006,LTAR,2024-05-05T00:50:00Z,39.798,36.894,3,3,220,4,,4.97,29.70,,,,,,,,,,-SHRA,BKN,500,BKN,2000,BKN,7000,,,IFR,,,,,,,,,,,,METAR,1601
LTAP 050050Z 27004KT 9999 FEW018 SCT040 BKN080 10/09 Q1006 NOSIG RMK RWY23 35004KT 310V040,LTAP,2024-05-05T00:50:00Z,40.826,35.52,10,9,270,4,,6+,29.70,,,,,,TRUE,,,,,FEW,1800,SCT,4000,BKN,8000,,,VFR,,,,,,,,,,,,METAR,536
LTAN 050050Z VRB01KT 9999 -SHRA SCT030 BKN090 07/05 Q1007 NOSIG,LTAN,2024-05-05T00:50:00Z,37.979,32.562,7,5,VRB,1,,6+,29.73,,,,,,TRUE,,,,-SHRA,SCT,3000,BKN,9000,,,,,VFR,,,,,,,,,,,,METAR,1029
LTAI 050050Z 32009KT 9999 SCT030 15/07 Q1005 NOSIG RMK RWY18C 30009KT RWY36R 31008KT RWY18L 31008KT,LTAI,2024-05-05T00:50:00Z,36.9,30.798,15,7,320,9,,6+,29.68,,,,,,TRUE,,,,,SCT,3000,,,,,,,VFR,,,,,,,,,,,,METAR,50
LTAG 050050Z 17008KT 9999 SCT030 BKN100 18/11 Q1002 NOSIG RMK 3CU030 5AC100,LTAG,2024-05-05T00:50:00Z,37.002,35.426,18,11,170,8,,6+,29.59,,,,,,TRUE,,,,,SCT,3000,BKN,10000,,,,,VFR,,,,,,,,,,,,METAR,62
LTAF 050050Z 16007KT 9999 SCT030 18/13 Q1003 NOSIG RMK RWY23 20008KT 3CU030,LTAF,2024-05-05T00:50:00Z,36.989,35.293,18,13,160,7,,6+,29.62,,,,,,TRUE,,,,,SCT,3000,,,,,,,VFR,,,0.8,,,,,,,,,METAR,19
LTAE 050050Z 05003KT 9999 SCT040 SCT100 08/05 Q1008 NOSIG RMK RWY21 VRB02KT,LTAE,2024-05-05T00:50:00Z,40.079,32.566,8,5,50,3,,6+,29.76,,,,,,TRUE,,,,,SCT,4000,SCT,10000,,,,,VFR,,,,,,,,,,,,METAR,836
LTAC 050050Z 01002KT 9999 SCT040 SCT080 06/04 Q1007 NOSIG RMK RWY21L 35001KT RWY03L 36002KT RWY21R 32001KT,LTAC,2024-05-05T00:50:00Z,40.128,32.995,6,4,10,2,,6+,29.73,,,,,,TRUE,,,,,SCT,4000,SCT,8000,,,,,VFR,,,,,,,,,,,,METAR,952
LSZS 050050Z AUTO VRB01KT 9999 NCD 01/00 Q1017,LSZS,2024-05-05T00:50:00Z,46.526,9.879,1,0,VRB,1,,6+,30.03,,,TRUE,,,,,,,,CLR,,,,,,,,VFR,,,,,,,,,,,,METAR,1708
LSZR 050050Z AUTO 11004KT 9999 BKN100 12/09 Q1013,LSZR,2024-05-05T00:50:00Z,47.485,9.561,12,9,110,4,,6+,29.91,,,TRUE,,,,,,,,BKN,10000,,,,,,,VFR,,,,,,,,,,,,METAR,396
LSZL 050050Z AUTO VRB01KT 9999NDV FEW096 SCT150 11/10 Q1016 RMK,LSZL,2024-05-05T00:50:00Z,46.164,8.878,11,10,VRB,1,,,30.00,,,TRUE,,,,,,,,FEW,9600,SCT,15000,,,,,,,,,,,,,,,,,METAR,198
LSZH 050050Z AUTO 18004KT 130V230 9999 FEW060 14/08 Q1013 TEMPO RA,LSZH,2024-05-05T00:50:00Z,47.48,8.536,14,8,180,4,,6+,29.91,,,TRUE,,,,,,,,FEW,6000,,,,,,,VFR,,,,,,,,,,,,METAR,424
LSZG 050050Z AUTO 26011KT 9999 -RA FEW065 BKN075 12/11 Q1014,LSZG,2024-05-05T00:50:00Z,47.179,7.415,12,11,260,11,,6+,29.94,,,TRUE,,,,,,,-RA,FEW,6500,BKN,7500,,,,,VFR,,,,,,,,,,,,METAR,428
LSZC 050050Z AUTO VRB03KT 9999 FEW100 BKN110 BKN120 10/08 Q1014,LSZC,2024-05-05T00:50:00Z,46.972,8.392,10,8,VRB,3,,6+,29.94,,,TRUE,,,,,,,,FEW,10000,BKN,11000,BKN,12000,,,VFR,,,,,,,,,,,,METAR,445
LSZB 050050Z AUTO 26009KT 230V300 9999 -RA BKN070 13/09 Q1014 REDZ,LSZB,2024-05-05T00:50:00Z,46.914,7.497,13,9,260,9,,6+,29.94,,,TRUE,,,,,,,-RA,BKN,7000,,,,,,,VFR,,,,,,,,,,,,METAR,510
LSZA 050050Z AUTO 01003KT CAVOK 11/10 Q1016,LSZA,2024-05-05T00:50:00Z,46.004,8.91,11,10,10,3,,6+,30.00,,,TRUE,,,,,,,,CAVOK,,,,,,,,VFR,,,,,,,,,,,,METAR,276
LSMP 050050Z AUTO 23012KT 9999NDV -RA SCT057 OVC065 13/10 Q1014 RMK,LSMP,2024-05-05T00:50:00Z,46.844,6.916,13,10,230,12,,,29.94,,,TRUE,,,,,,,-RA,SCT,5700,OVC,6500,,,,,,,,,,,,,,,,,METAR,490
LSMM 050050Z AUTO VRB02KT 9999NDV SCT100 OVC120 09/07 Q1014 RMK,LSMM,2024-05-05T00:50:00Z,46.743,8.11,9,7,VRB,2,,,29.94,,,TRUE,,,,,,,,SCT,10000,OVC,12000,,,,,,,,,,,,,,,,,METAR,570
LSME 050050Z AUTO VRB02KT 9999NDV FEW092 SCT110 OVC130 12/09 Q1014 RMK,LSME,2024-05-05T00:50:00Z,47.092,8.305,12,9,VRB,2,,,29.94,,,TRUE,,,,,,,,FEW,9200,SCT,11000,OVC,13000,,,,,,,,,,,,,,,METAR,427
LSMD 050050Z AUTO 28006KT 250V320 9999NDV BKN100 OVC140 15/08 Q1013 RMK,LSMD,2024-05-05T00:50:00Z,47.399,8.648,15,8,280,6,,,29.91,,,TRUE,,,,,,,,BKN,10000,OVC,14000,,,,,,,,,,,,,,,,,METAR,436
LSMA 050050Z AUTO 00000KT 9999NDV SCT100 10/08 Q1014 RMK,LSMA,2024-05-05T00:50:00Z,46.943,8.286,10,8,0,0,,,29.94,,,TRUE,,,,,,,,SCT,10000,,,,,,,,,,,,,,,,,,,METAR,441
LSGS 050050Z AUTO 26006KT 200V290 9999 -RA BKN060 13/09 Q1016,LSGS,2024-05-05T00:50:00Z,46.219,7.33,13,9,260,6,,6+,30.00,,,TRUE,,,,,,,-RA,BKN,6000,,,,,,,VFR,,,,,,,,,,,,METAR,482
LSGG 050050Z AUTO 24008KT 9999 -SHRA SCT041 BKN058 12/11 Q1015 NOSIG,LSGG,2024-05-05T00:50:00Z,46.248,6.128,12,11,240,8,,6+,29.97,,,TRUE,,,TRUE,,,,-SHRA,SCT,4100,BKN,5800,,,,,VFR,,,,,,,,,,,,METAR,411
LSGC 050050Z AUTO 20008KT 9999 -RA BKN018 BKN020 09/08 Q1014 RESN,LSGC,2024-05-05T00:50:00Z,47.083,6.792,9,8,200,8,,6+,29.94,,,TRUE,,,,,,,-RA,BKN,1800,BKN,2000,,,,,MVFR,,,,,,,,,,,,METAR,1018
LOWW 050050Z 17005KT CAVOK 11/09 Q1013 NOSIG,LOWW,2024-05-05T00:50:00Z,48.117,16.582,11,9,170,5,,6+,29.91,,,,,,TRUE,,,,,CAVOK,,,,,,,,VFR,,,,,,,,,,,,METAR,179
LOWS 050050Z AUTO 19004KT 9999 NCD 08/07 Q1012,LOWS,2024-05-05T00:50:00Z,47.789,13.009,8,7,190,4,,6+,29.88,,,TRUE,,,,,,,,CLR,,,,,,,,VFR,,,,,,,,,,,,METAR,427
LOWL 050050Z AUTO VRB02KT 9999 FEW001 10/10 Q1012,LOWL,2024-05-05T00:50:00Z,48.233,14.188,10,10,VRB,2,,6+,29.88,,,TRUE,,,,,,,,FEW,100,,,,,,,VFR,,,,,,,,,,,,METAR,290
LOWK 050050Z AUTO 29004KT 9999 NCD 09/07 Q1015,LOWK,2024-05-05T00:50:00Z,46.648,14.318,9,7,290,4,,6+,29.97,,,TRUE,,,,,,,,CLR,,,,,,,,VFR,,,,,,,,,,,,METAR,450
LOWI 050050Z AUTO VRB02KT 9999 NCD 10/06 Q1014,LOWI,2024-05-05T00:50:00Z,47.26,11.344,10,6,VRB,2,,6+,29.94,,,TRUE,,,,,,,,CLR,,,,,,,,VFR,,,,,,,,,,,,METAR,570
LOWG 050050Z AUTO VRB01KT 9999 2300W BR FEW001 10/09 Q1014,LOWG,2024-05-05T00:50:00Z,46.997,15.447,10,9,VRB,1,,6+,29.94,,,TRUE,,,,,,,BR,FEW,100,,,,,,,VFR,,,,,,,,,,,,METAR,337
LLBG 050050Z 19004KT 9999 FEW027 19/16 Q1009 NOSIG,LLBG,2024-05-05T00:50:00Z,32.011,34.887,19,16,190,4,,6+,29.79,,,,,,TRUE,,,,,FEW,2700,,,,,,,VFR,,,,,,,,,,,,METAR,35
LIRZ 050050Z AUTO 02004KT 9999 NCD 08/08 Q1018,LIRZ,2024-05-05T00:50:00Z,43.097,12.51,8,8,20,4,,6+,30.06,,,TRUE,,,,,,,,CLR,,,,,,,,VFR,,,,,,,,,,,,METAR,206
LIRQ 050050Z VRB02KT 9999 BKN025 14/12 Q1017,LIRQ,2024-05-05T00:50:00Z,43.81,11.205,14,12,VRB,2,,6+,30.03,,,,,,,,,,,BKN,2500,,,,,,,MVFR,,,,,,,,,,,,METAR,33
LIRN 050050Z AUTO 08001KT 9999 NCD 13/10 Q1017,LIRN,2024-05-05T00:50:00Z,40.885,14.292,13,10,80,1,,6+,30.03,,,TRUE,,,,,,,,CLR,,,,,,,,VFR,,,,,,,,,,,,METAR,76
LIRF 050050Z 03003KT CAVOK 10/09 Q1017 NOSIG,LIRF,2024-05-05T00:50:00Z,41.8,12.239,10,9,30,3,,6+,30.03,,,,,,TRUE,,,,,CAVOK,,,,,,,,VFR,,,,,,,,,,,,METAR,2
LIPZ 050050Z 25005KT CAVOK 15/12 Q1014 NOSIG,LIPZ,2024-05-05T00:50:00Z,45.505,12.352,15,12,250,5,,6+,29.94,,,,,,TRUE,,,,,CAVOK,,,,,,,,VFR,,,,,,,,,,,,METAR,3
LIPY 050050Z AUTO 20004KT 9999 NCD 11/09 Q1016,LIPY,2024-05-05T00:50:00Z,43.617,13.36,11,9,200,4,,6+,30.00,,,TRUE,,,,,,,,CLR,,,,,,,,VFR,,,,,,,,,,,,METAR,11
LIPX 050050Z 29005KT CAVOK 13/10 Q1015,LIPX,2024-05-05T00:50:00Z,45.387,10.872,13,10,290,5,,6+,29.97,,,,,,,,,,,CAVOK,,,,,,,,VFR,,,,,,,,,,,,METAR,67
LIPR 050050Z AUTO VRB01KT 9999 NCD 11/09 Q1015,LIPR,2024-05-05T00:50:00Z,44.02,12.612,11,9,VRB,1,,6+,29.97,,,TRUE,,,,,,,,CLR,,,,,,,,VFR,,,,,,,,,,,,METAR,10
LIPQ 050050Z AUTO 10005KT 9999 NCD 10/09 Q1015,LIPQ,2024-05-05T00:50:00Z,45.828,13.472,10,9,100,5,,6+,29.97,,,TRUE,,,,,,,,CLR,,,,,,,,VFR,,,,,,,,,,,,METAR,6
LIPO 050050Z AUTO 30003KT 9999 NCD 12/11 Q1015,LIPO,2024-05-05T00:50:00Z,45.429,10.331,12,11,300,3,,6+,29.97,,,TRUE,,,,,,,,CLR,,,,,,,,VFR,,,,,,,,,,,,METAR,104
LIPH 050050Z AUTO 02003KT 9999 OVC077/// 15/13 Q1015,LIPH,2024-05-05T00:50:00Z,45.648,12.194,15,13,20,3,,6+,29.97,,,TRUE,,,,,,,,OVC,7700,,,,,,,VFR,,,,,,,,,,,,METAR,10
LIPE 050050Z AUTO 20005KT 9999 NCD 14/10 Q1015,LIPE,2024-05-05T00:50:00Z,44.531,11.297,14,10,200,5,,6+,29.97,,,TRUE,,,,,,,,CLR,,,,,,,,VFR,,,,,,,,,,,,METAR,37
LIMZ 050050Z AUTO 22004KT 9999 FEW210/// 10/09 Q1016,LIMZ,2024-05-05T00:50:00Z,44.547,7.623,10,9,220,4,,6+,30.00,,,TRUE,,,,,,,,FEW,21000,,,,,,,VFR,,,,,,,,,,,,METAR,377
LIML 050050Z 27004KT 240V300 CAVOK 15/09 Q1015 NOSIG,LIML,2024-05-05T00:50:00Z,45.461,9.263,15,9,270,4,,6+,29.97,,,,,,TRUE,,,,,CAVOK,,,,,,,,VFR,,,,,,,,,,,,METAR,109
LIMJ 050050Z VRB01KT 9999 FEW018 15/12 Q1017,LIMJ,2024-05-05T00:50:00Z,44.413,8.838,15,12,VRB,1,,6+,30.03,,,,,,,,,,,FEW,1800,,,,,,,VFR,,,,,,,,,,,,METAR,3
LIMF 050050Z VRB03KT 9999 SCT050 13/10 Q1015,LIMF,2024-05-05T00:50:00Z,45.203,7.649,13,10,VRB,3,,6+,29.97,,,,,,,,,,,SCT,5000,,,,,,,VFR,,,,,,,,,,,,METAR,295
LIME 050050Z VRB02KT CAVOK 13/10 Q1016 NOSIG,LIME,2024-05-05T00:50:00Z,45.674,9.704,13,10,VRB,2,,6+,30.00,,,,,,TRUE,,,,,CAVOK,,,,,,,,VFR,,,,,,,,,,,,METAR,239
LIMC 050050Z VRB02KT CAVOK 12/09 Q1015 NOSIG,LIMC,2024-05-05T00:50:00Z,45.631,8.728,12,9,VRB,2,,6+,29.97,,,,,,TRUE,,,,,CAVOK,,,,,,,,VFR,,,,,,,,,,,,METAR,221
LIEO 050050Z 20003KT CAVOK 13/07 Q1018,LIEO,2024-05-05T00:50:00Z,40.899,9.518,13,7,200,3,,6+,30.06,,,,,,,,,,,CAVOK,,,,,,,,VFR,,,,,,,,,,,,METAR,8
LIEE 050050Z 35006KT CAVOK 12/09 Q1018,LIEE,2024-05-05T00:50:00Z,39.243,9.06,12,9,350,6,,6+,30.06,,,,,,,,,,,CAVOK,,,,,,,,VFR,,,,,,,,,,,,METAR,1
LIEA 050050Z 08001KT CAVOK 10/10 Q1018,LIEA,2024-05-05T00:50:00Z,40.631,8.289,10,10,80,1,,6+,30.06,,,,,,,,,,,CAVOK,,,,,,,,VFR,,,,,,,,,,,,METAR,22
LICR 050050Z AUTO 03008KT 9999 NCD 15/11 Q1018,LICR,2024-05-05T00:50:00Z,38.072,15.654,15,11,30,8,,6+,30.06,,,TRUE,,,,,,,,CLR,,,,,,,,VFR,,,,,,,,,,,,METAR,16
LICJ 050050Z 17003KT CAVOK 13/05 Q1019,LICJ,2024-05-05T00:50:00Z,38.176,13.091,13,5,170,3,,6+,30.09,,,,,,,,,,,CAVOK,,,,,,,,VFR,,,,,,,,,,,,METAR,20
LICD 050050Z AUTO 31008KT 9999 NCD 17/13 Q1018,LICD,2024-05-05T00:50:00Z,35.498,12.618,17,13,310,8,,6+,30.06,,,TRUE,,,,,,,,CLR,,,,,,,,VFR,,,,,,,,,,,,METAR,20
LICC 050050Z VRB02KT CAVOK 12/05 Q1017,LICC,2024-05-05T00:50:00Z,37.467,15.064,12,5,VRB,2,,6+,30.03,,,,,,,,,,,CAVOK,,,,,,,,VFR,,,,,,,,,,,,METAR,6
LICB 050050Z AUTO 07004KT 9999 NCD 08/02 Q1018,LICB,2024-05-05T00:50:00Z,36.994,14.606,8,2,70,4,,6+,30.06,,,TRUE,,,,,,,,CLR,,,,,,,,VFR,,,,,,,,,,,,METAR,212
LICA 050050Z AUTO 20006KT 9999 FEW024/// BKN038/// 15/12 Q1018,LICA,2024-05-05T00:50:00Z,38.908,16.242,15,12,200,6,,6+,30.06,,,TRUE,,,,,,,,FEW,2400,BKN,3800,,,,,VFR,,,,,,,,,,,,METAR,7
LIBR 050050Z 33013KT 9999 FEW010 16/14 Q1015,LIBR,2024-05-05T00:50:00Z,40.658,17.951,16,14,330,13,,6+,29.97,,,,,,,,,,,FEW,1000,,,,,,,VFR,,,,,,,,,,,,METAR,5
LIBP 050050Z AUTO 24004KT 9999 FEW078/// 11/11 Q1017,LIBP,2024-05-05T00:50:00Z,42.432,14.181,11,11,240,4,,6+,30.03,,,TRUE,,,,,,,,FEW,7800,,,,,,,VFR,,,,,,,,,,,,METAR,10
LIBD 050050Z 24005KT CAVOK 11/08 Q1016,LIBD,2024-05-05T00:50:00Z,41.138,16.765,11,8,240,5,,6+,30.00,,,,,,,,,,,CAVOK,,,,,,,,VFR,,,,,,,,,,,,METAR,42
LGTS 050050Z VRB02KT 9999 FEW035 12/10 Q1013 NOSIG,LGTS,2024-05-05T00:50:00Z,40.52,22.971,12,10,VRB,2,,6+,29.91,,,,,,TRUE,,,,,FEW,3500,,,,,,,VFR,,,,,,,,,,,,METAR,4
LGSO 050050Z AUTO 35019KT //// // ////// 16/11 Q1009 RE//,LGSO,2024-05-05T00:50:00Z,37.422,24.95,16,11,350,19,,,29.79,,,TRUE,,,,,,,,,,,,,,,,,,,,,,,,,,,,METAR,71
LGSA 050050Z 32005KT 9999 FEW012 BKN025 15/13 Q1010,LGSA,2024-05-05T00:50:00Z,35.54,24.141,15,13,320,5,,6+,29.82,,,,,,,,,,,FEW,1200,BKN,2500,,,,,MVFR,,,,,,,,,,,,METAR,122
LGRX 050050Z 00000KT 9999 FEW020 11/11 Q1013,LGRX,2024-05-05T00:50:00Z,38.151,21.426,11,11,0,0,,6+,29.91,,,,,,,,,,,FEW,2000,,,,,,,VFR,,,,,,,,,,,,METAR,16
LGRP 050050Z 00000KT 9999 FEW016TCU SCT020 15/12 Q1004 NOSIG,LGRP,2024-05-05T00:50:00Z,36.405,28.086,15,12,0,0,,6+,29.65,,,,,,TRUE,,,,,FEW,1600,SCT,2000,,,,,VFR,,,,,,,,,,,,METAR,3
LGPZ 050050Z 00000KT 9999 FEW020 12/11 Q1013,LGPZ,2024-05-05T00:50:00Z,38.921,20.761,12,11,0,0,,6+,29.91,,,,,,,,,,,FEW,2000,,,,,,,VFR,,,,,,,,,,,,METAR,3
LGPA 050050Z AUTO 36023KT //// -RA ////// 16/11 Q1008 RE//,LGPA,2024-05-05T00:50:00Z,37.022,25.114,16,11,360,23,,,29.76,,,TRUE,,,,,,,-RA,,,,,,,,,,,,,,,,,,,,,METAR,42
LGMK 050050Z 01016KT 9999 FEW008 SCT018 15/09 Q1007,LGMK,2024-05-05T00:50:00Z,37.435,25.348,15,9,10,16,,6+,29.73,,,,,,,,,,,FEW,800,SCT,1800,,,,,VFR,,,,,,,,,,,,METAR,126
LGLM 050050Z 04015G25KT 9999 FEW012 SCT025 14/12 Q1011,LGLM,2024-05-05T00:50:00Z,39.917,25.236,14,12,40,15,25,6+,29.85,,,,,,,,,,,FEW,1200,SCT,2500,,,,,VFR,,,,,,,,,,,,METAR,4
LGKZ 050050Z AUTO 35008KT 310V030 //// // ////// 11/07 Q1015 RE//,LGKZ,2024-05-05T00:50:00Z,40.288,21.842,11,7,350,8,,,29.97,,,TRUE,,,,,,,,,,,,,,,,,,,,,,,,,,,,METAR,615
LGKR 050050Z 00000KT 9999 FEW020 15/12 Q1012 NOSIG,LGKR,2024-05-05T00:50:00Z,39.61,19.913,15,12,0,0,,6+,29.88,,,,,,TRUE,,,,,FEW,2000,,,,,,,VFR,,,,,,,,,,,,METAR,2
LGKO 050050Z 01003KT 9999 FEW016TCU BKN018 13/11 Q1006,LGKO,2024-05-05T00:50:00Z,36.801,27.091,13,11,10,3,,6+,29.70,,,,,,,,,,,FEW,1600,BKN,1800,,,,,MVFR,,,,,,,,,,,,METAR,130
LGKL 050050Z AUTO VRB03KT //// // ////// 11/10 Q1012 RE//,LGKL,2024-05-05T00:50:00Z,37.068,22.026,11,10,VRB,3,,,29.88,,,TRUE,,,,,,,,,,,,,,,,,,,,,,,,,,,,METAR,4
LGIR 050050Z 31021KT 9999 FEW018 BKN025 17/11 Q1009 NOSIG,LGIR,2024-05-05T00:50:00Z,35.337,25.173,17,11,310,21,,6+,29.79,,,,,,TRUE,,,,,FEW,1800,BKN,2500,,,,,MVFR,,,,,,,,,,,,METAR,37
LGIO 050050Z AUTO VRB02KT //// // ////// 07/07 Q1015 RE//,LGIO,2024-05-05T00:50:00Z,39.696,20.823,7,7,VRB,2,,,29.97,,,TRUE,,,,,,,,,,,,,,,,,,,,,,,,,,,,METAR,476
LGBL 050050Z 29004KT 9999 FEW030 12/10 Q1013,LGBL,2024-05-05T00:50:00Z,39.22,22.794,12,10,290,4,,6+,29.91,,,,,,,,,,,FEW,3000,,,,,,,VFR,,,,,,,,,,,,METAR,13
LGAV 050050Z 36010KT 9999 SCT025 16/10 Q1011 NOSIG,LGAV,2024-05-05T00:50:00Z,37.936,23.945,16,10,360,10,,6+,29.85,,,,,,TRUE,,,,,SCT,2500,,,,,,,VFR,,,,,,,,,,,,METAR,83
LGAL 050050Z 02015KT 9999 FEW012 SCT025 16/12 Q1011,LGAL,2024-05-05T00:50:00Z,40.856,25.945,16,12,20,15,,6+,29.85,,,,,,,,,,,FEW,1200,SCT,2500,,,,,VFR,,,,,,,,,,,,METAR,5
LGAD 050050Z VRB03KT 9999 FEW020 12/11 Q1013,LGAD,2024-05-05T00:50:00Z,37.923,21.287,12,11,VRB,3,,6+,29.91,,,,,,,,,,,FEW,2000,,,,,,,VFR,,,,,,,,,,,,METAR,8
LCRA 050050Z 26011KT 9999 FEW030 19/12 Q1006 NOSIG,LCRA,2024-05-05T00:50:00Z,34.59,32.988,19,12,260,11,,6+,29.70,,,,,,TRUE,,,,,FEW,3000,,,,,,,VFR,,,,,,,,,,,,METAR,23
LCEN 050050Z 24005KT 9999 FEW020 14/07 Q1006 NOSIG RMK RWY11R 22005KT RWY29R 24005KT RWY11L 00000KT,LCEN,2024-05-05T00:50:00Z,35.155,33.496,14,7,240,5,,6+,29.70,,,,,,TRUE,,,,,FEW,2000,,,,,,,VFR,,,,,,,,,,,,METAR,91
LATI 050050Z 13003KT 110V180 CAVOK 11/11 Q1015 NOSIG,LATI,2024-05-05T00:50:00Z,41.419,19.716,11,11,130,3,,6+,29.97,,,,,,TRUE,,,,,CAVOK,,,,,,,,VFR,,,,,,,,,,,,METAR,32
KWWR 050050Z AUTO 07006KT 10SM OVC035 16/10 A3003 RMK AO2,KWWR,2024-05-05T00:50:00Z,36.4374,-99.5234,16,10,70,6,,10+,30.03,,,TRUE,TRUE,,,,,,,OVC,3500,,,,,,,VFR,,,,,,,,,,,,METAR,664
KW29 050050Z AUTO 09006KT 10SM OVC009 11/ A3024 RMK AO2 T0112////,KW29,2024-05-05T00:50:00Z,38.9777,-76.3276,11.2,,90,6,,10+,30.24,,,TRUE,TRUE,,,,,,,OVC,900,,,,,,,IFR,,,,,,,,,,,,METAR,1
KVQQ 050050Z 12010KT 10SM CLR 25/18 A3003,KVQQ,2024-05-05T00:50:00Z,30.2035,-81.8725,25,18,120,10,,10+,30.03,,,,,,,,,,,CLR,,,,,,,,VFR,,,,,,,,,,,,METAR,21
KVES 050050Z AUTO 16003KT 10SM CLR 18/18 A2989 RMK AO2,KVES,2024-05-05T00:50:00Z,40.2056,-84.5346,18,18,160,3,,10+,29.89,,,TRUE,TRUE,,,,,,,CLR,,,,,,,,VFR,,,,,,,,,,,,METAR,308
KUKF 050050Z AUTO 07005KT 10SM OVC004 16/16 A3015 RMK AO2,KUKF,2024-05-05T00:50:00Z,36.2188,-81.1002,16,16,70,5,,10+,30.15,,,TRUE,TRUE,,,,,,,OVC,400,,,,,,,LIFR,,,,,,,,,,,,METAR,383
KTQV 050050Z AUTO 05007KT 5SM BR OVC005 17/17 A3011 RMK A01,KTQV,2024-05-05T00:50:00Z,36.007,-78.937,17,17,50,7,,5,30.11,,,TRUE,TRUE,,,,,,BR,OVC,500,,,,,,,IFR,,,,,,,,,,,,METAR,230
KSUT 050050Z AUTO 13004KT 10SM CLR 23/19 A3010 RMK AO2 T02250187,KSUT,2024-05-05T00:50:00Z,33.9292,-78.0722,22.5,18.7,130,4,,10+,30.10,,,TRUE,TRUE,,,,,,,CLR,,,,,,,,VFR,,,,,,,,,,,,METAR,6
KRYY 050050Z 00000KT 10SM CLR 22/17 A3003 RMK AO2 LTG DSNT NW SLP159 T02220172 $,KRYY,2024-05-05T00:50:00Z,34.0146,-84.5964,22.2,17.2,0,0,,10+,30.03,1015.9,,,TRUE,TRUE,,,,,,CLR,,,,,,,,VFR,,,,,,,,,,,,METAR,306
KRWV 050050Z AUTO 13009KT 10SM BKN100 BKN120 26/20 A2985 RMK AO2 LTG DSNT W T02580200,KRWV,2024-05-05T00:50:00Z,30.5161,-96.7051,25.8,20,130,9,,10+,29.85,,,TRUE,TRUE,,,,,,,BKN,10000,BKN,12000,,,,,VFR,,,,,,,,,,,,METAR,116
KRBO 050050Z AUTO 12012G16KT 10SM CLR 26/23 A2979 RMK AO2 T02620230,KRBO,2024-05-05T00:50:00Z,27.7781,-97.6878,26.2,23,120,12,16,10+,29.79,,,TRUE,TRUE,,,,,,,CLR,,,,,,,,VFR,,,,,,,,,,,,METAR,24
KPVW 050050Z AUTO 07011KT 10SM -RA BKN016 BKN055 OVC070 13/11 A2997 RMK AO2 LTG DSNT E THRU S P0001 T01270109,KPVW,2024-05-05T00:50:00Z,34.169,-101.723,12.7,10.9,70,11,,10+,29.97,,,TRUE,TRUE,,,,,,-RA,BKN,1600,BKN,5500,OVC,7000,,,MVFR,,,,,,0.01,,,,,,METAR,1029
KPTT 050050Z AUTO 09005KT 10SM CLR 17/09 A3002 RMK AO2 T01690089,KPTT,2024-05-05T00:50:00Z,37.7069,-98.7453,16.9,8.9,90,5,,10+,30.02,,,TRUE,TRUE,,,,,,,CLR,,,,,,,,VFR,,,,,,,,,,,,METAR,594
KOPL 050050Z AUTO 16003KT 10SM CLR 24/22 A2995 RMK AO2 P0002 T02370215,KOPL,2024-05-05T00:50:00Z,30.5643,-92.1021,23.7,21.5,160,3,,10+,29.95,,,TRUE,TRUE,,,,,,,CLR,,,,,,,,VFR,,,,,,0.02,,,,,,METAR,22
KOLY 050050Z AUTO 25003KT 10SM SCT075 25/15 A2990 RMK AO2 LTG DSNT W AND NW T02520152,KOLY,2024-05-05T00:50:00Z,38.7213,-88.1799,25.2,15.2,250,3,,10+,29.90,,,TRUE,TRUE,,,,,,,SCT,7500,,,,,,,VFR,,,,,,,,,,,,METAR,144
KOLV 050050Z 23004KT 10SM CLR 23/19 A2994,KOLV,2024-05-05T00:50:00Z,34.9808,-89.7851,23,19,230,4,,10+,29.94,,,,,,,,,,,CLR,,,,,,,,VFR,,,,,,,,,,,,METAR,124
KO86 050050Z AUTO 00000KT 10SM FEW023 FEW031 BKN037 08/04 A2966 RMK A01,KO86,2024-05-05T00:50:00Z,40.9845,-122.693,8,4,0,0,,10+,29.66,,,TRUE,TRUE,,,,,,,FEW,2300,FEW,3100,BKN,3700,,,VFR,,,,,,,,,,,,METAR,729
KMRC 050050Z AUTO 00000KT 10SM CLR 21/21 A2993 RMK A01,KMRC,2024-05-05T00:50:00Z,35.5579,-87.1778,21,21,0,0,,10+,29.93,,,TRUE,TRUE,,,,,,,CLR,,,,,,,,VFR,,,,,,,,,,,,METAR,205
KMQI 050050Z AUTO 15010G14KT 10SM OVC033 20/17 A3016 RMK AO2 T02030166,KMQI,2024-05-05T00:50:00Z,35.9188,-75.6989,20.3,16.6,150,10,14,10+,30.16,,,TRUE,TRUE,,,,,,,OVC,3300,,,,,,,VFR,,,,,,,,,,,,METAR,3
KMKQ 050050Z AUTO 09013KT 9SM CLR 25/24 A2996 RMK A01,KMKQ,2024-05-05T00:50:00Z,27.5197,-90.0981,25,24,90,13,,9,29.96,,,TRUE,TRUE,,,,,,,CLR,,,,,,,,VFR,,,,,,,,,,,,METAR,40
KM54 050050Z AUTO 17004KT 10SM FEW044 FEW050 21/19 A2993 RMK A01,KM54,2024-05-05T00:50:00Z,36.1932,-86.3139,21,19,170,4,,10+,29.93,,,TRUE,TRUE,,,,,,,FEW,4400,FEW,5000,,,,,VFR,,,,,,,,,,,,METAR,168
KLAL 050050Z 14007KT 10SM VCSH SCT033 BKN075 26/18 A3002 RMK VCSH SW-NW,KLAL,2024-05-05T00:50:00Z,27.9866,-82.0193,26,18,140,7,,10+,30.02,,,,,,,,,,VCSH,SCT,3300,BKN,7500,,,,,VFR,,,,,,,,,,,,METAR,39
KK70 050050Z AUTO 08010G17KT 10SM FEW028 FEW035 FEW046 26/22 A2998 RMK AO2,KK70,2024-05-05T00:50:00Z,25.322,-80.277,26,22,80,10,17,10+,29.98,,,TRUE,TRUE,,,,,,,FEW,2800,FEW,3500,FEW,4600,,,VFR,,,,,,,,,,,,METAR,20
KJWN 050050Z 00000KT 10SM CLR 20/19 A2993,KJWN,2024-05-05T00:50:00Z,36.1852,-86.8833,20,19,0,0,,10+,29.93,,,,,,,,,,,CLR,,,,,,,,VFR,,,,,,,,,,,,METAR,149
KJTC 050050Z AUTO 25015KT 10SM CLR 20/M10 A2999 RMK AO2,KJTC,2024-05-05T00:50:00Z,34.1292,-109.309,20,-10,250,15,,10+,29.99,,,TRUE,TRUE,,,,,,,CLR,,,,,,,,VFR,,,,,,,,,,,,METAR,2148
KJQF 050050Z 00000KT 5SM BR OVC007 19/18 A3011,KJQF,2024-05-05T00:50:00Z,35.3896,-80.7074,19,18,0,0,,5,30.11,,,,,,,,,,BR,OVC,700,,,,,,,IFR,,,,,,,,,,,,METAR,204
KJNX 050050Z AUTO 00000KT 10SM BKN038 OVC046 20/20 A3010 RMK AO2,KJNX,2024-05-05T00:50:00Z,35.5369,-78.3934,20,20,0,0,,10+,30.10,,,TRUE,TRUE,,,,,,,BKN,3800,OVC,4600,,,,,VFR,,,,,,,,,,,,METAR,41
KJAU 050050Z AUTO 00000KT 10SM FEW120 19/19 A3003 RMK A01,KJAU,2024-05-05T00:50:00Z,36.3351,-84.1635,19,19,0,0,,10+,30.03,,,TRUE,TRUE,,,,,,,FEW,12000,,,,,,,VFR,,,,,,,,,,,,METAR,350
KIWA 050050Z 22010G16KT 10SM CLR 32/M01 A2971,KIWA,2024-05-05T00:50:00Z,33.3008,-111.644,32,-1,220,10,16,10+,29.71,,,,,,,,,,,CLR,,,,,,,,VFR,,,,,,,,,,,,METAR,420
KHVE 050050Z AUTO 17011KT 10SM CLR 24/M06 A2971 RMK AO2,KHVE,2024-05-05T00:50:00Z,38.418,-110.704,24,-6,170,11,,10+,29.71,,,TRUE,TRUE,,,,,,,CLR,,,,,,,,VFR,,,,,,,,,,,,METAR,1351
KHRJ 050050Z AUTO 00000KT 10SM OVC110 19/19 A3011 RMK AO2 T01930190,KHRJ,2024-05-05T00:50:00Z,35.3794,-78.7356,19.3,19,0,0,,10+,30.11,,,TRUE,TRUE,,,,,,,OVC,11000,,,,,,,VFR,,,,,,,,,,,,METAR,55
KHQZ 050050Z 00000KT 10SM OVC070 25/20 A2989,KHQZ,2024-05-05T00:50:00Z,32.7514,-96.5291,25,20,0,0,,10+,29.89,,,,,,,,,,,OVC,7000,,,,,,,VFR,,,,,,,,,,,,METAR,136
KHBV 050050Z AUTO 14009G16KT 10SM CLR 27/22 A2978 RMK AO2 T02710218,KHBV,2024-05-05T00:50:00Z,27.3516,-98.7415,27.1,21.8,140,9,16,10+,29.78,,,TRUE,TRUE,,,,,,,CLR,,,,,,,,VFR,,,,,,,,,,,,METAR,200
KGWW 050050Z AUTO 00000KT 7SM SCT050 BKN065 22/18 A3011 RMK AO2 T02150184,KGWW,2024-05-05T00:50:00Z,35.4637,-77.9604,21.5,18.4,0,0,,7,30.11,,,TRUE,TRUE,,,,,,,SCT,5000,BKN,6500,,,,,VFR,,,,,,,,,,,,METAR,40
KGPM 050050Z 09005KT 10SM SCT055 BKN070 OVC090 24/19 A2989,KGPM,2024-05-05T00:50:00Z,32.6928,-97.0485,24,19,90,5,,10+,29.89,,,,,,,,,,,SCT,5500,BKN,7000,OVC,9000,,,VFR,,,,,,,,,,,,METAR,178
KGLX 050050Z AUTO 06008KT 10SM CLR 24/23 A3000 RMK A01,KGLX,2024-05-05T00:50:00Z,28.2347,-88.9843,24,23,60,8,,10+,30.00,,,TRUE,TRUE,,,,,,,CLR,,,,,,,,VFR,,,,,,,,,,,,METAR,32
KFFA 050050Z AUTO 13007G14KT 10SM BKN034 OVC042 19/17 A3014 RMK AO2 T01880165,KFFA,2024-05-05T00:50:00Z,36.0165,-75.6739,18.8,16.5,130,7,14,10+,30.14,,,TRUE,TRUE,,,,,,,BKN,3400,OVC,4200,,,,,VFR,,,,,,,,,,,,METAR,2
KEYF 050050Z AUTO 17003KT 10SM CLR 22/18 A3010 RMK AO2 T02200176,KEYF,2024-05-05T00:50:00Z,34.6042,-78.579,22,17.6,170,3,,10+,30.10,,,TRUE,TRUE,,,,,,,CLR,,,,,,,,VFR,,,,,,,,,,,,METAR,39
KDVK 050050Z AUTO 20005KT 10SM CLR 18/16 A2996 RMK AO2,KDVK,2024-05-05T00:50:00Z,37.5764,-84.7641,18,16,200,5,,10+,29.96,,,TRUE,TRUE,,,,,,,CLR,,,,,,,,VFR,,,,,,,,,,,,METAR,309
KDAG 050050Z AUTO 25021G31KT 10SM CLR 22/03 A2974 RMK AO2 PK WND 22034/0017 SLP052 T02170033,KDAG,2024-05-05T00:50:00Z,34.8537,-116.787,21.7,3.3,250,21,31,10+,29.74,1005.2,,TRUE,TRUE,,,,,,,CLR,,,,,,,,VFR,,,,,,,,,,,,METAR,584
KCQB 050050Z AUTO 36006KT 10SM SCT110 18/14 A2999 RMK AO2 T01810142,KCQB,2024-05-05T00:50:00Z,35.7223,-96.8187,18.1,14.2,360,6,,10+,29.99,,,TRUE,TRUE,,,,,,,SCT,11000,,,,,,,VFR,,,,,,,,,,,,METAR,298
KCPC 050050Z AUTO 00000KT 10SM CLR 22/18 A3011 RMK AO2 T02210175,KCPC,2024-05-05T00:50:00Z,34.2753,-78.7146,22.1,17.5,0,0,,10+,30.11,,,TRUE,TRUE,,,,,,,CLR,,,,,,,,VFR,,,,,,,,,,,,METAR,27
KCGS 050050Z AUTO 07004KT 1 3/4SM -DZ BR OVC006 11/10 A3024 RMK AO2 P0001 T01080103,KCGS,2024-05-05T00:50:00Z,38.9806,-76.9251,10.8,10.3,70,4,,1.75,30.24,,,TRUE,TRUE,,,,,,-DZ BR,OVC,600,,,,,,,IFR,,,,,,0.01,,,,,,METAR,15
KAZE 050050Z AUTO 00000KT 10SM SCT120 23/21 A3002 RMK AO2 T02280210,KAZE,2024-05-05T00:50:00Z,31.8792,-82.6454,22.8,21,0,0,,10+,30.02,,,TRUE,TRUE,,,,,,,SCT,12000,,,,,,,VFR,,,,,,,,,,,,METAR,78
KALN 050050Z 00000KT 10SM SCT039 BKN050 BKN120 19/19 A2993,KALN,2024-05-05T00:50:00Z,38.8897,-90.0316,19,19,0,0,,10+,29.93,,,,,,,,,,,SCT,3900,BKN,5000,BKN,12000,,,VFR,,,,,,,,,,,,METAR,159
KADS 050050Z 09005KT 10SM OVC060 26/18 A2989,KADS,2024-05-05T00:50:00Z,32.9634,-96.8354,26,18,90,5,,10+,29.89,,,,,,,,,,,OVC,6000,,,,,,,VFR,,,,,,,,,,,,METAR,198
K7W6 050050Z AUTO 13011G19KT 10SM BKN028 OVC036 22/19 A3014 RMK AO2 T02220185,K7W6,2024-05-05T00:50:00Z,35.5594,-75.955,22.2,18.5,130,11,19,10+,30.14,,,TRUE,TRUE,,,,,,,BKN,2800,OVC,3600,,,,,MVFR,,,,,,,,,,,,METAR,1
K54A 050050Z AUTO 33004KT 10SM FEW060 FEW075 25/21 A3000 RMK AO2,K54A,2024-05-05T00:50:00Z,26.8601,-82.2468,25,21,330,4,,10+,30.00,,,TRUE,TRUE,,,,,,,FEW,6000,FEW,7500,,,,,VFR,,,,,,,,,,,,METAR,2
K2W6 050050Z AUTO 07003KT 10SM OVC011 12/11 A3022 RMK AO1,K2W6,2024-05-05T00:50:00Z,38.315,-76.55,12,11,70,3,,10+,30.22,,,TRUE,TRUE,,,,,,,OVC,1100,,,,,,,MVFR,,,,,,,,,,,,METAR,40
K1A5 050050Z AUTO 00000KT 5SM BR BKN004 OVC070 17/17 A3011 RMK AO2 T01710167,K1A5,2024-05-05T00:50:00Z,35.2228,-83.415,17.1,16.7,0,0,,5,30.11,,,TRUE,TRUE,,,,,,BR,BKN,400,OVC,7000,,,,,LIFR,,,,,,,,,,,,METAR,611
K19S 050050Z AUTO 10010KT 10SM SCT044 16/08 A3002 RMK AO2 T01600078,K19S,2024-05-05T00:50:00Z,37.496,-100.834,16,7.8,100,10,,10+,30.02,,,TRUE,TRUE,,,,,,,SCT,4400,,,,,,,VFR,,,,,,,,,,,,METAR,886
K10U 050050Z AUTO 23009G17KT 10SM FEW060 SCT075 OVC085 15/01 A2945 RMK AO2,K10U,2024-05-05T00:50:00Z,41.953,-116.182,15,1,230,9,17,10+,29.45,,,TRUE,TRUE,,,,,,,FEW,6000,SCT,7500,OVC,8500,,,VFR,,,,,,,,,,,,METAR,1638
K05U 050050Z AUTO 34030G37KT 10SM 17/M05 A2952 RMK A01,K05U,2024-05-05T00:50:00Z,39.6015,-116.006,17,-5,340,30,37,10+,29.52,,,TRUE,TRUE,,,,,,,,,,,,,,,VFR,,,,,,,,,,,,METAR,1813
EYVI 050050Z VRB01KT CAVOK 11/08 Q1011 NOSIG,EYVI,2024-05-05T00:50:00Z,54.634,25.286,11,8,VRB,1,,6+,29.85,,,,,,TRUE,,,,,CAVOK,,,,,,,,VFR,,,,,,,,,,,,METAR,180
EYSA 050050Z AUTO 32002KT 9999NDV NSC 07/05 Q1012,EYSA,2024-05-05T00:50:00Z,55.894,23.395,7,5,320,2,,,29.88,,,TRUE,,,,,,,,CLR,,,,,,,,,,,,,,,,,,,,METAR,135
EYPA 050050Z 05001KT CAVOK 07/05 Q1012,EYPA,2024-05-05T00:50:00Z,55.973,21.092,7,5,50,1,,6+,29.88,,,,,,,,,,,CAVOK,,,,,,,,VFR,,,,,,,,,,,,METAR,15
EYKA 050050Z 00000KT CAVOK 10/08 Q1011,EYKA,2024-05-05T00:50:00Z,54.962,24.069,10,8,0,0,,6+,29.85,,,,,,,,,,,CAVOK,,,,,,,,VFR,,,,,,,,,,,,METAR,68
EVVA 050050Z AUTO 20002KT CAVOK 04/04 Q1012,EVVA,2024-05-05T00:50:00Z,57.361,21.545,4,4,200,2,,6+,29.88,,,TRUE,,,,,,,,CAVOK,,,,,,,,VFR,,,,,,,,,,,,METAR,1
EVRA 050050Z VRB02KT CAVOK 09/03 Q1011 NOSIG,EVRA,2024-05-05T00:50:00Z,56.924,23.968,9,3,VRB,2,,6+,29.85,,,,,,TRUE,,,,,CAVOK,,,,,,,,VFR,,,,,,,,,,,,METAR,7
EVLA 050050Z AUTO VRB02KT CAVOK 06/05 Q1012,EVLA,2024-05-05T00:50:00Z,56.517,21.097,6,5,VRB,2,,6+,29.88,,,TRUE,,,,,,,,CAVOK,,,,,,,,VFR,,,,,,,,,,,,METAR,5
EVGA 050050Z 28003KT CAVOK 09/04 Q1010 NOSIG,EVGA,2024-05-05T00:50:00Z,56.778,24.854,9,4,280,3,,6+,29.82,,,,,,TRUE,,,,,CAVOK,,,,,,,,VFR,,,,,,,,,,,,METAR,61
ESUT 050050Z AUTO VRB02KT 9999 NCD M03/M04 Q1014,ESUT,2024-05-05T00:50:00Z,65.806,15.083,-3,-4,VRB,2,,6+,29.94,,,TRUE,,,,,,,,CLR,,,,,,,,VFR,,,,,,,,,,,,METAR,457
ESUP 050050Z AUTO 06003KT 020V100 9999 OVC033/// 00/M05 Q1018,ESUP,2024-05-05T00:50:00Z,67.246,23.069,0,-5,60,3,,6+,30.06,,,TRUE,,,,,,,,OVC,3300,,,,,,,VFR,,,,,,,,,,,,METAR,164
ESTL 050050Z AUTO 00000KT 6000 BR OVC032/// 11/11 Q1012,ESTL,2024-05-05T00:50:00Z,56.083,13.213,11,11,0,0,,3.73,29.88,,,TRUE,,,,,,,BR,OVC,3200,,,,,,,MVFR,,,,,,,,,,,,METAR,39
ESTA 050050Z AUTO VRB02KT 6000 VV001 08/08 Q1012,ESTA,2024-05-05T00:50:00Z,56.294,12.848,8,8,VRB,2,,3.73,29.88,,,TRUE,,,,,,,,OVX,0,,,,,,,LIFR,,,,,,,,,,,100,METAR,19
ESSV 050050Z AUTO 21005KT 9999 FEW098/// 10/05 Q1012,ESSV,2024-05-05T00:50:00Z,57.662,18.348,10,5,210,5,,6+,29.88,,,TRUE,,,,,,,,FEW,9800,,,,,,,VFR,,,,,,,,,,,,METAR,38
ESST 050050Z AUTO 00000KT 9999 NCD 06/04 Q1010,ESST,2024-05-05T00:50:00Z,60.158,12.992,6,4,0,0,,6+,29.82,,,TRUE,,,,,,,,CLR,,,,,,,,VFR,,,,,,,,,,,,METAR,110
ESSP 050050Z AUTO VRB02KT 9999 BKN059/// OVC082/// 11/09 Q1010,ESSP,2024-05-05T00:50:00Z,58.584,16.255,11,9,VRB,2,,6+,29.82,,,TRUE,,,,,,,,BKN,5900,OVC,8200,,,,,VFR,,,,,,,,,,,,METAR,3
ESSL 050050Z AUTO VRB02KT 9999 OVC130/// 12/12 Q1011,ESSL,2024-05-05T00:50:00Z,58.406,15.681,12,12,VRB,2,,6+,29.85,,,TRUE,,,,,,,,OVC,13000,,,,,,,VFR,,,,,,,,,,,,METAR,51
ESSD 050050Z AUTO 09004KT 9999 NCD 09/04 Q1011,ESSD,2024-05-05T00:50:00Z,60.422,15.515,9,4,90,4,,6+,29.85,,,TRUE,,,,,,,,CLR,,,,,,,,VFR,,,,,,,,,,,,METAR,151
ESSB 050050Z AUTO 11007KT 9999 NCD 09/03 Q1011,ESSB,2024-05-05T00:50:00Z,59.356,17.933,9,3,110,7,,6+,29.85,,,TRUE,,,,,,,,CLR,,,,,,,,VFR,,,,,,,,,,,,METAR,14
ESSA 050050Z 09007KT CAVOK 07/02 Q1011 NOSIG,ESSA,2024-05-05T00:50:00Z,59.664,17.92,7,2,90,7,,6+,29.85,,,,,,TRUE,,,,,CAVOK,,,,,,,,VFR,,,,,,,,,,,,METAR,36
ESPE 050050Z AUTO VRB01KT 9999 NCD M03/M04 Q1017,ESPE,2024-05-05T00:50:00Z,65.875,20.144,-3,-4,VRB,1,,6+,30.03,,,TRUE,,,,,,,,CLR,,,,,,,,VFR,,,,,,,,,,,,METAR,182
ESPA 050050Z AUTO 04003KT 010V080 9999 SCT036/// BKN049/// 01/M04 Q1018,ESPA,2024-05-05T00:50:00Z,65.541,22.126,1,-4,40,3,,6+,30.06,,,TRUE,,,,,,,,SCT,3600,BKN,4900,,,,,VFR,,,,,,,,,,,,METAR,12
ESOW 050050Z AUTO VRB02KT 9999 NCD 09/03 Q1011,ESOW,2024-05-05T00:50:00Z,59.595,16.638,9,3,VRB,2,,6+,29.85,,,TRUE,,,,,,,,CLR,,,,,,,,VFR,,,,,,,,,,,,METAR,7
ESOK 050050Z AUTO 22003KT 9999 FEW092/// 10/07 Q1010,ESOK,2024-05-05T00:50:00Z,59.442,13.342,10,7,220,3,,6+,29.82,,,TRUE,,,,,,,,FEW,9200,,,,,,,VFR,,,,,,,,,,,,METAR,101
ESOH 050050Z AUTO 02001KT 9999 NCD 05/03 Q1010,ESOH,2024-05-05T00:50:00Z,60.02,13.579,5,3,20,1,,6+,29.82,,,TRUE,,,,,,,,CLR,,,,,,,,VFR,,,,,,,,,,,,METAR,145
ESOE 050050Z AUTO 24006KT 1100 R01///// R19///// -DZ SCT098/// 14/09 Q1010 REUP RERA,ESOE,2024-05-05T00:50:00Z,59.229,15.046,14,9,240,6,,0.68,29.82,,,TRUE,,,,,,,RA -DZ,SCT,9800,,,,,,,LIFR,,,,,,,,,,,,METAR,57
ESNZ 050050Z AUTO 10002KT 9999 NCD 07/M04 Q1011,ESNZ,2024-05-05T00:50:00Z,63.199,14.489,7,-4,100,2,,6+,29.85,,,TRUE,,,,,,,,CLR,,,,,,,,VFR,,,,,,,,,,,,METAR,360
ESNX 050050Z AUTO 30002KT 9999 FEW041/// M02/M05 Q1016,ESNX,2024-05-05T00:50:00Z,65.592,19.283,-2,-5,300,2,,6+,30.00,,,TRUE,,,,,,,,FEW,4100,,,,,,,VFR,,,,,,,,,,,,METAR,380
ESNV 050050Z AUTO VRB01KT 9999 NCD M02/M05 Q1014,ESNV,2024-05-05T00:50:00Z,64.579,16.839,-2,-5,VRB,1,,6+,29.94,,,TRUE,,,,,,,,CLR,,,,,,,,VFR,,,,,,,,,,,,METAR,348
ESNU 050050Z 04003KT 340V080 CAVOK 03/M01 Q1016,ESNU,2024-05-05T00:50:00Z,63.789,20.285,3,-1,40,3,,6+,30.00,,,,,,,,,,,CAVOK,,,,,,,,VFR,,,,,,,,,,,,METAR,8
ESNS 050050Z AUTO 00000KT 9999 FEW078/// M01/M01 Q1017,ESNS,2024-05-05T00:50:00Z,64.625,21.077,-1,-1,0,0,,6+,30.03,,,TRUE,,,,,,,,FEW,7800,,,,,,,VFR,,,,,,,,,,,,METAR,41
ESNQ 050050Z AUTO 08005KT 4000 -SN OVC005/// M01/M02 Q1016 RESG REFZUP,ESNQ,2024-05-05T00:50:00Z,67.823,20.34,-1,-2,80,5,,2.49,30.00,,,TRUE,,,,,,,-SN UP,OVC,500,,,,,,,IFR,,,,,,,,,,,,METAR,447
ESNO 050050Z AUTO 35005KT 9999 NCD M01/M02 Q1015,ESNO,2024-05-05T00:50:00Z,63.412,18.98,-1,-2,350,5,,6+,29.97,,,TRUE,,,,,,,,CLR,,,,,,,,VFR,,,,,,,,,,,,METAR,100
ESNN 050050Z AUTO 30003KT 9999 OVC061/// 01/00 Q1014,ESNN,2024-05-05T00:50:00Z,62.532,17.436,1,0,300,3,,6+,29.94,,,TRUE,,,,,,,,OVC,6100,,,,,,,VFR,,,,,,,,,,,,METAR,4
ESNL 050050Z AUTO 00000KT 9999 NCD M02/M03 Q1015,ESNL,2024-05-05T00:50:00Z,64.552,18.711,-2,-3,0,0,,6+,29.97,,,TRUE,,,,,,,,CLR,,,,,,,,VFR,,,,,,,,,,,,METAR,220
ESNK 050050Z AUTO VRB02KT 9999 NCD 01/M00 Q1015,ESNK,2024-05-05T00:50:00Z,63.047,17.766,1,0,VRB,2,,6+,29.97,,,TRUE,,,,,,,,CLR,,,,,,,,VFR,,,,,,,,,,,,METAR,4
ESNG 050050Z AUTO 09003KT 9999 OVC014/// 00/M02 Q1017,ESNG,2024-05-05T00:50:00Z,67.133,20.81,0,-2,90,3,,6+,30.03,,,TRUE,,,,,,,,OVC,1400,,,,,,,MVFR,,,,,,,,,,,,METAR,300
ESND 050050Z AUTO 12004KT 9999 NCD 07/03 Q1011,ESND,2024-05-05T00:50:00Z,62.047,14.416,7,3,120,4,,6+,29.85,,,TRUE,,,,,,,,CLR,,,,,,,,VFR,,,,,,,,,,,,METAR,352
ESMX 050050Z AUTO 27005KT 2900 OVC001/// 10/10 Q1012,ESMX,2024-05-05T00:50:00Z,56.927,14.73,10,10,270,5,,1.8,29.88,,,TRUE,,,,,,,,OVC,100,,,,,,,LIFR,,,,,,,,,,,,METAR,176
ESMV 050050Z AUTO 24004KT 3400 BR OVC003/// 10/10 Q1012,ESMV,2024-05-05T00:50:00Z,57.29,14.134,10,10,240,4,,2.11,29.88,,,TRUE,,,,,,,BR,OVC,300,,,,,,,LIFR,,,,,,,,,,,,METAR,167
ESMT 050050Z AUTO 19003KT 1200 R01/P2000N R19/P2000N -RA VV001 11/11 Q1012,ESMT,2024-05-05T00:50:00Z,56.691,12.82,11,11,190,3,,0.75,29.88,,,TRUE,,,,,,,-RA,OVX,0,,,,,,,LIFR,,,,,,,,,,,100,METAR,24
ESMS 050050Z 12002KT 3000 R17/0900N R35/P2000N BR NSC 08/07 Q1011,ESMS,2024-05-05T00:50:00Z,55.539,13.373,8,7,120,2,,1.86,29.85,,,,,,,,,,BR,CLR,,,,,,,,IFR,,,,,,,,,,,,METAR,68
ESMQ 050050Z 00000KT CAVOK 08/08 Q1011,ESMQ,2024-05-05T00:50:00Z,56.685,16.284,8,8,0,0,,6+,29.85,,,,,,,,,,,CAVOK,,,,,,,,VFR,,,,,,,,,,,,METAR,3
ESMK 050050Z AUTO 22001KT 0200 R01/1400N R19/0700N FG FEW028/// 08/08 Q1012,ESMK,2024-05-05T00:50:00Z,55.922,14.085,8,8,220,1,,0.12,29.88,,,TRUE,,,,,,,FG,FEW,2800,,,,,,,LIFR,,,,,,,,,,,,METAR,20
ESKS 050050Z AUTO 06005KT 9999 FEW240/// 06/01 Q1009,ESKS,2024-05-05T00:50:00Z,61.165,12.834,6,1,60,5,,6+,29.79,,,TRUE,,,,,,,,FEW,24000,,,,,,,VFR,,,,,,,,,,,,METAR,503
ESKN 050050Z 11004KT 9999 -RA BKN078 10/06 Q1011,ESKN,2024-05-05T00:50:00Z,58.786,16.918,10,6,110,4,,6+,29.85,,,,,,,,,,-RA,BKN,7800,,,,,,,VFR,,,,,,,,,,,,METAR,41
ESKM 050050Z AUTO 35005KT 9999 NCD 05/05 Q1010,ESKM,2024-05-05T00:50:00Z,60.96,14.507,5,5,350,5,,6+,29.82,,,TRUE,,,,,,,,CLR,,,,,,,,VFR,,,,,,,,,,,,METAR,184
ESIB 050050Z AUTO 27006KT 9999 FEW013/// 10/09 Q1011,ESIB,2024-05-05T00:50:00Z,58.431,12.71,10,9,270,6,,6+,29.85,,,TRUE,,,,,,,,FEW,1300,,,,,,,VFR,,,,,,,,,,,,METAR,51
ESIA 050050Z AUTO 22001KT 9999 SCT140/// BKN180/// 10/09 Q1011,ESIA,2024-05-05T00:50:00Z,58.514,14.507,10,9,220,1,,6+,29.85,,,TRUE,,,,,,,,SCT,14000,BKN,18000,,,,,VFR,,,,,,,,,,,,METAR,94
ESGT 050050Z AUTO 20005KT 9999 BKN009/// 10/08 Q1011,ESGT,2024-05-05T00:50:00Z,58.314,12.347,10,8,200,5,,6+,29.85,,,TRUE,,,,,,,,BKN,900,,,,,,,IFR,,,,,,,,,,,,METAR,40
ESGP 050050Z AUTO 00000KT 5000 BR FEW018/// OVC041/// 10/09 Q1011,ESGP,2024-05-05T00:50:00Z,57.781,11.869,10,9,0,0,,3.11,29.85,,,TRUE,,,,,,,BR,FEW,1800,OVC,4100,,,,,MVFR,,,,,,,,,,,,METAR,15
ESGJ 050050Z AUTO 24003KT 5000 BR NCD 09/09 Q1011,ESGJ,2024-05-05T00:50:00Z,57.752,14.069,9,9,240,3,,3.11,29.85,,,TRUE,,,,,,,BR,CLR,,,,,,,,MVFR,,,,,,,,,,,,METAR,224
ESGG 050050Z 22001KT 3300 BR BKN034 09/08 Q1011,ESGG,2024-05-05T00:50:00Z,57.667,12.285,9,8,220,1,,2.05,29.85,,,,,,,,,,BR,BKN,3400,,,,,,,IFR,,,,,,,,,,,,METAR,152
ESDF 050050Z AUTO 30001KT 9999 NCD 06/06 Q1012,ESDF,2024-05-05T00:50:00Z,56.266,15.267,6,6,300,1,,6+,29.88,,,TRUE,,,,,,,,CLR,,,,,,,,VFR,,,,,,,,,,,,METAR,52
ESCM 050050Z AUTO 08005KT 9999 NCD 05/03 Q1011,ESCM,2024-05-05T00:50:00Z,59.899,17.589,5,3,80,5,,6+,29.85,,,TRUE,,,,,,,,CLR,,,,,,,,VFR,,,,,,,,,,,,METAR,21
ESCF 050050Z AUTO 25003KT 9999 BKN140/// BKN180/// 12/11 Q1011,ESCF,2024-05-05T00:50:00Z,58.398,15.526,12,11,250,3,,6+,29.85,,,TRUE,,,,,,,,BKN,14000,BKN,18000,,,,,VFR,,,,,,,,,,,,METAR,86
ENZV 050050Z 19004KT 5000 BR BKN004 OVC009 09/08 Q1011,ENZV,2024-05-05T00:50:00Z,58.884,5.637,9,8,190,4,,3.11,29.85,,,,,,,,,,BR,BKN,400,OVC,900,,,,,LIFR,,,,,,,,,,,,METAR,7
ENWV 050050Z AUTO 19020KT 9999NDV FEW160/// 09/08 Q1009 W///S3,ENWV,2024-05-05T00:50:00Z,56.278,3.395,9,8,190,20,,,29.79,,,TRUE,,,,,,,,FEW,16000,,,,,,,,,,,,,,,,,,,METAR,30
ENVD 050050Z AUTO 32015KT 9999 -SN BKN060/// M01/M04 Q1015,ENVD,2024-05-05T00:50:00Z,70.065,29.835,-1,-4,320,15,,6+,29.97,,,TRUE,,,,,,,-SN,BKN,6000,,,,,,,VFR,,,,,,,,,,,,METAR,39
ENVA 050050Z 11005KT 070V130 CAVOK 07/03 Q1011 RMK WIND 670FT 12005KT,ENVA,2024-05-05T00:50:00Z,63.46,10.931,7,3,110,5,,6+,29.85,,,,,,,,,,,CAVOK,,,,,,,,VFR,,,,,,,,,,,,METAR,12
ENUN 050050Z AUTO 06015KT 9999 BKN017/// 05/02 Q1024 W05/S3,ENUN,2024-05-05T00:50:00Z,-99.99,-99.99,5,2,60,15,,6+,30.24,,,TRUE,,,,,,,,BKN,1700,,,,,,,MVFR,,,,,,,,,,,,METAR,9999
ENUG 050050Z AUTO 35016KT 9999NDV /// 01/M06 Q1020 W///S4,ENUG,2024-05-05T00:50:00Z,71.305,22.253,1,-6,350,16,,,30.12,,,TRUE,,,,,,,,,,,,,,,,,,,,,,,,,,,,METAR,30
ENTO 050050Z AUTO 15004KT 3400 BR SCT003/// BKN092/// OVC100/// 10/10 Q1010,ENTO,2024-05-05T00:50:00Z,59.184,10.255,10,10,150,4,,2.11,29.82,,,TRUE,,,,,,,BR,SCT,300,BKN,9200,OVC,10000,,,IFR,,,,,,,,,,,,METAR,84
ENTC 050050Z AUTO 05006KT 9999 OVC037/// 01/M05 Q1020 RMK WIND 2600FT 04009KT,ENTC,2024-05-05T00:50:00Z,69.675,18.916,1,-5,50,6,,6+,30.12,,,TRUE,,,,,,,,OVC,3700,,,,,,,VFR,,,,,,,,,,,,METAR,9
ENSS 050050Z AUTO 02013KT 9999 -SHSN SCT008/// BKN014/// OVC028/// M01/M02 Q1014 RMK WIND 0500FT 32011KT,ENSS,2024-05-05T00:50:00Z,70.355,31.044,-1,-2,20,13,,6+,29.94,,,TRUE,,,,,,,-SHSN,SCT,800,BKN,1400,OVC,2800,,,MVFR,,,,,,,,,,,,METAR,13
ENSR 050050Z AUTO VRB02KT 9999 OVC041/// 01/M04 Q1020 RMK WIND RWY 32 26003KT WIND 1119FT 30002KT,ENSR,2024-05-05T00:50:00Z,69.789,20.955,1,-4,VRB,2,,6+,30.12,,,TRUE,,,,,,,,OVC,4100,,,,,,,VFR,,,,,,,,,,,,METAR,5
ENSL 050050Z AUTO 16017KT 9999 OVC024/// 08/08 Q1008 W06/S3,ENSL,2024-05-05T00:50:00Z,58.367,1.907,8,8,160,17,,6+,29.76,,,TRUE,,,,,,,,OVC,2400,,,,,,,MVFR,,,,,,,,,,,,METAR,50
ENSK 050050Z AUTO 01005KT 9999 OVC035/// 02/M01 Q1019,ENSK,2024-05-05T00:50:00Z,68.58,15.029,2,-1,10,5,,6+,30.09,,,TRUE,,,,,,,,OVC,3500,,,,,,,VFR,,,,,,,,,,,,METAR,3
ENSH 050050Z AUTO 36005KT 9999 NCD 02/M01 Q1018 RMK WIND 0150FT /////KT,ENSH,2024-05-05T00:50:00Z,68.245,14.669,2,-1,360,5,,6+,30.06,,,TRUE,,,,,,,,CLR,,,,,,,,VFR,,,,,,,,,,,,METAR,9
ENSG 050050Z AUTO 09002KT 9999 NCD 07/01 Q1010 RMK WIND 3806FT 08006KT,ENSG,2024-05-05T00:50:00Z,61.158,7.141,7,1,90,2,,6+,29.82,,,TRUE,,,,,,,,CLR,,,,,,,,VFR,,,,,,,,,,,,METAR,493
ENSF 050050Z AUTO 19010KT 0150 FG VV250 12/08 Q1010 W///S3,ENSF,2024-05-05T00:50:00Z,61.25,1.85,12,8,190,10,,0.09,29.82,,,TRUE,,,,,,,FG,OVX,0,,,,,,,LIFR,,,,,,,,,,,25000,METAR,15
ENSE 050050Z AUTO 17009KT 0200 FG VV250 09/08 Q1010 W///S3,ENSE,2024-05-05T00:50:00Z,61.45,2.15,9,8,170,9,,0.12,29.82,,,TRUE,,,,,,,FG,OVX,0,,,,,,,LIFR,,,,,,,,,,,25000,METAR,10
ENSD 050050Z AUTO 00000KT 9999 NCD 10/05 Q1010 RMK WIND RWY 26 VRB01KT WIND 1140FT 00000KT,ENSD,2024-05-05T00:50:00Z,61.829,6.104,10,5,0,0,,6+,29.82,,,TRUE,,,,,,,,CLR,,,,,,,,VFR,,,,,,,,,,,,METAR,61
ENSB 050050Z 11004KT 070V140 9999 FEW028 BKN034 M05/M09 Q1025 RMK WIND 1400FT 03003KT,ENSB,2024-05-05T00:50:00Z,78.246,15.466,-5,-9,110,4,,6+,30.27,,,,,,,,,,,FEW,2800,BKN,3400,,,,,VFR,,,,,,,,,,,,METAR,30
ENRY 050050Z AUTO 17004KT 9000 OVC005/// 10/09 Q1010 RERA,ENRY,2024-05-05T00:50:00Z,59.381,10.783,10,9,170,4,,5.59,29.82,,,TRUE,,,,,,,,OVC,500,,,,,,,IFR,,,,,,,,,,,,METAR,45
ENRS 050050Z AUTO 04010KT 9999 NCD 05/01 Q1017,ENRS,2024-05-05T00:50:00Z,67.527,12.104,5,1,40,10,,6+,30.03,,,TRUE,,,,,,,,CLR,,,,,,,,VFR,,,,,,,,,,,,METAR,4
ENRO 050050Z AUTO 00000KT 9999 NCD M01/M02 Q1011,ENRO,2024-05-05T00:50:00Z,62.578,11.342,-1,-2,0,0,,6+,29.85,,,TRUE,,,,,,,,CLR,,,,,,,,VFR,,,,,,,,,,,,METAR,624
ENRM 050050Z AUTO 00000KT 9999 NCD 03/02 Q1013,ENRM,2024-05-05T00:50:00Z,64.835,11.141,3,2,0,0,,6+,29.91,,,TRUE,,,,,,,,CLR,,,,,,,,VFR,,,,,,,,,,,,METAR,4
ENRA 050050Z AUTO VRB03KT 9999 NCD 01/M03 Q1015,ENRA,2024-05-05T00:50:00Z,66.364,14.302,1,-3,VRB,3,,6+,29.97,,,TRUE,,,,,,,,CLR,,,,,,,,VFR,,,,,,,,,,,,METAR,66
ENQR 050050Z AUTO 19007KT 0100 FG VV250 09/08 Q1010 WM02/S3,ENQR,2024-05-05T00:50:00Z,61.53,2.22,9,8,190,7,,0.06,29.82,,,TRUE,,,,,,,FG,OVX,0,,,,,,,LIFR,,,,,,,,,,,25000,METAR,10
ENQC 050050Z AUTO 16008KT 0100 OVC001/// 08/08 Q1010 W///S3,ENQC,2024-05-05T00:50:00Z,60.886,3.61,8,8,160,8,,0.06,29.82,,,TRUE,,,,,,,,OVC,100,,,,,,,LIFR,,,,,,,,,,,,METAR,20
ENQA 050050Z AUTO 16010KT 0100 -RA OVC001/// 08/08 Q1010 W///S2,ENQA,2024-05-05T00:50:00Z,60.645,3.725,8,8,160,10,,0.06,29.82,,,TRUE,,,,,,,-RA,OVC,100,,,,,,,LIFR,,,,,,,,,,,,METAR,90
ENOV 050050Z AUTO 00000KT 9999 NCD 06/04 Q1010 RMK WIND RWY24 24002KT WIND 2090FT 13004KT,ENOV,2024-05-05T00:50:00Z,62.18,6.078,6,4,0,0,,6+,29.82,,,TRUE,,,,,,,,CLR,,,,,,,,VFR,,,,,,,,,,,,METAR,72
ENOL 050050Z 06002KT CAVOK 06/05 Q1011,ENOL,2024-05-05T00:50:00Z,63.703,9.609,6,5,60,2,,6+,29.85,,,,,,,,,,,CAVOK,,,,,,,,VFR,,,,,,,,,,,,METAR,9
ENOA 050050Z 16013KT 0100 FG VV001 08/08 Q1010 W///S3,ENOA,2024-05-05T00:50:00Z,60.492,2.827,8,8,160,13,,0.06,29.82,,,,,,,,,,FG,OVX,0,,,,,,,LIFR,,,,,,,,,,,100,METAR,5
ENNM 050050Z AUTO 07002KT 9999 NCD 02/00 Q1013,ENNM,2024-05-05T00:50:00Z,64.471,11.57,2,0,70,2,,6+,29.91,,,TRUE,,,,,,,,CLR,,,,,,,,VFR,,,,,,,,,,,,METAR,2
ENNE 050050Z AUTO 05020KT 9999 FEW014/// 05/02 Q1015 W///S4,ENNE,2024-05-05T00:50:00Z,66.03,8.08,5,2,50,20,,6+,29.97,,,TRUE,,,,,,,,FEW,1400,,,,,,,VFR,,,,,,,,,,,,METAR,10
ENNA 050050Z AUTO 35011KT 9999 -RASN FEW032/// OVC044/// 00/M04 Q1019 RERA RMK WIND 1800FT 33020KT,ENNA,2024-05-05T00:50:00Z,70.059,24.971,0,-4,350,11,,6+,30.09,,,TRUE,,,,,,,-RA -SN,FEW,3200,OVC,4400,,,,,VFR,,,,,,,,,,,,METAR,12
ENMS 050050Z AUTO VRB02KT 9999 NCD M01/M03 Q1014 RMK WIND 412FT 00000KT,ENMS,2024-05-05T00:50:00Z,65.784,13.218,-1,-3,VRB,2,,6+,29.94,,,TRUE,,,,,,,,CLR,,,,,,,,VFR,,,,,,,,,,,,METAR,44
ENML 050050Z AUTO 01005KT 9999NDV NCD 09/07 Q1010,ENML,2024-05-05T00:50:00Z,62.744,7.262,9,7,10,5,,,29.82,,,TRUE,,,,,,,,CLR,,,,,,,,,,,,,,,,,,,,METAR,3
ENMH 050050Z AUTO 33012KT 9999 FEW015/// BKN028/// OVC064/// M01/M03 Q1017,ENMH,2024-05-05T00:50:00Z,71.029,27.829,-1,-3,330,12,,6+,30.03,,,TRUE,,,,,,,,FEW,1500,BKN,2800,OVC,6400,,,MVFR,,,,,,,,,,,,METAR,10
ENLA 050050Z AUTO 16020KT 9999NDV OVC029/// 08/08 Q1008 W///S3,ENLA,2024-05-05T00:50:00Z,57.111,2.846,8,8,160,20,,,29.76,,,TRUE,,,,,,,,OVC,2900,,,,,,,,,,,,,,,,,,,METAR,10
ENKR 050050Z AUTO 31011KT 9999 FEW039/// OVC059/// M02/M04 Q1015 RMK WIND 731FT 31015KT,ENKR,2024-05-05T00:50:00Z,69.725,29.898,-2,-4,310,11,,6+,29.97,,,TRUE,,,,,,,,FEW,3900,OVC,5900,,,,,VFR,,,,,,,,,,,,METAR,86
ENKB 050050Z AUTO 05005KT 9999 NCD 09/06 Q1010 RMK WIND 745FT 13009KT,ENKB,2024-05-05T00:50:00Z,63.109,7.816,9,6,50,5,,6+,29.82,,,TRUE,,,,,,,,CLR,,,,,,,,VFR,,,,,,,,,,,,METAR,62
ENJS 050050Z 13015KT 0100 FG VV250 08/08 Q1009 W08/S3,ENJS,2024-05-05T00:50:00Z,58.835,2.545,8,8,130,15,,0.06,29.79,,,,,,,,,,FG,OVX,0,,,,,,,LIFR,,,,,,,,,,,25000,METAR,
ENHV 050050Z AUTO 32015KT 7000 -SN FEW006/// BKN029/// OVC041/// M00/M03 Q1018,ENHV,2024-05-05T00:50:00Z,71.009,25.982,0,-3,320,15,,4.35,30.06,,,TRUE,,,,,,,-SN,FEW,600,BKN,2900,OVC,4100,,,MVFR,,,,,,,,,,,,METAR,13
ENHK 050050Z AUTO 01006KT 330V090 9999 BKN029/// OVC036/// 00/M05 Q1020,ENHK,2024-05-05T00:50:00Z,70.487,22.14,0,-5,10,6,,6+,30.12,,,TRUE,,,,,,,,BKN,2900,OVC,3600,,,,,MVFR,,,,,,,,,,,,METAR,6
ENHF 050050Z AUTO 36008KT 320V030 9999 OVC032/// M00/M06 Q1019 RMK WIND 1254FT 34021KT,ENHF,2024-05-05T00:50:00Z,70.681,23.677,0,-6,360,8,,6+,30.09,,,TRUE,,,,,,,,OVC,3200,,,,,,,VFR,,,,,,,,,,,,METAR,79
ENHE 050050Z 06026KT CAVOK 06/03 Q1014 W///S4,ENHE,2024-05-05T00:50:00Z,65.325,2.327,6,3,60,26,,6+,29.94,,,,,,,,,,,CAVOK,,,,,,,,VFR,,,,,,,,,,,,METAR,10
ENHD 050050Z AUTO 19006KT 9000 OVC001/// 09/08 Q1010,ENHD,2024-05-05T00:50:00Z,59.341,5.22,9,8,190,6,,5.59,29.82,,,TRUE,,,,,,,,OVC,100,,,,,,,LIFR,,,,,,,,,,,,METAR,22
ENGM 050050Z VRB02KT CAVOK 10/04 Q1009,ENGM,2024-05-05T00:50:00Z,60.201,11.08,10,4,VRB,2,,6+,29.79,,,,,,,,,,,CAVOK,,,,,,,,VFR,,,,,,,,,,,,METAR,204
ENGC 050050Z 17009KT 0200 FG VV002 08/08 Q1010 W07/S3,ENGC,2024-05-05T00:50:00Z,61.033,2.033,8,8,170,9,,0.12,29.82,,,,,,,,,,FG,OVX,0,,,,,,,LIFR,,,,,,,,,,,200,METAR,10
ENFL 050050Z AUTO 16005KT 9999NDV NCD 09/08 Q1010,ENFL,2024-05-05T00:50:00Z,61.582,5.02,9,8,160,5,,,29.82,,,TRUE,,,,,,,,CLR,,,,,,,,,,,,,,,,,,,,METAR,1
ENFB 050050Z AUTO 16011KT 0600 FG VV250 09/08 Q1009 W///S3,ENFB,2024-05-05T00:50:00Z,61.206,1.829,9,8,160,11,,0.37,29.79,,,TRUE,,,,,,,FG,OVX,0,,,,,,,LIFR,,,,,,,,,,,25000,METAR,10
ENEV 050050Z 36006KT 9999 FEW048 02/M00 Q1019 RMK WIND 1400FT 01013KT,ENEV,2024-05-05T00:50:00Z,68.491,16.683,2,0,360,6,,6+,30.09,,,,,,,,,,,FEW,4800,,,,,,,VFR,,,,,,,,,,,,METAR,26
ENDU 050050Z 33005KT 9999 VCSH FEW005 SCT015 BKN025 01/M02 Q1019 RMK WIND 1100FT 02005KT WIND 2200FT 02011KT,ENDU,2024-05-05T00:50:00Z,69.058,18.544,1,-2,330,5,,6+,30.09,,,,,,,,,,VCSH,FEW,500,SCT,1500,BKN,2500,,,MVFR,,,,,,,,,,,,METAR,65
ENDR 050050Z AUTO 06024KT 9999NDV NCD 08/05 Q1013 W///S4,ENDR,2024-05-05T00:50:00Z,64.349,7.78,8,5,60,24,,,29.91,,,TRUE,,,,,,,,CLR,,,,,,,,,,,,,,,,,,,,METAR,10
ENCN 050050Z AUTO 19009KT 9999 OVC058/// 10/08 Q1010,ENCN,2024-05-05T00:50:00Z,58.2,8.077,10,8,190,9,,6+,29.82,,,TRUE,,,,,,,,OVC,5800,,,,,,,VFR,,,,,,,,,,,,METAR,17
ENBV 050050Z AUTO 36016KT 9999 FEW004/// BKN024/// OVC053/// 00/M03 Q1016,ENBV,2024-05-05T00:50:00Z,70.871,29.032,0,-3,360,16,,6+,30.00,,,TRUE,,,,,,,,FEW,400,BKN,2400,OVC,5300,,,MVFR,,,,,,,,,,,,METAR,13
ENBS 050050Z AUTO 34017KT 4000 -SN FEW003/// SCT012/// BKN021/// M03/M03 Q1015,ENBS,2024-05-05T00:50:00Z,70.601,29.698,-3,-3,340,17,,2.49,29.97,,,TRUE,,,,,,,-SN,FEW,300,SCT,1200,BKN,2100,,,IFR,,,,,,,,,,,,METAR,144
ENBR 050050Z VRB02KT 8000 SCT002 OVC004 09/09 Q1011 RMK WIND 1200FT 16006KT,ENBR,2024-05-05T00:50:00Z,60.29,5.222,9,9,VRB,2,,4.97,29.85,,,,,,,,,,,SCT,200,OVC,400,,,,,LIFR,,,,,,,,,,,,METAR,49
ENBO 050050Z 08005KT CAVOK 02/M01 Q1017,ENBO,2024-05-05T00:50:00Z,67.267,14.359,2,-1,80,5,,6+,30.03,,,,,,,,,,,CAVOK,,,,,,,,VFR,,,,,,,,,,,,METAR,13
ENBN 050050Z AUTO 36006KT 9999NDV NCD 06/04 Q1013,ENBN,2024-05-05T00:50:00Z,65.458,12.216,6,4,360,6,,,29.91,,,TRUE,,,,,,,,CLR,,,,,,,,,,,,,,,,,,,,METAR,3
ENBL 050050Z AUTO 34002KT 9999 ////// 07/01 Q1010,ENBL,2024-05-05T00:50:00Z,61.391,5.76,7,1,340,2,,6+,29.82,,,TRUE,,,,,,,,,,,,,,,,VFR,,,,,,,,,,,,METAR,313
ENAT 050050Z AUTO 34008KT 9999 OVC049/// 01/M04 Q1019 RMK WIND 700FT 35014KT,ENAT,2024-05-05T00:50:00Z,69.978,23.358,1,-4,340,8,,6+,30.09,,,TRUE,,,,,,,,OVC,4900,,,,,,,VFR,,,,,,,,,,,,METAR,3
ENAN 050050Z AUTO 04018KT 9999 OVC037/// 03/M04 Q1020,ENAN,2024-05-05T00:50:00Z,69.307,16.131,3,-4,40,18,,6+,30.12,,,TRUE,,,,,,,,OVC,3700,,,,,,,VFR,,,,,,,,,,,,METAR,13
ENAL 050050Z AUTO VRB02KT 9999 NCD 04/04 Q1010,ENAL,2024-05-05T00:50:00Z,62.562,6.115,4,4,VRB,2,,6+,29.82,,,TRUE,,,,,,,,CLR,,,,,,,,VFR,,,,,,,,,,,,METAR,21
ELLX 050050Z 25007KT 9999 FEW005 08/08 Q1009 NOSIG,ELLX,2024-05-05T00:50:00Z,49.626,6.204,8,8,250,7,,6+,29.79,,,,,,TRUE,,,,,FEW,500,,,,,,,VFR,,,,,,,,,,,,METAR,374
EKYT 050050Z AUTO 08002KT 7000 BKN060/// 09/08 Q1011,EKYT,2024-05-05T00:50:00Z,57.093,9.879,9,8,80,2,,4.35,29.85,,,TRUE,,,,,,,,BKN,6000,,,,,,,MVFR,,,,,,,,,,,,METAR,2
EKVG 050050Z AUTO 12009KT 1700 BR OVC002/// 08/08 Q1007 RMK OVC000/// WIND SKEID 13016KT,EKVG,2024-05-05T00:50:00Z,62.065,-7.282,8,8,120,9,,1.06,29.73,,,TRUE,,,,,,,BR,OVC,200,,,,,,,LIFR,,,,,,,,,,,,METAR,89
EKVD 050050Z AUTO 08004KT //// ///////// 09/08 Q1010,EKVD,2024-05-05T00:50:00Z,55.436,9.329,9,8,80,4,,,29.82,,,TRUE,,,,,,,,,,,,,,,,,,,,,,,,,,,,METAR,41
EKSP 050050Z 07004 KT 9999 SCT080 BKN100 09/08 Q1010,EKSP,2024-05-05T00:50:00Z,55.225,9.263,9,8,70,4,,6+,29.82,,,,,,,,,,,SCT,8000,BKN,10000,,,,,VFR,,,,,,,,,,,,METAR,40
EKSB 050050Z AUTO 11004KT 080V140 9999 SCT071/// BKN093/// 11/09 Q1010,EKSB,2024-05-05T00:50:00Z,54.962,9.787,11,9,110,4,,6+,29.82,,,TRUE,,,,,,,,SCT,7100,BKN,9300,,,,,VFR,,,,,,,,,,,,METAR,23
EKRS 050050Z AUTO VRB02KT 8000 NCD 07/07 Q1011,EKRS,2024-05-05T00:50:00Z,55.426,11.807,7,7,VRB,2,,4.97,29.85,,,TRUE,,,,,,,,CLR,,,,,,,,MVFR,,,,,,,,,,,,METAR,34
EKRN 050050Z AUTO 00000KT 0050 R11/0250N R29/0650D -RA BCFG VV002 07/07 Q1012,EKRN,2024-05-05T00:50:00Z,55.068,14.749,7,7,0,0,,0.03,29.88,,,TRUE,,,,,,,BCFG -RA,OVX,0,,,,,,,LIFR,,,,,,,,,,,200,METAR,14
EKRK 050050Z AUTO 06002KT 1500 BR NCD 07/07 Q1011,EKRK,2024-05-05T00:50:00Z,55.587,12.136,7,7,60,2,,0.93,29.85,,,TRUE,,,,,,,BR,CLR,,,,,,,,LIFR,,,,,,,,,,,,METAR,40
EKEB 050050Z AUTO 02006KT 9999 FEW080/// BKN100/// 09/07 Q1010,EKEB,2024-05-05T00:50:00Z,55.528,8.563,9,7,20,6,,6+,29.82,,,TRUE,,,,,,,,FEW,8000,BKN,10000,,,,,VFR,,,,,,,,,,,,METAR,29
EKCH 050050Z 10002KT 5000 NSC 09/08 Q1012 TEMPO 4000 BR,EKCH,2024-05-05T00:50:00Z,55.618,12.656,9,8,100,2,,3.11,29.88,,,,,,,,,,,CLR,,,,,,,,MVFR,,,,,,,,,,,,METAR,4
EKBI 050050Z AUTO 06001KT 9999 FEW100/// 06/05 Q1011,EKBI,2024-05-05T00:50:00Z,55.74,9.152,6,5,60,1,,6+,29.85,,,TRUE,,,,,,,,FEW,10000,,,,,,,VFR,,,,,,,,,,,,METAR,67
EKAH 050050Z AUTO 10001KT 0250 R10R/0275N R28L/P1500N FG BKN000/// 10/08 Q1011,EKAH,2024-05-05T00:50:00Z,56.3,10.619,10,8,100,1,,0.16,29.85,,,TRUE,,,,,,,FG,BKN,0,,,,,,,LIFR,,,,,,,,,,,,METAR,25
EGYP 050050Z 32006KT 9999 BKN048 07/06 Q0983,EGYP,2024-05-05T00:50:00Z,-51.82,-58.448,7,6,320,6,,6+,29.03,,,,,,,,,,,BKN,4800,,,,,,,VFR,,,,,,,,,,,,METAR,70
EGYM 050050Z AUTO 12006KT 5000 BR FEW170/// 09/08 Q1008,EGYM,2024-05-05T00:50:00Z,52.648,0.567,9,8,120,6,,3.11,29.76,,,TRUE,,,,,,,BR,FEW,17000,,,,,,,MVFR,,,,,,,,,,,,METAR,25
EGYH 050050Z AUTO 18006KT 9999 FEW075/// 11/09 Q1008,EGYH,2024-05-05T00:50:00Z,52.873,0.139,11,9,180,6,,6+,29.76,,,TRUE,,,,,,,,FEW,7500,,,,,,,VFR,,,,,,,,,,,,METAR,5
EGYE 050050Z AUTO 19006KT //// BKN140/// 09/07 Q1009,EGYE,2024-05-05T00:50:00Z,52.962,-0.562,9,7,190,6,,,29.79,,,TRUE,,,,,,,,BKN,14000,,,,,,,,,,,,,,,,,,,METAR,105
EGYD 050050Z AUTO 18005KT 9999 NCD 08/07 Q1008,EGYD,2024-05-05T00:50:00Z,53.031,-0.503,8,7,180,5,,6+,29.76,,,TRUE,,,,,,,,CLR,,,,,,,,VFR,,,,,,,,,,,,METAR,65
EGXZ 050050Z AUTO 22005KT 9999 OVC048/// 10/09 Q1008,EGXZ,2024-05-05T00:50:00Z,54.205,-1.39,10,9,220,5,,6+,29.76,,,TRUE,,,,,,,,OVC,4800,,,,,,,VFR,,,,,,,,,,,,METAR,24
EGXW 050050Z AUTO 09002KT 9999 NCD 08/07 Q1008,EGXW,2024-05-05T00:50:00Z,53.175,-0.523,8,7,90,2,,6+,29.76,,,TRUE,,,,,,,,CLR,,,,,,,,VFR,,,,,,,,,,,,METAR,70
EGXV 050050Z AUTO 20001KT 7000 BR NCD 09/08 Q1008,EGXV,2024-05-05T00:50:00Z,53.876,-0.435,9,8,200,1,,4.35,29.76,,,TRUE,,,,,,,BR,CLR,,,,,,,,MVFR,,,,,,,,,,,,METAR,6
EGXT 050050Z AUTO 17003KT 9999 NCD 08/07 Q1008,EGXT,2024-05-05T00:50:00Z,52.611,-0.461,8,7,170,3,,6+,29.76,,,TRUE,,,,,,,,CLR,,,,,,,,VFR,,,,,,,,,,,,METAR,74
EGXS 050050Z AUTO 21002KT 9999 BR NCD 08/08 Q1008,EGXS,2024-05-05T00:50:00Z,53.475,0.152,8,8,210,2,,6+,29.76,,,TRUE,,,,,,,BR,CLR,,,,,,,,VFR,,,,,,,,,,,,METAR,6
EGXE 050050Z AUTO 20007KT 9999 OVC044/// 10/08 Q1007,EGXE,2024-05-05T00:50:00Z,54.297,-1.533,10,8,200,7,,6+,29.73,,,TRUE,,,,,,,,OVC,4400,,,,,,,VFR,,,,,,,,,,,,METAR,30
EGXC 050050Z 17001KT CAVOK 09/08 Q1008 RMK BLU,EGXC,2024-05-05T00:50:00Z,53.094,-0.173,9,8,170,1,,6+,29.76,,,,,,,,,,,CAVOK,,,,,,,,VFR,,,,,,,,,,,,METAR,9
EGWU 050050Z AUTO 14002KT 9999 BKN060/// 09/08 Q1009,EGWU,2024-05-05T00:50:00Z,51.549,-0.417,9,8,140,2,,6+,29.79,,,TRUE,,,,,,,,BKN,6000,,,,,,,VFR,,,,,,,,,,,,METAR,33
EGWC 050050Z AUTO 00000KT //// ///////// ///// Q////,EGWC,2024-05-05T00:50:00Z,52.64,-2.311,,,0,0,,,0.00,,,TRUE,,,,,,,,,,,,,,,,,,,,,,,,,,,,METAR,79
EGVP 050050Z AUTO 32002KT 9999 NCD 06/05 Q1008,EGVP,2024-05-05T00:50:00Z,51.139,-1.569,6,5,320,2,,6+,29.76,,,TRUE,,,,,,,,CLR,,,,,,,,VFR,,,,,,,,,,,,METAR,80
EGVO 050050Z AUTO 25001KT 9999 NCD 07/06 Q1008,EGVO,2024-05-05T00:50:00Z,51.239,-0.945,7,6,250,1,,6+,29.76,,,TRUE,,,,,,,,CLR,,,,,,,,VFR,,,,,,,,,,,,METAR,118
EGVN 050050Z 00000KT CAVOK 09/07 Q1008 NOSIG RMK BLU BLU,EGVN,2024-05-05T00:50:00Z,51.758,-1.578,9,7,0,0,,6+,29.76,,,,,,TRUE,,,,,CAVOK,,,,,,,,VFR,,,,,,,,,,,,METAR,83
EGUW 050050Z AUTO 13002KT 4400 BR NCD 09/08 Q1008,EGUW,2024-05-05T00:50:00Z,52.124,0.957,9,8,130,2,,2.73,29.76,,,TRUE,,,,,,,BR,CLR,,,,,,,,IFR,,,,,,,,,,,,METAR,86
EGUB 050050Z AUTO 16002KT 9999 FEW048/// BKN062/// 08/06 Q1008,EGUB,2024-05-05T00:50:00Z,51.62,-1.099,8,6,160,2,,6+,29.76,,,TRUE,,,,,,,,FEW,4800,BKN,6200,,,,,VFR,,,,,,,,,,,,METAR,56
EGSY 050050Z AUTO 05003KT 9999 NCD 06/05 Q1008,EGSY,2024-05-05T00:50:00Z,51.406,-3.434,6,5,50,3,,6+,29.76,,,TRUE,,,,,,,,CLR,,,,,,,,VFR,,,,,,,,,,,,METAR,46
EGSS 050050Z AUTO VRB01KT 0100 R22/0900U FG BKN001 08/08 Q1009,EGSS,2024-05-05T00:50:00Z,51.881,0.223,8,8,VRB,1,,0.06,29.79,,,TRUE,,,,,,,FG,BKN,100,,,,,,,LIFR,,,,,,,,,,,,METAR,101
EGSH 050050Z AUTO 00000KT 1100 HZ NCD 07/06 Q1009,EGSH,2024-05-05T00:50:00Z,52.676,1.283,7,6,0,0,,0.68,29.79,,,TRUE,,,,,,,HZ,CLR,,,,,,,,LIFR,,,,,,,,,,,,METAR,21
EGQS 050050Z 11002KT 9999 OVC021 10/09 Q1005 RMK WHT,EGQS,2024-05-05T00:50:00Z,57.711,-3.324,10,9,110,2,,6+,29.68,,,,,,,,,,,OVC,2100,,,,,,,MVFR,,,,,,,,,,,,METAR,6
EGQM 050050Z AUTO 17004KT 9999 BKN014/// OVC038/// 11/09 Q1006,EGQM,2024-05-05T00:50:00Z,55.421,-1.601,11,9,170,4,,6+,29.70,,,TRUE,,,,,,,,BKN,1400,OVC,3800,,,,,MVFR,,,,,,,,,,,,METAR,24
EGQL 050050Z 25004KT 7000 -DZ SCT027 SCT038 BKN045 11/10 Q1005 RMK WHT,EGQL,2024-05-05T00:50:00Z,56.377,-2.862,11,10,250,4,,4.35,29.68,,,,,,,,,,-DZ,SCT,2700,SCT,3800,BKN,4500,,,MVFR,,,,,,,,,,,,METAR,11
EGQK 050050Z AUTO 08002KT 9999 OVC030/// 10/09 Q1005,EGQK,2024-05-05T00:50:00Z,57.646,-3.563,10,9,80,2,,6+,29.68,,,TRUE,,,,,,,,OVC,3000,,,,,,,MVFR,,,,,,,,,,,,METAR,5
EGQA 050050Z AUTO 09001KT 2100 -RA SCT004/// BKN040/// 10/09 Q1004,EGQA,2024-05-05T00:50:00Z,57.825,-3.955,10,9,90,1,,1.3,29.65,,,TRUE,,,,,,,-RA,SCT,400,BKN,4000,,,,,IFR,,,,,,,,,,,,METAR,4
EGPO 050050Z AUTO 02002KT 9999 BKN044/// 11/10 Q1004,EGPO,2024-05-05T00:50:00Z,58.215,-6.329,11,10,20,2,,6+,29.65,,,TRUE,,,,,,,,BKN,4400,,,,,,,VFR,,,,,,,,,,,,METAR,10
EGPL 050050Z AUTO 22003KT 9999 BKN018/// BKN030/// BKN036/// 11/11 Q1005,EGPL,2024-05-05T00:50:00Z,57.475,-7.364,11,11,220,3,,6+,29.68,,,TRUE,,,,,,,,BKN,1800,BKN,3000,BKN,3600,,,MVFR,,,,,,,,,,,,METAR,3
EGPK 050050Z 23006KT 7000 BKN003 11/10 Q1006,EGPK,2024-05-05T00:50:00Z,55.509,-4.587,11,10,230,6,,4.35,29.70,,,,,,,,,,,BKN,300,,,,,,,LIFR,,,,,,,,,,,,METAR,14
EGPH 050050Z 26003KT 9999 OVC007 12/11 Q1006,EGPH,2024-05-05T00:50:00Z,55.952,-3.36,12,11,260,3,,6+,29.70,,,,,,,,,,,OVC,700,,,,,,,IFR,,,,,,,,,,,,METAR,29
EGPF 050050Z AUTO 23002KT 5000 HZ OVC006 11/10 Q1006,EGPF,2024-05-05T00:50:00Z,55.867,-4.433,11,10,230,2,,3.11,29.70,,,TRUE,,,,,,,HZ,OVC,600,,,,,,,IFR,,,,,,,,,,,,METAR,8
EGPE 050050Z AUTO 00000KT 3400 -RA SCT034/// BKN042/// 10/09 Q1005 RERA,EGPE,2024-05-05T00:50:00Z,57.538,-4.053,10,9,0,0,,2.11,29.68,,,TRUE,,,,,,,-RA,SCT,3400,BKN,4200,,,,,IFR,,,,,,,,,,,,METAR,7
EGPD 050050Z AUTO VRB02KT 7000 BKN027 10/10 Q1005 NOSIG,EGPD,2024-05-05T00:50:00Z,57.205,-2.205,10,10,VRB,2,,4.35,29.68,,,TRUE,,,TRUE,,,,,BKN,2700,,,,,,,MVFR,,,,,,,,,,,,METAR,65
EGPC 050050Z AUTO 16003KT 6000 OVC020/// 09/08 Q1005,EGPC,2024-05-05T00:50:00Z,58.459,-3.093,9,8,160,3,,3.73,29.68,,,TRUE,,,,,,,,OVC,2000,,,,,,,MVFR,,,,,,,,,,,,METAR,38
EGPB 050050Z AUTO 12010KT 4000 BR OVC002/// 09/08 Q1007,EGPB,2024-05-05T00:50:00Z,59.88,-1.296,9,8,120,10,,2.49,29.73,,,TRUE,,,,,,,BR,OVC,200,,,,,,,LIFR,,,,,,,,,,,,METAR,2
EGPA 050050Z AUTO 15006KT 5000 BR SCT001/// OVC018/// 09/08 Q1005,EGPA,2024-05-05T00:50:00Z,58.958,-2.905,9,8,150,6,,3.11,29.68,,,TRUE,,,,,,,BR,SCT,100,OVC,1800,,,,,MVFR,,,,,,,,,,,,METAR,15
EGOV 050050Z AUTO 19006KT 9999 BKN080/// OVC100/// 09/08 Q1008,EGOV,2024-05-05T00:50:00Z,53.252,-4.536,9,8,190,6,,6+,29.76,,,TRUE,,,,,,,,BKN,8000,OVC,10000,,,,,VFR,,,,,,,,,,,,METAR,11
EGOS 050050Z AUTO 34001KT 6000 NCD 06/06 Q1008,EGOS,2024-05-05T00:50:00Z,52.795,-2.665,6,6,340,1,,3.73,29.76,,,TRUE,,,,,,,,CLR,,,,,,,,MVFR,,,,,,,,,,,,METAR,76
EGOP 050050Z AUTO 18001KT 9999 NCD 07/05 Q1007,EGOP,2024-05-05T00:50:00Z,51.714,-4.367,7,5,180,1,,6+,29.73,,,TRUE,,,,,,,,CLR,,,,,,,,VFR,,,,,,,,,,,,METAR,8
EGOM 050050Z AUTO 24008KT 9999 OVC011/// 09/09 Q1006,EGOM,2024-05-05T00:50:00Z,55.05,-2.554,9,9,240,8,,6+,29.70,,,TRUE,,,,,,,,OVC,1100,,,,,,,MVFR,,,,,,,,,,,,METAR,286
EGNX 050050Z 00000KT CAVOK 10/08 Q1008,EGNX,2024-05-05T00:50:00Z,52.833,-1.333,10,8,0,0,,6+,29.76,,,,,,,,,,,CAVOK,,,,,,,,VFR,,,,,,,,,,,,METAR,91
EGNT 050050Z 20001KT 9999 FEW025 BKN040 10/09 Q1007,EGNT,2024-05-05T00:50:00Z,55.037,-1.702,10,9,200,1,,6+,29.73,,,,,,,,,,,FEW,2500,BKN,4000,,,,,VFR,,,,,,,,,,,,METAR,77
EGNM 050050Z VRB02KT CAVOK 09/08 Q1008,EGNM,2024-05-05T00:50:00Z,53.862,-1.665,9,8,VRB,2,,6+,29.76,,,,,,,,,,,CAVOK,,,,,,,,VFR,,,,,,,,,,,,METAR,221
EGNJ 050050Z AUTO 23004KT 9999 NCD 08/07 Q1008,EGNJ,2024-05-05T00:50:00Z,53.58,-0.341,8,7,230,4,,6+,29.76,,,TRUE,,,,,,,,CLR,,,,,,,,VFR,,,,,,,,,,,,METAR,23
EGMD 050050Z AUTO 34003KT 0650 FG NCD 06/05 Q1009,EGMD,2024-05-05T00:50:00Z,50.956,0.939,6,5,340,3,,0.4,29.79,,,TRUE,,,,,,,FG,CLR,,,,,,,,LIFR,,,,,,,,,,,,METAR,4
EGLL 050050Z AUTO 16001KT 9999 NCD 09/07 Q1009 NOSIG,EGLL,2024-05-05T00:50:00Z,51.477,-0.461,9,7,160,1,,6+,29.79,,,TRUE,,,TRUE,,,,,CLR,,,,,,,,VFR,,,,,,,,,,,,METAR,26
EGLF 050050Z AUTO 22002KT 9999 NCD 06/05 Q1009,EGLF,2024-05-05T00:50:00Z,51.28,-0.773,6,5,220,2,,6+,29.79,,,TRUE,,,,,,,,CLR,,,,,,,,VFR,,,,,,,,,,,,METAR,65
EGLC 050050Z AUTO VRB02KT 4900 HZ NCD 10/09 Q1009,EGLC,2024-05-05T00:50:00Z,51.505,0.055,10,9,VRB,2,,3.04,29.79,,,TRUE,,,,,,,HZ,CLR,,,,,,,,MVFR,,,,,,,,,,,,METAR,10
EGKK 050050Z 09003KT 5000 VCFG NSC 06/06 Q1009,EGKK,2024-05-05T00:50:00Z,51.148,-0.19,6,6,90,3,,3.11,29.79,,,,,,,,,,VCFG,CLR,,,,,,,,MVFR,,,,,,,,,,,,METAR,58
EGJJ 050050Z AUTO 15010KT 9999 BKN004/// BKN005/// OVC034/// 11/11 Q1007,EGJJ,2024-05-05T00:50:00Z,49.21,-2.194,11,11,150,10,,6+,29.73,,,TRUE,,,,,,,,BKN,400,BKN,500,OVC,3400,,,LIFR,,,,,,,,,,,,METAR,84
EGJB 050050Z 15009KT 9999 BKN003 11/11 Q1007,EGJB,2024-05-05T00:50:00Z,49.433,-2.598,11,11,150,9,,6+,29.73,,,,,,,,,,,BKN,300,,,,,,,LIFR,,,,,,,,,,,,METAR,102
EGHQ 050050Z AUTO 10012KT 9999 BKN035/// 10/08 Q1006,EGHQ,2024-05-05T00:50:00Z,50.438,-4.998,10,8,100,12,,6+,29.70,,,TRUE,,,,,,,,BKN,3500,,,,,,,VFR,,,,,,,,,,,,METAR,101
EGGW 050050Z AUTO 16003KT 8000 NCD 08/08 Q1009,EGGW,2024-05-05T00:50:00Z,51.875,-0.368,8,8,160,3,,4.97,29.79,,,TRUE,,,,,,,,CLR,,,,,,,,MVFR,,,,,,,,,,,,METAR,159
EGGP 050050Z 14002KT CAVOK 09/08 Q1008,EGGP,2024-05-05T00:50:00Z,53.334,-2.85,9,8,140,2,,6+,29.76,,,,,,,,,,,CAVOK,,,,,,,,VFR,,,,,,,,,,,,METAR,23
EGGD 050050Z AUTO 14004KT 9999 NCD 09/06 Q1008,EGGD,2024-05-05T00:50:00Z,51.383,-2.719,9,6,140,4,,6+,29.76,,,TRUE,,,,,,,,CLR,,,,,,,,VFR,,,,,,,,,,,,METAR,182
EGFF 050050Z AUTO 10005KT 9999 NCD 08/06 Q1008,EGFF,2024-05-05T00:50:00Z,51.397,-3.343,8,6,100,5,,6+,29.76,,,TRUE,,,,,,,,CLR,,,,,,,,VFR,,,,,,,,,,,,METAR,65
EGDY 050050Z AUTO 08002KT 9999 NCD 06/05 Q1008,EGDY,2024-05-05T00:50:00Z,51.006,-2.643,6,5,80,2,,6+,29.76,,,TRUE,,,,,,,,CLR,,,,,,,,VFR,,,,,,,,,,,,METAR,21
EGDR 050050Z AUTO 10013KT 1400 +DZ OVC003/// 11/11 Q1005,EGDR,2024-05-05T00:50:00Z,50.084,-5.257,11,11,100,13,,0.87,29.68,,,TRUE,,,,,,,+DZ,OVC,300,,,,,,,LIFR,,,,,,,,,,,,METAR,74
EGDM 050050Z AUTO 08005KT 9999 NCD 07/05 Q1008,EGDM,2024-05-05T00:50:00Z,51.153,-1.75,7,5,80,5,,6+,29.76,,,TRUE,,,,,,,,CLR,,,,,,,,VFR,,,,,,,,,,,,METAR,122
EGCK 050050Z AUTO VRB02KT 9999 NCD 09/07 Q1008,EGCK,2024-05-05T00:50:00Z,53.104,-4.34,9,7,VRB,2,,6+,29.76,,,TRUE,,,,,,,,CLR,,,,,,,,VFR,,,,,,,,,,,,METAR,6
EGCC 050050Z AUTO 11003KT 9999 NCD 08/07 Q1008 NOSIG,EGCC,2024-05-05T00:50:00Z,53.354,-2.275,8,7,110,3,,6+,29.76,,,TRUE,,,TRUE,,,,,CLR,,,,,,,,VFR,,,,,,,,,,,,METAR,78
EGBB 050050Z 00000KT CAVOK 06/06 Q1008,EGBB,2024-05-05T00:50:00Z,52.46,-1.758,6,6,0,0,,6+,29.76,,,,,,,,,,,CAVOK,,,,,,,,VFR,,,,,,,,,,,,METAR,91
EGAC 050050Z AUTO VRB02KT 6000 -RADZ SCT008/// BKN014/// OVC019/// //////TCU 12/11 Q1007,EGAC,2024-05-05T00:50:00Z,54.614,-5.873,12,11,VRB,2,,3.73,29.73,,,TRUE,,,,,,,-RA -DZ,SCT,800,BKN,1400,OVC,1900,,,MVFR,,,,,,,,,,,,METAR,2
EGAA 050050Z AUTO 23004KT 7000 -RA BKN035/// BKN042/// //////TCU 11/10 Q1007,EGAA,2024-05-05T00:50:00Z,54.654,-6.225,11,10,230,4,,4.35,29.73,,,TRUE,,,,,,,-RA,BKN,3500,BKN,4200,,,,,MVFR,,,,,,,,,,,,METAR,65
EFVA 050050Z AUTO 36004KT CAVOK 01/M01 Q1015,EFVA,2024-05-05T00:50:00Z,63.051,21.762,1,-1,360,4,,6+,29.97,,,TRUE,,,,,,,,CAVOK,,,,,,,,VFR,,,,,,,,,,,,METAR,4
EFUT 050050Z AUTO 01007KT CAVOK 05/M01 Q1010,EFUT,2024-05-05T00:50:00Z,60.896,26.938,5,-1,10,7,,6+,29.82,,,TRUE,,,,,,,,CAVOK,,,,,,,,VFR,,,,,,,,,,,,METAR,104
EFTU 050050Z AUTO 02003KT CAVOK 05/M01 Q1012,EFTU,2024-05-05T00:50:00Z,60.514,22.263,5,-1,20,3,,6+,29.88,,,TRUE,,,,,,,,CAVOK,,,,,,,,VFR,,,,,,,,,,,,METAR,47
EFTP 050050Z AUTO 05003KT CAVOK 04/M01 Q1012,EFTP,2024-05-05T00:50:00Z,61.419,23.616,4,-1,50,3,,6+,29.88,,,TRUE,,,,,,,,CAVOK,,,,,,,,VFR,,,,,,,,,,,,METAR,111
EFSI 050050Z AUTO 34003KT CAVOK M02/M04 Q1014,EFSI,2024-05-05T00:50:00Z,62.693,22.83,-2,-4,340,3,,6+,29.94,,,TRUE,,,,,,,,CAVOK,,,,,,,,VFR,,,,,,,,,,,,METAR,90
EFSA 050050Z AUTO 01008KT CAVOK 03/M00 Q1010,EFSA,2024-05-05T00:50:00Z,61.943,28.945,3,0,10,8,,6+,29.82,,,TRUE,,,,,,,,CAVOK,,,,,,,,VFR,,,,,,,,,,,,METAR,90
EFRO 050050Z AUTO 01008KT 330V030 9999 OVC031 M01/M07 Q1016,EFRO,2024-05-05T00:50:00Z,66.562,25.829,-1,-7,10,8,,6+,30.00,,,TRUE,,,,,,,,OVC,3100,,,,,,,VFR,,,,,,,,,,,,METAR,201
EFPO 050050Z AUTO 35003KT 9999 //////CB 03/M02 Q1014,EFPO,2024-05-05T00:50:00Z,61.462,21.8,3,-2,350,3,,6+,29.94,,,TRUE,,,,,,,,,,,,,,,,VFR,,,,,,,,,,,,METAR,10
EFOU 050050Z AUTO 36006KT 9999 BKN034 00/M03 Q1015,EFOU,2024-05-05T00:50:00Z,64.93,25.355,0,-3,360,6,,6+,29.97,,,TRUE,,,,,,,,BKN,3400,,,,,,,VFR,,,,,,,,,,,,METAR,15
EFMI 050050Z AUTO 33003KT 290V030 CAVOK 03/M01 Q1011,EFMI,2024-05-05T00:50:00Z,61.687,27.201,3,-1,330,3,,6+,29.85,,,TRUE,,,,,,,,CAVOK,,,,,,,,VFR,,,,,,,,,,,,METAR,99
EFMA 050050Z AUTO VRB02KT CAVOK 04/01 Q1012,EFMA,2024-05-05T00:50:00Z,60.125,19.903,4,1,VRB,2,,6+,29.88,,,TRUE,,,,,,,,CAVOK,,,,,,,,VFR,,,,,,,,,,,,METAR,6
EFLP 050050Z AUTO 02006KT 340V050 CAVOK 05/M00 Q1010,EFLP,2024-05-05T00:50:00Z,61.044,28.151,5,0,20,6,,6+,29.82,,,TRUE,,,,,,,,CAVOK,,,,,,,,VFR,,,,,,,,,,,,METAR,102
EFKU 050050Z AUTO 03003KT 340V070 9999 OVC036 03/M00 Q1012,EFKU,2024-05-05T00:50:00Z,63.008,27.799,3,0,30,3,,6+,29.88,,,TRUE,,,,,,,,OVC,3600,,,,,,,VFR,,,,,,,,,,,,METAR,92
EFKT 050050Z AUTO 35006KT 9999 OVC037 M01/M09 Q1017,EFKT,2024-05-05T00:50:00Z,67.701,24.847,-1,-9,350,6,,6+,30.03,,,TRUE,,,,,,,,OVC,3700,,,,,,,VFR,,,,,,,,,,,,METAR,190
EFKS 050050Z AUTO 36006KT 330V040 9999 OVC034 M02/M08 Q1014,EFKS,2024-05-05T00:50:00Z,65.992,29.236,-2,-8,360,6,,6+,29.94,,,TRUE,,,,,,,,OVC,3400,,,,,,,VFR,,,,,,,,,,,,METAR,270
EFKK 050050Z AUTO 35006KT CAVOK M03/M03 Q1015,EFKK,2024-05-05T00:50:00Z,63.721,23.143,-3,-3,350,6,,6+,29.97,,,TRUE,,,,,,,,CAVOK,,,,,,,,VFR,,,,,,,,,,,,METAR,25
EFKI 050050Z AUTO 03009KT 9999 -SHSN BKN012 OVC029 01/M01 Q1013,EFKI,2024-05-05T00:50:00Z,64.283,27.673,1,-1,30,9,,6+,29.91,,,TRUE,,,,,,,-SHSN,BKN,1200,OVC,2900,,,,,MVFR,,,,,,,,,,,,METAR,132
EFKE 050050Z AUTO 02005KT CAVOK M01/M04 Q1017,EFKE,2024-05-05T00:50:00Z,65.784,24.579,-1,-4,20,5,,6+,30.03,,,TRUE,,,,,,,,CAVOK,,,,,,,,VFR,,,,,,,,,,,,METAR,15
EFJY 050050Z AUTO 29003KT 260V320 CAVOK 00/M03 Q1012,EFJY,2024-05-05T00:50:00Z,62.404,25.675,0,-3,290,3,,6+,29.88,,,TRUE,,,,,,,,CAVOK,,,,,,,,VFR,,,,,,,,,,,,METAR,139
EFJO 050050Z AUTO 01007KT 320V050 9999 OVC015 02/M02 Q1011,EFJO,2024-05-05T00:50:00Z,62.66,29.611,2,-2,10,7,,6+,29.85,,,TRUE,,,,,,,,OVC,1500,,,,,,,MVFR,,,,,,,,,,,,METAR,118
EFIV 050050Z AUTO 33007KT 9999 -SN NSC M02/M05 Q1017,EFIV,2024-05-05T00:50:00Z,68.607,27.405,-2,-5,330,7,,6+,30.03,,,TRUE,,,,,,,-SN,CLR,,,,,,,,VFR,,,,,,,,,,,,METAR,145
EFHK 050050Z 36009KT CAVOK 08/01 Q1011 NOSIG,EFHK,2024-05-05T00:50:00Z,60.327,24.957,8,1,360,9,,6+,29.85,,,,,,TRUE,,,,,CAVOK,,,,,,,,VFR,,,,,,,,,,,,METAR,56
EFHA 050050Z AUTO 34005KT CAVOK 02/M02 Q1012,EFHA,2024-05-05T00:50:00Z,61.855,24.805,2,-2,340,5,,6+,29.88,,,TRUE,,,,,,,,CAVOK,,,,,,,,VFR,,,,,,,,,,,,METAR,144
EFET 050050Z AUTO 05007KT 9999 OVC041 M02/M07 Q1017,EFET,2024-05-05T00:50:00Z,68.363,23.424,-2,-7,50,7,,6+,30.03,,,TRUE,,,,,,,,OVC,4100,,,,,,,VFR,,,,,,,,,,,,METAR,300
EETU 050050Z AUTO 27006KT 9999 NCD 07/02 Q1008,EETU,2024-05-05T00:50:00Z,58.307,26.691,7,2,270,6,,6+,29.76,,,TRUE,,,,,,,,CLR,,,,,,,,VFR,,,,,,,,,,,,METAR,67
EETN 050050Z 01007KT 340V040 CAVOK 10/M00 Q1010,EETN,2024-05-05T00:50:00Z,59.413,24.801,10,0,10,7,,6+,29.82,,,,,,,,,,,CAVOK,,,,,,,,VFR,,,,,,,,,,,,METAR,41
EEPU 050050Z AUTO 31005KT 9999 NCD 07/03 Q1010,EEPU,2024-05-05T00:50:00Z,58.419,24.473,7,3,310,5,,6+,29.82,,,TRUE,,,,,,,,CLR,,,,,,,,VFR,,,,,,,,,,,,METAR,13
EEKE 050050Z AUTO 31005KT 270V340 9999NDV NCD 07/04 Q1011,EEKE,2024-05-05T00:50:00Z,58.23,22.509,7,4,310,5,,,29.85,,,TRUE,,,,,,,,CLR,,,,,,,,,,,,,,,,,,,,METAR,4
EEEI 050050Z AUTO 35003KT 310V020 9999 FEW002/// 06/03 Q1010,EEEI,2024-05-05T00:50:00Z,59.26,24.209,6,3,350,3,,6+,29.82,,,TRUE,,,,,,,,FEW,200,,,,,,,VFR,,,,,,,,,,,,METAR,19
EDXW 050050Z AUTO 07008KT 9999 // OVC065/// 14/10 Q1010,EDXW,2024-05-05T00:50:00Z,54.913,8.341,14,10,70,8,,6+,29.82,,,TRUE,,,,,,,,OVC,6500,,,,,,,VFR,,,,,,,,,,,,METAR,8
EDWE 050050Z AUTO 16005KT 130V200 8000 // FEW029/// BKN039/// OVC048/// 11/10 Q1008,EDWE,2024-05-05T00:50:00Z,53.388,7.229,11,10,160,5,,4.97,29.76,,,TRUE,,,,,,,,FEW,2900,BKN,3900,OVC,4800,,,MVFR,,,,,,,,,,,,METAR,
EDVK 050050Z AUTO 14009KT 9999 // FEW018/// BKN024/// BKN049/// 12/10 Q1007,EDVK,2024-05-05T00:50:00Z,51.421,9.388,12,10,140,9,,6+,29.73,,,TRUE,,,,,,,,FEW,1800,BKN,2400,BKN,4900,,,MVFR,,,,,,,,,,,,METAR,262
EDVE 050050Z AUTO 09005KT 9999 OVC079/// 13/09 Q1008,EDVE,2024-05-05T00:50:00Z,52.319,10.558,13,9,90,5,,6+,29.76,,,TRUE,,,,,,,,OVC,7900,,,,,,,VFR,,,,,,,,,,,,METAR,83
EDTY 050050Z AUTO 22005KT 9999 // BKN079/// OVC100/// 15/07 Q1011,EDTY,2024-05-05T00:50:00Z,49.118,9.784,15,7,220,5,,6+,29.85,,,TRUE,,,,,,,,BKN,7900,OVC,10000,,,,,VFR,,,,,,,,,,,,METAR,398
EDTL 050050Z AUTO 18011KT 150V210 9999 // SCT062/// 14/12 Q1011,EDTL,2024-05-05T00:50:00Z,48.369,7.828,14,12,180,11,,6+,29.85,,,TRUE,,,,,,,,SCT,6200,,,,,,,VFR,,,,,,,,,,,,METAR,152
EDSB 050050Z AUTO 21009KT 9999 FEW044/// OVC073/// 14/13 Q1011,EDSB,2024-05-05T00:50:00Z,48.779,8.081,14,13,210,9,,6+,29.85,,,TRUE,,,,,,,,FEW,4400,OVC,7300,,,,,VFR,,,,,,,,,,,,METAR,122
EDQM 050050Z AUTO VRB02KT 9999 // FEW110/// 08/07 Q1011,EDQM,2024-05-05T00:50:00Z,50.289,11.86,8,7,VRB,2,,6+,29.85,,,TRUE,,,,,,,,FEW,11000,,,,,,,VFR,,,,,,,,,,,,METAR,578
EDNY 050050Z AUTO 36002KT 9999 // BKN100/// BKN140/// 10/09 Q1013,EDNY,2024-05-05T00:50:00Z,47.671,9.511,10,9,360,2,,6+,29.91,,,TRUE,,,,,,,,BKN,10000,BKN,14000,,,,,VFR,,,,,,,,,,,,METAR,411
EDMO 050050Z AUTO 17002KT 9999 // BKN210/// 08/07 Q1012,EDMO,2024-05-05T00:50:00Z,48.081,11.283,8,7,170,2,,6+,29.88,,,TRUE,,,,,,,,BKN,21000,,,,,,,VFR,,,,,,,,,,,,METAR,587
EDMA 050050Z AUTO VRB02KT 9999 // FEW092/// BKN200/// 11/09 Q1012,EDMA,2024-05-05T00:50:00Z,48.425,10.932,11,9,VRB,2,,6+,29.88,,,TRUE,,,,,,,,FEW,9200,BKN,20000,,,,,VFR,,,,,,,,,,,,METAR,462
EDLW 050050Z AUTO 21001KT 6000 // FEW001/// BKN055/// OVC068/// 10/10 Q1007,EDLW,2024-05-05T00:50:00Z,51.518,7.612,10,10,210,1,,3.73,29.73,,,TRUE,,,,,,,,FEW,100,BKN,5500,OVC,6800,,,MVFR,,,,,,,,,,,,METAR,122
EDLV 050050Z AUTO 29002KT 4500 // FEW002/// BKN010/// OVC030/// 11/10 Q1008,EDLV,2024-05-05T00:50:00Z,51.602,6.142,11,10,290,2,,2.8,29.76,,,TRUE,,,,,,,,FEW,200,BKN,1000,OVC,3000,,,IFR,,,,,,,,,,,,METAR,27
EDLP 050050Z 17004KT CAVOK 12/10 Q1007,EDLP,2024-05-05T00:50:00Z,51.614,8.616,12,10,170,4,,6+,29.73,,,,,,,,,,,CAVOK,,,,,,,,VFR,,,,,,,,,,,,METAR,211
EDLN 050050Z AUTO 18003KT 090V220 4300 // BKN003/// BKN047/// 10/10 Q1008,EDLN,2024-05-05T00:50:00Z,51.23,6.504,10,10,180,3,,2.67,29.76,,,TRUE,,,,,,,,BKN,300,BKN,4700,,,,,LIFR,,,,,,,,,,,,METAR,38
EDJA 050050Z AUTO 15005KT 9999 // SCT170/// BKN200/// 09/06 Q1013,EDJA,2024-05-05T00:50:00Z,47.989,10.239,9,6,150,5,,6+,29.91,,,TRUE,,,,,,,,SCT,17000,BKN,20000,,,,,VFR,,,,,,,,,,,,METAR,625
EDHL 050050Z AUTO 09005KT 9999 // SCT037/// SCT061/// BKN140/// 13/12 Q1009,EDHL,2024-05-05T00:50:00Z,53.805,10.719,13,12,90,5,,6+,29.79,,,TRUE,,,,,,,,SCT,3700,SCT,6100,BKN,14000,,,VFR,,,,,,,,,,,,METAR,13
EDHK 050050Z AUTO 07004KT 9999 // BKN051/// OVC059/// 12/10 Q1010,EDHK,2024-05-05T00:50:00Z,54.376,10.143,12,10,70,4,,6+,29.82,,,TRUE,,,,,,,,BKN,5100,OVC,5900,,,,,VFR,,,,,,,,,,,,METAR,24
EDHI 050050Z AUTO 08008KT 9999 // FEW074/// OVC140/// 14/12 Q1008,EDHI,2024-05-05T00:50:00Z,53.536,9.837,14,12,80,8,,6+,29.76,,,TRUE,,,,,,,,FEW,7400,OVC,14000,,,,,VFR,,,,,,,,,,,,METAR,5
EDGS 050050Z AUTO 23011KT 9999 // OVC003/// 09/09 Q1008,EDGS,2024-05-05T00:50:00Z,50.708,8.083,9,9,230,11,,6+,29.76,,,TRUE,,,,,,,,OVC,300,,,,,,,LIFR,,,,,,,,,,,,METAR,595
EDFM 050050Z AUTO 18007KT 140V230 9999 // OVC061/// 14/12 Q1010,EDFM,2024-05-05T00:50:00Z,49.474,8.515,14,12,180,7,,6+,29.82,,,TRUE,,,,,,,,OVC,6100,,,,,,,VFR,,,,,,,,,,,,METAR,94
EDDW 050050Z AUTO 10005KT 070V130 9999 -RA FEW047 12/10 Q1007,EDDW,2024-05-05T00:50:00Z,53.047,8.787,12,10,100,5,,6+,29.73,,,TRUE,,,,,,,-RA,FEW,4700,,,,,,,VFR,,,,,,,,,,,,METAR,5
EDDV 050050Z AUTO VRB01KT 9999 -RA FEW001 BKN044 12/11 Q1008 RERA,EDDV,2024-05-05T00:50:00Z,52.466,9.68,12,11,VRB,1,,6+,29.76,,,TRUE,,,,,,,-RA,FEW,100,BKN,4400,,,,,VFR,,,,,,,,,,,,METAR,53
EDDS 050050Z AUTO 24007KT 9999 FEW043 15/07 Q1011,EDDS,2024-05-05T00:50:00Z,48.69,9.222,15,7,240,7,,6+,29.85,,,TRUE,,,,,,,,FEW,4300,,,,,,,VFR,,,,,,,,,,,,METAR,374
EDDR 050050Z AUTO 23008KT 9999 -DZ BKN006 BKN020 OVC024 11/10 Q1010 RERA,EDDR,2024-05-05T00:50:00Z,49.213,7.108,11,10,230,8,,6+,29.82,,,TRUE,,,,,,,-DZ,BKN,600,BKN,2000,OVC,2400,,,IFR,,,,,,,,,,,,METAR,317
EDDP 050050Z AUTO 15008KT CAVOK 12/10 Q1010 NOSIG,EDDP,2024-05-05T00:50:00Z,51.435,12.24,12,10,150,8,,6+,29.82,,,TRUE,,,TRUE,,,,,CAVOK,,,,,,,,VFR,,,,,,,,,,,,METAR,129
EDDN 050050Z AUTO 12003KT 100V160 CAVOK 13/08 Q1011,EDDN,2024-05-05T00:50:00Z,49.503,11.055,13,8,120,3,,6+,29.85,,,TRUE,,,,,,,,CAVOK,,,,,,,,VFR,,,,,,,,,,,,METAR,312
EDDM 050050Z AUTO VRB02KT 9000 4400 BR NSC 07/07 Q1012 TEMPO 4000 BCFG,EDDM,2024-05-05T00:50:00Z,48.348,11.813,7,7,VRB,2,,5.59,29.88,,,TRUE,,,,,,,BR,CLR,,,,,,,,VFR,,,,,,,,,,,,METAR,445
EDDL 050050Z AUTO 19006KT 6000 BKN005 BKN044 11/11 Q1007 TEMPO SCT005 BKN010,EDDL,2024-05-05T00:50:00Z,51.296,6.769,11,11,190,6,,3.73,29.73,,,TRUE,,,,,,,,BKN,500,BKN,4400,,,,,IFR,,,,,,,,,,,,METAR,37
EDDK 050050Z AUTO 18005KT CAVOK 10/10 Q1008 NOSIG,EDDK,2024-05-05T00:50:00Z,50.865,7.157,10,10,180,5,,6+,29.76,,,TRUE,,,TRUE,,,,,CAVOK,,,,,,,,VFR,,,,,,,,,,,,METAR,92
EDDH 050050Z AUTO 06006KT 9999 VCSH FEW018 SCT043 FEW///CB 13/12 Q1008 RESHRA NOSIG,EDDH,2024-05-05T00:50:00Z,53.633,9.988,13,12,60,6,,6+,29.76,,,TRUE,,,TRUE,,,,VCSH,FEW,1800,SCT,4300,,,,,VFR,,,,,,,,,,,,METAR,8
EDDG 050050Z AUTO VRB01KT 7000 BKN005 BKN038 11/11 Q1007 BECMG SCT005,EDDG,2024-05-05T00:50:00Z,52.135,7.697,11,11,VRB,1,,4.35,29.73,,,TRUE,,,,,,,,BKN,500,BKN,3800,,,,,IFR,,,,,,,,,,,,METAR,46
EDDF 050050Z AUTO 18010KT 9999 BKN021 BKN031 OVC044 14/11 Q1009 NOSIG,EDDF,2024-05-05T00:50:00Z,50.045,8.598,14,11,180,10,,6+,29.79,,,TRUE,,,TRUE,,,,,BKN,2100,BKN,3100,OVC,4400,,,MVFR,,,,,,,,,,,,METAR,113
EDDE 050050Z AUTO 18007KT CAVOK 12/09 Q1009 NOSIG,EDDE,2024-05-05T00:50:00Z,50.983,10.961,12,9,180,7,,6+,29.79,,,TRUE,,,TRUE,,,,,CAVOK,,,,,,,,VFR,,,,,,,,,,,,METAR,314
EDDC 050050Z AUTO 20002KT CAVOK 11/11 Q1011 NOSIG,EDDC,2024-05-05T00:50:00Z,51.128,13.7543,11,11,200,2,,6+,29.85,,,TRUE,,,TRUE,,,,,CAVOK,,,,,,,,VFR,,,,,,,,,,,,METAR,227
EDDB 050050Z AUTO 09004KT 050V120 9000 FEW039 14/13 Q1010 RETSRA NOSIG,EDDB,2024-05-05T00:50:00Z,52.3807,13.5306,14,13,90,4,,5.59,29.82,,,TRUE,,,TRUE,,,,,FEW,3900,,,,,,,VFR,,,,,,,,,,,,METAR,48
EDBC 050050Z AUTO 15007KT 9999 // FEW081/// BKN210/// 11/09 Q1010,EDBC,2024-05-05T00:50:00Z,51.856,11.42,11,9,150,7,,6+,29.82,,,TRUE,,,,,,,,FEW,8100,BKN,21000,,,,,VFR,,,,,,,,,,,,METAR,178
EDAH 050050Z AUTO 06005KT 5000 // FEW120/// 10/10 Q1011,EDAH,2024-05-05T00:50:00Z,53.879,14.152,10,10,60,5,,3.11,29.85,,,TRUE,,,,,,,,FEW,12000,,,,,,,MVFR,,,,,,,,,,,,METAR,22
EDAC 050050Z AUTO 15004KT 9999 // FEW170/// 09/08 Q1010,EDAC,2024-05-05T00:50:00Z,50.982,12.506,9,8,150,4,,6+,29.82,,,TRUE,,,,,,,,FEW,17000,,,,,,,VFR,,,,,,,,,,,,METAR,193
EBOS 050050Z 18004KT 5000 MIFG BR FEW025 07/07 Q1009 TEMPO 2000 BR,EBOS,2024-05-05T00:50:00Z,51.199,2.862,7,7,180,4,,3.11,29.79,,,,,,,,,,MIFG BR,FEW,2500,,,,,,,MVFR,,,,,,,,,,,,METAR,5
EBLG 050050Z 28008KT 1500 BR FEW001 08/08 Q1009 TEMPO 0500 FG BKN001,EBLG,2024-05-05T00:50:00Z,50.637,5.443,8,8,280,8,,0.93,29.79,,,,,,,,,,BR,FEW,100,,,,,,,LIFR,,,,,,,,,,,,METAR,187
EBCI 050050Z 22005KT 0500 R24/1200U FG SCT001 BKN002 08/07 Q1009 TEMPO 0200 FG BKN001,EBCI,2024-05-05T00:50:00Z,50.459,4.454,8,7,220,5,,0.31,29.79,,,,,,,,,,FG,SCT,100,BKN,200,,,,,LIFR,,,,,,,,,,,,METAR,176
EBBR 050050Z 23004KT 9999 FEW011 09/09 Q1009 NOSIG,EBBR,2024-05-05T00:50:00Z,50.896,4.526,9,9,230,4,,6+,29.79,,,,,,TRUE,,,,,FEW,1100,,,,,,,VFR,,,,,,,,,,,,METAR,49
EBAW 050050Z AUTO VRB02KT 9999 // VV/// 10/09 Q1009,EBAW,2024-05-05T00:50:00Z,51.189,4.46,10,9,VRB,2,,6+,29.79,,,TRUE,,,,,,,,OVX,0,,,,,,,VFR,,,,,,,,,,,,METAR,7
BGSF 050050Z AUTO 11004KT 070V150 9999NDV BKN041/// M06/M14 Q1024,BGSF,2024-05-05T00:50:00Z,67.013,-50.718,-6,-14,110,4,,,30.24,,,TRUE,,,,,,,,BKN,4100,,,,,,,,,,,,,,,,,,,METAR,75
BGKK 050050Z AUTO 10009KT 9999NDV FEW070/// BKN094/// M01/M04 Q1007,BGKK,2024-05-05T00:50:00Z,65.575,-37.133,-1,-4,100,9,,,29.73,,,TRUE,,,,,,,,FEW,7000,BKN,9400,,,,,,,,,,,,,,,,,METAR,37
BGJN 050050Z AUTO 14004KT 8000NDV -SN OVC019/// M07/M09 Q1024,BGJN,2024-05-05T00:50:00Z,69.24,-51.064,-7,-9,140,4,,,30.24,,,TRUE,,,,,,,-SN,OVC,1900,,,,,,,,,,,,,,,,,,,METAR,22
BGGH 050050Z AUTO 02026KT 9999 NCD M05/M14 Q1020,BGGH,2024-05-05T00:50:00Z,64.191,-51.677,-5,-14,20,26,,6+,30.12,,,TRUE,,,,,,,,CLR,,,,,,,,VFR,,,,,,,,,,,,METAR,76
MMZH 050049Z 24006KT 6SM SKC 27/22 A2976 RMK HZY ISOL CI,MMZH,2024-05-05T00:49:00Z,17.605,-101.464,27,22,240,6,,6,29.76,,,,,,,,,,,SKC,,,,,,,,VFR,,,,,,,,,,,,METAR,9
MMDO 050049Z 23009KT 12SM FEW100 BKN240 30/M11 A3003 RMK 8/072,MMDO,2024-05-05T00:49:00Z,24.124,-104.532,30,-11,230,9,,12,30.03,,,,,,,,,,,FEW,10000,BKN,24000,,,,,VFR,,,,,,,,,,,,METAR,1863
KULM 050049Z AUTO 32004KT 10SM CLR 13/04 A3002 RMK AO2,KULM,2024-05-05T00:49:00Z,44.3228,-94.5024,13,4,320,4,,10+,30.02,,,TRUE,TRUE,,,,,,,CLR,,,,,,,,VFR,,,,,,,,,,,,METAR,305
KTRK 050049Z 16004KT 4SM BR SCT008 BKN025 BKN033 OVC150 M02/M03 A2966,KTRK,2024-05-05T00:49:00Z,39.3154,-120.137,-2,-3,160,4,,4,29.66,,,,,,,,,,BR,SCT,800,BKN,2500,BKN,3300,OVC,15000,MVFR,,,,,,,,,,,,METAR,1800
KRHP 050049Z AUTO 00000KT 10SM CLR 18/17 A3007 RMK AO2 T01800166,KRHP,2024-05-05T00:49:00Z,35.1939,-83.8618,18,16.6,0,0,,10+,30.07,,,TRUE,TRUE,,,,,,,CLR,,,,,,,,VFR,,,,,,,,,,,,METAR,515
KFME 050049Z AUTO 10004KT 2SM OVC005 10/10 A3026 RMK AO1,KFME,2024-05-05T00:49:00Z,39.086,-76.757,10,10,100,4,,2,30.26,,,TRUE,TRUE,,,,,,,OVC,500,,,,,,,IFR,,,,,,,,,,,,METAR,43
KBKB 050049Z AUTO 00000KT 10SM CLR 24/22 A2992 RMK AO2 SLP158 T02390217,KBKB,2024-05-05T00:49:00Z,31.022,-92.911,23.9,21.7,0,0,,10+,29.92,1015.8,,TRUE,TRUE,,,,,,,CLR,,,,,,,,VFR,,,,,,,,,,,,METAR,74
KANE 050049Z 30006KT 10SM SCT065 16/02 A2997,KANE,2024-05-05T00:49:00Z,45.1426,-93.2127,16,2,300,6,,10+,29.97,,,,,,,,,,,SCT,6500,,,,,,,VFR,,,,,,,,,,,,METAR,276
MMPQ 050048Z 00000KT 6SM SKC 36/21 A2960 RMK HZY MSGTX MMMX,MMPQ,2024-05-05T00:48:00Z,17.534,-92.017,36,21,0,0,,6,29.60,,,,,,,,,,,SKC,,,,,,,,VFR,,,,,,,,,,,,METAR,48
KJDN 050048Z AUTO 11007KT 16/M05 A2986 RMK AO1 SLP125 T01561050,KJDN,2024-05-05T00:48:00Z,47.3259,-106.949,15.6,-5,110,7,,,29.86,1012.5,,TRUE,TRUE,,,,,,,,,,,,,,,,,,,,,,,,,,,METAR,802
KASG 050048Z 00000KT 10SM CLR 21/21 A2997,KASG,2024-05-05T00:48:00Z,36.1802,-94.1176,21,21,0,0,,10+,29.97,,,,,,,,,,,CLR,,,,,,,,VFR,,,,,,,,,,,,METAR,410
KAEG 050048Z 03008KT 10SM BKN110 21/M02 A2995,KAEG,2024-05-05T00:48:00Z,35.15,-106.793,21,-2,30,8,,10+,29.95,,,,,,,,,,,BKN,11000,,,,,,,VFR,,,,,,,,,,,,METAR,1771
RJOP 050047Z 16019G29KT 9999 FEW012 SCT025 BKN/// 22/15 Q1021 RMK 1CU012 3CU025 A3018,RJOP,2024-05-05T00:47:00Z,34.005,134.626,22,15,160,19,29,6+,30.15,,,,,,,,,,,FEW,1200,SCT,2500,,,,,VFR,,,,,,,,,,,,SPECI,3
PALP 050047Z 05014KT 1SM BR OVC060 M14/M17 A3005,PALP,2024-05-05T00:47:00Z,70.348,-150.928,-14,-17,50,14,,1,30.05,,,,,,,,,,BR,OVC,6000,,,,,,,IFR,,,,,,,,,,,,METAR,4
MMTG 050047Z 30018KT 7SM SKC 36/20 A2975 RMK HZY,MMTG,2024-05-05T00:47:00Z,16.571,-93.03,36,20,300,18,,7,29.75,,,,,,,,,,,SKC,,,,,,,,VFR,,,,,,,,,,,,METAR,463
MMQT 050047Z 26007KT 10SM FEW030 BKN300 31/00 A3010 RMK 8/104,MMQT,2024-05-05T00:47:00Z,20.617,-100.194,31,0,260,7,,10+,30.10,,,,,,,,,,,FEW,3000,BKN,30000,,,,,VFR,,,,,,,,,,,,METAR,1909
MMML 050047Z 18008KT 10SM SCT200 32/06 A2968 RMK 8/008,MMML,2024-05-05T00:47:00Z,32.631,-115.238,32,6,180,8,,10+,29.68,,,,,,,,,,,SCT,20000,,,,,,,VFR,,,,,,,,,,,,METAR,21
KTIX 050047Z 13007KT 7SM SCT120 26/20 A3004,KTIX,2024-05-05T00:47:00Z,28.508,-80.798,26,20,130,7,,7,30.04,,,,,,,,,,,SCT,12000,,,,,,,VFR,,,,,,,,,,,,METAR,10
KSUA 050047Z 11010KT 10SM SCT025 26/ A3004,KSUA,2024-05-05T00:47:00Z,27.1815,-80.2252,26,,110,10,,10+,30.04,,,,,,,,,,,SCT,2500,,,,,,,VFR,,,,,,,,,,,,METAR,4
KSEE 050047Z 27008KT 10SM OVC024 17/12 A2992,KSEE,2024-05-05T00:47:00Z,32.8273,-116.974,17,12,270,8,,10+,29.92,,,,,,,,,,,OVC,2400,,,,,,,MVFR,,,,,,,,,,,,METAR,113
KSAW 050047Z 32009KT 5SM -RA BR OVC029 10/06 A2985 RMK LTG DSNT S,KSAW,2024-05-05T00:47:00Z,46.341,-87.395,10,6,320,9,,5,29.85,,,,,,,,,,-RA BR,OVC,2900,,,,,,,MVFR,,,,,,,,,,,,METAR,359
KRHV 050047Z 28011KT 10SM BKN020 13/05 A2987,KRHV,2024-05-05T00:47:00Z,37.3331,-121.82,13,5,280,11,,10+,29.87,,,,,,,,,,,BKN,2000,,,,,,,MVFR,,,,,,,,,,,,METAR,37
KPOC 050047Z 26010KT 10SM BKN018 OVC023 16/13 A2990,KPOC,2024-05-05T00:47:00Z,34.0928,-117.779,16,13,260,10,,10+,29.90,,,,,,,,,,,BKN,1800,OVC,2300,,,,,MVFR,,,,,,,,,,,,METAR,304
KPAO 050047Z 28013KT 10SM SCT030 12/06 A2988,KPAO,2024-05-05T00:47:00Z,37.458,-122.112,12,6,280,13,,10+,29.88,,,,,,,,,,,SCT,3000,,,,,,,VFR,,,,,,,,,,,,METAR,2
KLBE 050047Z 12012G20KT 10SM BKN042 OVC070 13/11 A3006,KLBE,2024-05-05T00:47:00Z,40.2767,-79.4039,13,11,120,12,20,10+,30.06,,,,,,,,,,,BKN,4200,OVC,7000,,,,,VFR,,,,,,,,,,,,METAR,345
KHSA 050047Z 00000KT 10SM CLR 24/21 A2997,KHSA,2024-05-05T00:47:00Z,30.3765,-89.4554,24,21,0,0,,10+,29.97,,,,,,,,,,,CLR,,,,,,,,VFR,,,,,,,,,,,,METAR,6
KGYR 050047Z 24011KT 10SM SKC 33/M01 A2968,KGYR,2024-05-05T00:47:00Z,33.428,-112.368,33,-1,240,11,,10+,29.68,,,,,,,,,,,SKC,,,,,,,,VFR,,,,,,,,,,,,METAR,292
KGYH 050047Z 16003KT 10SM -RA BKN048 18/17 A3005 RMK LAST,KGYH,2024-05-05T00:47:00Z,34.763,-82.375,18,17,160,3,,10+,30.05,,,,,,,,,,-RA,BKN,4800,,,,,,,VFR,,,,,,,,,,,,METAR,283
KFDK 050047Z 00000KT 5SM BR OVC016 11/11 A3022,KFDK,2024-05-05T00:47:00Z,39.4177,-77.3696,11,11,0,0,,5,30.22,,,,,,,,,,BR,OVC,1600,,,,,,,MVFR,,,,,,,,,,,,METAR,82
KEVB 050047Z 15010KT 10SM FEW030 24/21 A3003,KEVB,2024-05-05T00:47:00Z,29.0568,-80.9491,24,21,150,10,,10+,30.03,,,,,,,,,,,FEW,3000,,,,,,,VFR,,,,,,,,,,,,METAR,2
KCWA 050047Z 32011KT 10SM SCT023 BKN035 12/08 A2991,KCWA,2024-05-05T00:47:00Z,44.7795,-89.671,12,8,320,11,,10+,29.91,,,,,,,,,,,SCT,2300,BKN,3500,,,,,VFR,,,,,,,,,,,,METAR,387
KCQT 050047Z AUTO 25004KT 10SM FEW019 17/11 A2991 RMK AO2 SLP126 T01720111,KCQT,2024-05-05T00:47:00Z,34.024,-118.291,17.2,11.1,250,4,,10+,29.91,1012.6,,TRUE,TRUE,,,,,,,FEW,1900,,,,,,,VFR,,,,,,,,,,,,METAR,51
KCHD 050047Z 22007G18KT 10SM CLR 33/M02 A2968,KCHD,2024-05-05T00:47:00Z,33.2669,-111.809,33,-2,220,7,18,10+,29.68,,,,,,,,,,,CLR,,,,,,,,VFR,,,,,,,,,,,,METAR,378
KCFO 050047Z 15015G23KT 10SM CLR 15/M03 A2995,KCFO,2024-05-05T00:47:00Z,39.7948,-104.54,15,-3,150,15,23,10+,29.95,,,,,,,,,,,CLR,,,,,,,,VFR,,,,,,,,,,,,METAR,1672
KAQV 050047Z AUTO 00000KT 10SM CLR 24/20 A2993 RMK AO2 SLP131 T02440200,KAQV,2024-05-05T00:47:00Z,31.396,-93.297,24.4,20,0,0,,10+,29.93,1013.1,,TRUE,TRUE,,,,,,,CLR,,,,,,,,VFR,,,,,,,,,,,,METAR,123
MMMD 050046Z 08010KT 7SM SKC 32/22 A2979 RMK HZY CI,MMMD,2024-05-05T00:46:00Z,20.936,-89.659,32,22,80,10,,7,29.79,,,,,,,,,,,SKC,,,,,,,,VFR,,,,,,,,,,,,METAR,10
EQYS 050046Z AUTO 10SM CLR 13/03 A3005 RMK AO2 SLP176 T01280028 $ ,EQYS,2024-05-05T00:46:00Z,37.4,14.92,12.8,2.8,,,,10+,30.05,1017.6,,TRUE,TRUE,TRUE,,,,,,CLR,,,,,,,,VFR,,,,,,,,,,,,METAR,25
RKNN 050045Z 27001KT 9999 -RA SCT050 BKN070 BKN100 19/15 A2990 RMK CIG070 WR//,RKNN,2024-05-05T00:45:00Z,37.754,128.944,19,15,270,1,,6+,29.90,,,,,,,,,,-RA,SCT,5000,BKN,7000,BKN,10000,,,VFR,,,,,,,,,,,,SPECI,11
PAPT 050045Z 05005KT 15SM SCT020 BKN065 05/01 A2927 RMK NO SPECI,PAPT,2024-05-05T00:45:00Z,62.087,-152.722,5,1,50,5,,15,29.27,,,,,,,,,,,SCT,2000,BKN,6500,,,,,VFR,,,,,,,,,,,,METAR,577
MMVR 050045Z 05002KT 5SM SCT250 29/25 A2970 RMK 8/008 HZY ISOL AC,MMVR,2024-05-05T00:45:00Z,19.144,-96.189,29,25,50,2,,5,29.70,,,,,,,,,,,SCT,25000,,,,,,,MVFR,,,,,,,,,,,,METAR,26
MMLP 050045Z 32006KT 10SM BKN200 30/M01 A2979 RMK 8/008 ISOL AC,MMLP,2024-05-05T00:45:00Z,24.077,-110.364,30,-1,320,6,,10+,29.79,,,,,,,,,,,BKN,20000,,,,,,,VFR,,,,,,,,,,,,METAR,16
MMLO 050045Z 26007KT 10SM BKN250 32/M03 A2999 RMK 8/008,MMLO,2024-05-05T00:45:00Z,20.997,-101.481,32,-3,260,7,,10+,29.99,,,,,,,,,,,BKN,25000,,,,,,,VFR,,,,,,,,,,,,METAR,1805
MMBT 050045Z 25010KT 8SM SCT220 32/22 A2975 RMK 8/001 FU,MMBT,2024-05-05T00:45:00Z,15.775,-96.26,32,22,250,10,,8,29.75,,,,,,,,,,,SCT,22000,,,,,,,VFR,,,,,,,,,,,,METAR,137
LMML 050045Z 31004KT CAVOK 14/13 Q1018 NOSIG,LMML,2024-05-05T00:45:00Z,35.858,14.477,14,13,310,4,,6+,30.06,,,,,,TRUE,,,,,CAVOK,,,,,,,,VFR,,,,,,,,,,,,METAR,78
LHSN 050045Z 30003KT CAVOK 14/09 Q1013 NOSIG RMK BLU,LHSN,2024-05-05T00:45:00Z,47.123,20.235,14,9,300,3,,6+,29.91,,,,,,TRUE,,,,,CAVOK,,,,,,,,VFR,,,,,,,,,,,,METAR,89
LHSM 050045Z AUTO VRB02KT CAVOK 11/11 Q1014,LHSM,2024-05-05T00:45:00Z,46.689,17.161,11,11,VRB,2,,6+,29.94,,,TRUE,,,,,,,,CAVOK,,,,,,,,VFR,,,,,,,,,,,,METAR,119
LHPR 050045Z AUTO 12001KT 8000 NCD 11/10 Q1014,LHPR,2024-05-05T00:45:00Z,47.627,17.808,11,10,120,1,,4.97,29.94,,,TRUE,,,,,,,,CLR,,,,,,,,MVFR,,,,,,,,,,,,METAR,127
LHPP 050045Z AUTO 30005KT 280V340 CAVOK 13/12 Q1015,LHPP,2024-05-05T00:45:00Z,45.991,18.241,13,12,300,5,,6+,29.97,,,TRUE,,,,,,,,CAVOK,,,,,,,,VFR,,,,,,,,,,,,METAR,193
LHPA 050045Z 17003KT CAVOK 11/10 Q1014 NOSIG RMK BLU,LHPA,2024-05-05T00:45:00Z,47.362,17.494,11,10,170,3,,6+,29.94,,,,,,TRUE,,,,,CAVOK,,,,,,,,VFR,,,,,,,,,,,,METAR,143
LHKE 050045Z 00000KT CAVOK 12/09 Q1013 NOSIG RMK BLU,LHKE,2024-05-05T00:45:00Z,46.917,19.749,12,9,0,0,,6+,29.91,,,,,,TRUE,,,,,CAVOK,,,,,,,,VFR,,,,,,,,,,,,METAR,113
LHDC 050045Z AUTO 00000KT CAVOK 12/10 Q1013 NOSIG,LHDC,2024-05-05T00:45:00Z,47.489,21.615,12,10,0,0,,6+,29.91,,,TRUE,,,TRUE,,,,,CAVOK,,,,,,,,VFR,,,,,,,,,,,,METAR,105
KW40 050045Z AUTO 16006KT 10SM CLR 23/17 A3010 RMK AO2 T02280172,KW40,2024-05-05T00:45:00Z,35.2211,-78.0404,22.8,17.2,160,6,,10+,30.10,,,TRUE,TRUE,,,,,,,CLR,,,,,,,,VFR,,,,,,,,,,,,METAR,50
KVUJ 050045Z AUTO 00000KT 10SM BKN120 19/18 A3012 RMK AO2 T01860183,KVUJ,2024-05-05T00:45:00Z,35.4173,-80.1508,18.6,18.3,0,0,,10+,30.12,,,TRUE,TRUE,,,,,,,BKN,12000,,,,,,,VFR,,,,,,,,,,,,METAR,174
KTTA 050045Z AUTO 00000KT 10SM BKN003 OVC100 18/18 A3009 RMK AO2 T01820182,KTTA,2024-05-05T00:45:00Z,35.5762,-79.1035,18.2,18.2,0,0,,10+,30.09,,,TRUE,TRUE,,,,,,,BKN,300,OVC,10000,,,,,LIFR,,,,,,,,,,,,METAR,71
KTDF 050045Z AUTO 04005KT 10SM -DZ OVC004 15/15 A3014 RMK AO2,KTDF,2024-05-05T00:45:00Z,36.284,-78.9884,15,15,40,5,,10+,30.14,,,TRUE,TRUE,,,,,,-DZ,OVC,400,,,,,,,LIFR,,,,,,,,,,,,METAR,180
KSWF 050045Z 20008KT 10SM OVC060 13/08 A3029,KSWF,2024-05-05T00:45:00Z,41.5045,-74.0999,13,8,200,8,,10+,30.29,,,,,,,,,,,OVC,6000,,,,,,,VFR,,,,,,,,,,,,METAR,139
KSVH 050045Z AUTO 06008KT 5SM RA OVC004 18/18 A3009 RMK AO2 P0004 T01820177,KSVH,2024-05-05T00:45:00Z,35.7635,-80.9473,18.2,17.7,60,8,,5,30.09,,,TRUE,TRUE,,,,,,RA,OVC,400,,,,,,,LIFR,,,,,,0.04,,,,,,METAR,286
KSIF 050045Z AUTO 00000KT 10SM -DZ OVC006 15/15 A3013 RMK AO2 T01500145,KSIF,2024-05-05T00:45:00Z,36.4408,-79.8544,15,14.5,0,0,,10+,30.13,,,TRUE,TRUE,,,,,,-DZ,OVC,600,,,,,,,IFR,,,,,,,,,,,,METAR,206
KSCH 050045Z 17005KT 15SM CLR 17/06 A3024 RMK LAST,KSCH,2024-05-05T00:45:00Z,42.8499,-73.9301,17,6,170,5,,15,30.24,,,,,,,,,,,CLR,,,,,,,,VFR,,,,,,,,,,,,METAR,100
KRYN 050045Z 22011G18KT 10SM CLR 30/M14 A2977,KRYN,2024-05-05T00:45:00Z,32.1418,-111.177,30,-14,220,11,18,10+,29.77,,,,,,,,,,,CLR,,,,,,,,VFR,,,,,,,,,,,,METAR,731
KRUQ 050045Z AUTO 00000KT 10SM OVC090 18/18 A3008 RMK AO2 T01830175,KRUQ,2024-05-05T00:45:00Z,35.6441,-80.5236,18.3,17.5,0,0,,10+,30.08,,,TRUE,TRUE,,,,,,,OVC,9000,,,,,,,VFR,,,,,,,,,,,,METAR,231
KRCZ 050045Z AUTO 12003KT 10SM CLR 20/19 A3008 RMK AO2 T02000192,KRCZ,2024-05-05T00:45:00Z,34.8955,-79.7576,20,19.2,120,3,,10+,30.08,,,TRUE,TRUE,,,,,,,CLR,,,,,,,,VFR,,,,,,,,,,,,METAR,110
KPGV 050045Z AUTO 18005KT 10SM CLR 23/19 A3010 RMK AO2,KPGV,2024-05-05T00:45:00Z,35.6374,-77.3851,23,19,180,5,,10+,30.10,,,TRUE,TRUE,,,,,,,CLR,,,,,,,,VFR,,,,,,,,,,,,METAR,6
KOUN 050045Z 36013KT 10SM SCT024 18/14 A2994,KOUN,2024-05-05T00:45:00Z,35.2436,-97.4713,18,14,360,13,,10+,29.94,,,,,,,,,,,SCT,2400,,,,,,,VFR,,,,,,,,,,,,METAR,359
KONX 050045Z AUTO 13005KT 10SM CLR 20/17 A3015 RMK AO2 T01970174,KONX,2024-05-05T00:45:00Z,36.399,-76.014,19.7,17.4,130,5,,10+,30.15,,,TRUE,TRUE,,,,,,,CLR,,,,,,,,VFR,,,,,,,,,,,,METAR,4
KMWK 050045Z AUTO 07003KT 10SM -RA OVC004 15/15 A3014 RMK AO2 T01470145,KMWK,2024-05-05T00:45:00Z,36.4568,-80.5548,14.7,14.5,70,3,,10+,30.14,,,TRUE,TRUE,,,,,,-RA,OVC,400,,,,,,,LIFR,,,,,,,,,,,,METAR,374
KMWC 050045Z 22004KT 10SM -RA BKN027 BKN032 OVC039 16/16 A2986,KMWC,2024-05-05T00:45:00Z,43.1095,-88.0343,16,16,220,4,,10+,29.86,,,,,,,,,,-RA,BKN,2700,BKN,3200,OVC,3900,,,MVFR,,,,,,,,,,,,METAR,225
KMRN 050045Z AUTO 00000KT 2SM RA BKN004 BKN009 OVC035 19/19 A3009 RMK AO2 P0031 T01910187,KMRN,2024-05-05T00:45:00Z,35.8192,-81.6097,19.1,18.7,0,0,,2,30.09,,,TRUE,TRUE,,,,,,RA,BKN,400,BKN,900,OVC,3500,,,LIFR,,,,,,0.31,,,,,,METAR,375
KMMU 050045Z 15006KT 10SM OVC050 11/08 A3032,KMMU,2024-05-05T00:45:00Z,40.7989,-74.4164,11,8,150,6,,10+,30.32,,,,,,,,,,,OVC,5000,,,,,,,VFR,,,,,,,,,,,,METAR,55
KMCZ 050045Z AUTO 13003KT 10SM BKN035 BKN044 BKN050 23/19 A3011 RMK AO2 T02250190,KMCZ,2024-05-05T00:45:00Z,35.862,-77.178,22.5,19,130,3,,10+,30.11,,,TRUE,TRUE,,,,,,,BKN,3500,BKN,4400,BKN,5000,,,VFR,,,,,,,,,,,,METAR,23
KM04 050045Z AUTO 23005KT 10SM CLR 23/20 A2994 RMK A01,KM04,2024-05-05T00:45:00Z,35.5819,-89.5858,23,20,230,5,,10+,29.94,,,TRUE,TRUE,,,,,,,CLR,,,,,,,,VFR,,,,,,,,,,,,METAR,83
KLOT 050045Z 27009KT 10SM SCT090 19/19 A2986 RMK LTG DSNT N,KLOT,2024-05-05T00:45:00Z,41.6031,-88.1017,19,19,270,9,,10+,29.86,,,,,,,,,,,SCT,9000,,,,,,,VFR,,,,,,,,,,,,METAR,205
KLHZ 050045Z AUTO 34003KT 4SM -RA SCT002 BKN035 OVC070 17/17 A3013 RMK AO2 P0006,KLHZ,2024-05-05T00:45:00Z,36.0229,-78.3341,17,17,340,3,,4,30.13,,,TRUE,TRUE,,,,,,-RA,SCT,200,BKN,3500,OVC,7000,,,MVFR,,,,,,0.06,,,,,,METAR,104
KJVL 050045Z 31010G20KT 10SM BKN032 OVC043 17/12 A2989,KJVL,2024-05-05T00:45:00Z,42.6213,-89.0419,17,12,310,10,20,10+,29.89,,,,,,,,,,,BKN,3200,OVC,4300,,,,,VFR,,,,,,,,,,,,METAR,244
KIPJ 050045Z AUTO 07003KT 7SM SCT011 BKN048 OVC080 20/20 A3007 RMK AO2 T01970195,KIPJ,2024-05-05T00:45:00Z,35.4861,-81.1564,19.7,19.5,70,3,,7,30.07,,,TRUE,TRUE,,,,,,,SCT,1100,BKN,4800,OVC,8000,,,VFR,,,,,,,,,,,,METAR,266
KHBI 050045Z AUTO 00000KT 10SM SCT075 SCT080 OVC100 19/19 A3011 RMK AO2 T01880187,KHBI,2024-05-05T00:45:00Z,35.6527,-79.8942,18.8,18.7,0,0,,10+,30.11,,,TRUE,TRUE,,,,,,,SCT,7500,SCT,8000,OVC,10000,,,VFR,,,,,,,,,,,,METAR,199
KGEV 050045Z AUTO 13003KT 2SM -RA OVC003 14/14 A3014 RMK AO2 VIS 1 1/4V3 P0012 T01420141,KGEV,2024-05-05T00:45:00Z,36.4312,-81.4206,14.2,14.1,130,3,,2,30.14,,,TRUE,TRUE,,,,,,-RA,OVC,300,,,,,,,LIFR,,,,,,0.12,,,,,,METAR,961
KFQD 050045Z AUTO 00000KT 10SM -RA SCT023 BKN035 OVC044 18/18 A3008 RMK AO2 P0010,KFQD,2024-05-05T00:45:00Z,35.43,-81.936,18,18,0,0,,10+,30.08,,,TRUE,TRUE,,,,,,-RA,SCT,2300,BKN,3500,OVC,4400,,,VFR,,,,,,0.1,,,,,,METAR,325
KEXX 050045Z AUTO 00000KT 7SM -RA SCT004 BKN049 OVC090 19/19 A3009 RMK AO2 T01870187,KEXX,2024-05-05T00:45:00Z,35.7804,-80.3084,18.7,18.7,0,0,,7,30.09,,,TRUE,TRUE,,,,,,-RA,SCT,400,BKN,4900,OVC,9000,,,VFR,,,,,,,,,,,,METAR,221
KESN 050045Z 09010KT 10SM OVC007 11/10 A3023,KESN,2024-05-05T00:45:00Z,38.804,-76.069,11,10,90,10,,10+,30.23,,,,,,,,,,,OVC,700,,,,,,,IFR,,,,,,,,,,,,METAR,14
KEMT 050045Z 22007KT 10SM BKN030 17/12 A2990,KEMT,2024-05-05T00:45:00Z,34.0882,-118.034,17,12,220,7,,10+,29.90,,,,,,,,,,,BKN,3000,,,,,,,MVFR,,,,,,,,,,,,METAR,84
KEHO 050045Z AUTO 00000KT 10SM SCT014 BKN026 OVC110 19/19 A3007 RMK AO2 T01910188,KEHO,2024-05-05T00:45:00Z,35.2556,-81.5986,19.1,18.8,0,0,,10+,30.07,,,TRUE,TRUE,,,,,,,SCT,1400,BKN,2600,OVC,11000,,,MVFR,,,,,,,,,,,,METAR,261
KEDE 050045Z AUTO 13007KT 10SM CLR 23/22 A3013 RMK AO2 T02270217,KEDE,2024-05-05T00:45:00Z,36.0286,-76.5668,22.7,21.7,130,7,,10+,30.13,,,TRUE,TRUE,,,,,,,CLR,,,,,,,,VFR,,,,,,,,,,,,METAR,4
KDPL 050045Z AUTO 14004KT 10SM CLR 22/18 A3011 RMK AO2,KDPL,2024-05-05T00:45:00Z,34.9994,-77.9799,22,18,140,4,,10+,30.11,,,TRUE,TRUE,,,,,,,CLR,,,,,,,,VFR,,,,,,,,,,,,METAR,39
KCTZ 050045Z AUTO 00000KT 10SM SCT034 22/21 A3010 RMK AO2 T02200210,KCTZ,2024-05-05T00:45:00Z,34.9752,-78.3627,22,21,0,0,,10+,30.10,,,TRUE,TRUE,,,,,,,SCT,3400,,,,,,,VFR,,,,,,,,,,,,METAR,43
KCGF 050045Z 14012KT 10SM OVC070 17/15 A2997,KCGF,2024-05-05T00:45:00Z,41.566,-81.4827,17,15,140,12,,10+,29.97,,,,,,,,,,,OVC,7000,,,,,,,VFR,,,,,,,,,,,,METAR,265
KCGE 050045Z AUTO 09008KT 10SM OVC011 12/12 A3022 RMK A01,KCGE,2024-05-05T00:45:00Z,38.5372,-76.0309,12,12,90,8,,10+,30.22,,,TRUE,TRUE,,,,,,,OVC,1100,,,,,,,MVFR,,,,,,,,,,,,METAR,5
KCBE 050045Z AUTO 00000KT 10SM -RA OVC013 12/10 A3022 RMK AO2 T01160104,KCBE,2024-05-05T00:45:00Z,39.6182,-78.7598,11.6,10.4,0,0,,10+,30.22,,,TRUE,TRUE,,,,,,-RA,OVC,1300,,,,,,,MVFR,,,,,,,,,,,,METAR,226
KBAK 050045Z 00000KT 10SM CLR 22/17 A2989,KBAK,2024-05-05T00:45:00Z,39.2664,-85.8926,22,17,0,0,,10+,29.89,,,,,,,,,,,CLR,,,,,,,,VFR,,,,,,,,,,,,METAR,199
KATW 050045Z 30016G22KT 10SM BKN016 14/10 A2990,KATW,2024-05-05T00:45:00Z,44.2519,-88.526,14,10,300,16,22,10+,29.90,,,,,,,,,,,BKN,1600,,,,,,,MVFR,,,,,,,,,,,,METAR,266
KASJ 050045Z AUTO 00000KT 10SM -RA BKN030 BKN047 OVC090 18/18 A3011 RMK AO2 P0003 T01770177,KASJ,2024-05-05T00:45:00Z,36.2941,-77.1724,17.7,17.7,0,0,,10+,30.11,,,TRUE,TRUE,,,,,,-RA,BKN,3000,BKN,4700,OVC,9000,,,MVFR,,,,,,0.03,,,,,,METAR,20
KACZ 050045Z AUTO 12003KT 10SM CLR 22/19 A3010 RMK AO2 T02190185,KACZ,2024-05-05T00:45:00Z,34.718,-78.005,21.9,18.5,120,3,,10+,30.10,,,TRUE,TRUE,,,,,,,CLR,,,,,,,,VFR,,,,,,,,,,,,METAR,30
K2G4 050045Z AUTO 13013G18KT M1/4SM FG OVC001 08/08 A3011 RMK AO2,K2G4,2024-05-05T00:45:00Z,39.5827,-79.3418,8,8,130,13,18,0.25,30.11,,,TRUE,TRUE,,,,,,FG,OVC,100,,,,,,,LIFR,,,,,,,,,,,,METAR,908
K24A 050045Z AUTO 00000KT 1 3/4SM BR SCT003 OVC085 16/15 A3011 RMK AO2 LTG DSNT SE AND NW T01550152,K24A,2024-05-05T00:45:00Z,35.3156,-83.2071,15.5,15.2,0,0,,1.75,30.11,,,TRUE,TRUE,,,,,,BR,SCT,300,OVC,8500,,,,,IFR,,,,,,,,,,,,METAR,864
K0W3 050045Z AUTO 09008KT 10SM OVC008 10/10 A3024 RMK AO2 CIG 006V012 T00960096 $,K0W3,2024-05-05T00:45:00Z,39.566,-76.202,9.6,9.6,90,8,,10+,30.24,,,TRUE,TRUE,TRUE,,,,,,OVC,800,,,,,,,IFR,,,,,,,,,,,,METAR,125
MMSM 050044Z 16011KT 6SM SCT020CB BKN080 BKN220 26/06 A3019 RMK 8/363 HZY DSNT PCPN NE,MMSM,2024-05-05T00:44:00Z,19.763,-99.002,26,6,160,11,,6,30.19,,,,,,,,,,,SCT,2000,BKN,8000,BKN,22000,,,VFR,,,,,,,,,,,,METAR,2250
MMEP 050044Z 36010KT 10SM SKC 27/19 A2992 RMK HZ,MMEP,2024-05-05T00:44:00Z,21.418,-104.842,27,19,360,10,,10+,29.92,,,,,,,,,,,SKC,,,,,,,,VFR,,,,,,,,,,,,METAR,921
MMVA 050043Z 04004KT 5SM SKC 32/23 A2971 RMK HZY,MMVA,2024-05-05T00:43:00Z,17.998,-92.817,32,23,40,4,,5,29.71,,,,,,,,,,,SKC,,,,,,,,MVFR,,,,,,,,,,,,METAR,13
MMUN 050043Z 11006KT 7SM FEW015 28/24 A2990 RMK 8/100,MMUN,2024-05-05T00:43:00Z,21.038,-86.855,28,24,110,6,,7,29.90,,,,,,,,,,,FEW,1500,,,,,,,VFR,,,,,,,,,,,,METAR,13
MMTC 050043Z 09004KT 10SM SCT110 BKN250 36/M01 A2977 RMK 8/072,MMTC,2024-05-05T00:43:00Z,25.564,-103.408,36,-1,90,4,,10+,29.77,,,,,,,,,,,SCT,11000,BKN,25000,,,,,VFR,,,,,,,,,,,,METAR,1128
MMOX 050043Z 10010G20KT 7SM BKN025CB OVC080 30/11 A3006 RMK 8/96/ VCRA HZY,MMOX,2024-05-05T00:43:00Z,17.002,-96.724,30,11,100,10,20,7,30.06,,,,,,,,,,,BKN,2500,OVC,8000,,,,,MVFR,,,,,,,,,,,,METAR,1528
MMCP 050043Z 35005KT 7SM SKC 30/25 A2975 RMK HZY,MMCP,2024-05-05T00:43:00Z,19.817,-90.502,30,25,350,5,,7,29.75,,,,,,,,,,,SKC,,,,,,,,VFR,,,,,,,,,,,,METAR,9
MMAA 050043Z 26008KT 6SM FEW015 SCT100 27/23 A2972 RMK 8/130 HZY,MMAA,2024-05-05T00:43:00Z,16.758,-99.754,27,23,260,8,,6,29.72,,,,,,,,,,,FEW,1500,SCT,10000,,,,,VFR,,,,,,,,,,,,METAR,5
MMTJ 050042Z 25009KT 8SM OVC021 16/12 A2995 RMK 8/6// HZY,MMTJ,2024-05-05T00:42:00Z,32.544,-116.982,16,12,250,9,,8,29.95,,,,,,,,,,,OVC,2100,,,,,,,MVFR,,,,,,,,,,,,METAR,150
MMPB 050042Z 23007KT 8SM SCT020CB BKN090 OVC220 23/04 A3025 RMK 8/363 HZY,MMPB,2024-05-05T00:42:00Z,19.17,-98.371,23,4,230,7,,8,30.25,,,,,,,,,,,SCT,2000,BKN,9000,OVC,22000,,,VFR,,,,,,,,,,,,METAR,2250
MMMM 050042Z 19010KT 6SM SCT280 30/04 A3006 RMK 8/001 HZY AC,MMMM,2024-05-05T00:42:00Z,19.844,-101.037,30,4,190,10,,6,30.06,,,,,,,,,,,SCT,28000,,,,,,,VFR,,,,,,,,,,,,METAR,1840
MMHO 050042Z 24009KT 10SM SKC 33/M05 A2979,MMHO,2024-05-05T00:42:00Z,29.097,-111.051,33,-5,240,9,,10+,29.79,,,,,,,,,,,SKC,,,,,,,,VFR,,,,,,,,,,,,METAR,186
MMCM 050042Z 11010KT 7SM SCT020 29/23 A2985 RMK 8/500,MMCM,2024-05-05T00:42:00Z,18.504,-88.326,29,23,110,10,,7,29.85,,,,,,,,,,,SCT,2000,,,,,,,VFR,,,,,,,,,,,,METAR,10
MMNL 050041Z 12010KT 5SM SCT020 BKN120 BKN220 30/23 A2973 RMK 8/572 HZY,MMNL,2024-05-05T00:41:00Z,27.448,-99.574,30,23,120,10,,5,29.73,,,,,,,,,,,SCT,2000,BKN,12000,BKN,22000,,,MVFR,,,,,,,,,,,,METAR,146
MMMT 050041Z 24010KT 5SM SKC 28/27 A2969 RMK HZY,MMMT,2024-05-05T00:41:00Z,18.098,-94.583,28,27,240,10,,5,29.69,,,,,,,,,,,SKC,,,,,,,,MVFR,,,,,,,,,,,,METAR,15
MMLM 050041Z 24011KT 10SM BKN220 27/10 A2978 RMK 8/008,MMLM,2024-05-05T00:41:00Z,25.688,-109.085,27,10,240,11,,10+,29.78,,,,,,,,,,,BKN,22000,,,,,,,VFR,,,,,,,,,,,,METAR,6
MMCN 050041Z 24008KT 10SM SKC 29/00 A2974 RMK HZY,MMCN,2024-05-05T00:41:00Z,27.395,-109.837,29,0,240,8,,10+,29.74,,,,,,,,,,,SKC,,,,,,,,VFR,,,,,,,,,,,,METAR,57
MMCE 050041Z 00000KT 7SM SKC 30/25 A2972 RMK HZY,MMCE,2024-05-05T00:41:00Z,18.651,-91.8,30,25,0,0,,7,29.72,,,,,,,,,,,SKC,,,,,,,,VFR,,,,,,,,,,,,METAR,5
CYQT 050041Z 20003KT 8SM -RA FEW014 SCT028 OVC033 08/08 A2991 RMK SF1SC3SC4 SLP138,CYQT,2024-05-05T00:41:00Z,48.374,-89.33,8,8,200,3,,8,29.91,1013.8,,,,,,,,,-RA,FEW,1400,SCT,2800,OVC,3300,,,VFR,,,,,,,,,,,,SPECI,197
MMZO 050040Z 27010KT 10SM FEW210 25/21 A2975 RMK 8/004,MMZO,2024-05-05T00:40:00Z,19.147,-104.565,25,21,270,10,,10+,29.75,,,,,,,,,,,FEW,21000,,,,,,,VFR,,,,,,,,,,,,METAR,11
MMZC 050040Z E22015G25KT 10SM SCT100 SCT200 29/M02 A3010 RMK 8/032 HZY,MMZC,2024-05-05T00:40:00Z,22.904,-102.68,29,-2,220,15,25,10+,30.10,,,,,,,,,,,SCT,10000,SCT,20000,,,,,VFR,,,,,,,,,,,,METAR,2175
MMTP 050040Z 27005KT 7SM SKC 31/26 A2971,MMTP,2024-05-05T00:40:00Z,14.795,-92.371,31,26,270,5,,7,29.71,,,,,,,,,,,SKC,,,,,,,,VFR,,,,,,,,,,,,METAR,27
MMTO 050040Z 17009KT 5SM SCT020 SCT070 BKN200 16/10 A3033 RMK 60356 8/463 CB DSNT E HZY,MMTO,2024-05-05T00:40:00Z,19.343,-99.568,16,10,170,9,,5,30.33,,,,,,,,,,,SCT,2000,SCT,7000,BKN,20000,,,MVFR,,,,,,,,,,,,METAR,2582
MMTM 050040Z 09015KT 3SM HZ SCT010 BKN220 28/24 A2972 RMK 8/108,MMTM,2024-05-05T00:40:00Z,22.29,-97.863,28,24,90,15,,3,29.72,,,,,,,,,,HZ,SCT,1000,BKN,22000,,,,,MVFR,,,,,,,,,,,,METAR,21
MMTL 050040Z 08004KT 8SM SCT050 27/23 A2990 RMK 8/200,MMTL,2024-05-05T00:40:00Z,20.1725,-87.6622,27,23,80,4,,8,29.90,,,,,,,,,,,SCT,5000,,,,,,,VFR,,,,,,,,,,,,METAR,20
MMSP 050040Z 27015KT 10SM SCT035 SCT080 BKN250 33/M13 A3000 RMK 8/139 TCU,MMSP,2024-05-05T00:40:00Z,22.256,-100.93,33,-13,270,15,,10+,30.00,,,,,,,,,,,SCT,3500,SCT,8000,BKN,25000,,,VFR,,,,,,,,,,,,METAR,1841
MMSL 050040Z 23007KT 10SM SCT250 26/13 A2984 RMK 8/008,MMSL,2024-05-05T00:40:00Z,22.948,-109.936,26,13,230,7,,10+,29.84,,,,,,,,,,,SCT,25000,,,,,,,VFR,,,,,,,,,,,,METAR,205
MMSD 050040Z 14012KT 10SM BKN250 26/15 A2982 RMK 8/008,MMSD,2024-05-05T00:40:00Z,23.157,-109.72,26,15,140,12,,10+,29.82,,,,,,,,,,,BKN,25000,,,,,,,VFR,,,,,,,,,,,,METAR,107
MMRX 050040Z 14010KT 7SM FEW030 BKN100 BKN120 28/21 A2974 RMK 8/570 HZY,MMRX,2024-05-05T00:40:00Z,26.01,-98.232,28,21,140,10,,7,29.74,,,,,,,,,,,FEW,3000,BKN,10000,BKN,12000,,,VFR,,,,,,,,,,,,METAR,45
MMPS 050040Z 33010KT 10SM FEW070 28/25 A2976 RMK 8/010 HZY,MMPS,2024-05-05T00:40:00Z,15.876,-97.093,28,25,330,10,,10+,29.76,,,,,,,,,,,FEW,7000,,,,,,,VFR,,,,,,,,,,,,METAR,65
MMPR 050040Z 23007KT 12SM BKN300 25/21 A2978 RMK 8/001 HZY,MMPR,2024-05-05T00:40:00Z,20.68,-105.25,25,21,230,7,,12,29.78,,,,,,,,,,,BKN,30000,,,,,,,VFR,,,,,,,,,,,,METAR,6
MMPN 050040Z 00000KT 9SM OVC310 28/08 A3004 RMK 8/001 HZY FU,MMPN,2024-05-05T00:40:00Z,19.396,-102.041,28,8,0,0,,9,30.04,,,,,,,,,,,OVC,31000,,,,,,,VFR,,,,,,,,,,,,METAR,1602
MMPA 050040Z 08005KT 4SM SCT030 OVC280 30/24 A2969 RMK 8/107 HZY,MMPA,2024-05-05T00:40:00Z,20.601,-97.459,30,24,80,5,,4,29.69,,,,,,,,,,,SCT,3000,OVC,28000,,,,,MVFR,,,,,,,,,,,,METAR,153
MMMZ 050040Z 28005KT 14SM SCT240 25/18 A2978 RMK 8/002 ISOL AC FULYR SE,MMMZ,2024-05-05T00:40:00Z,23.161,-106.271,25,18,280,5,,14,29.78,,,,,,,,,,,SCT,24000,,,,,,,VFR,,,,,,,,,,,,METAR,7
MMMY 050040Z 14011KT 4SM BKN070 30/23 A2974 RMK 8/070 HZY,MMMY,2024-05-05T00:40:00Z,25.774,-100.104,30,23,140,11,,4,29.74,,,,,,,,,,,BKN,7000,,,,,,,MVFR,,,,,,,,,,,,METAR,382
MMMX 050040Z 22015KT 8SM SCT020 SCT080 BKN220 24/05 A3018 NOSIG RMK 8/463 HZY,MMMX,2024-05-05T00:40:00Z,19.436,-99.072,24,5,220,15,,8,30.18,,,,,,TRUE,,,,,SCT,2000,SCT,8000,BKN,22000,,,VFR,,,,,,,,,,,,METAR,2224
MMMA 050040Z 12014KT 5SM BKN015 BKN100 27/24 A2975 RMK 8/550 HZ,MMMA,2024-05-05T00:40:00Z,25.77,-97.523,27,24,120,14,,5,29.75,,,,,,,,,,,BKN,1500,BKN,10000,,,,,MVFR,,,,,,,,,,,,METAR,7
MMLT 050040Z 01008KT 10SM FEW240 29/19 A2975 RMK 8/001 HZY,MMLT,2024-05-05T00:40:00Z,25.993,-111.35,29,19,10,8,,10+,29.75,,,,,,,,,,,FEW,24000,,,,,,,VFR,,,,,,,,,,,,METAR,4
MMIA 050040Z 25012KT 6SM BKN200 26/14 A2986 RMK 8/008 HZY,MMIA,2024-05-05T00:40:00Z,19.276,-103.576,26,14,250,12,,6,29.86,,,,,,,,,,,BKN,20000,,,,,,,VFR,,,,,,,,,,,,METAR,744
MMGM 050040Z 22008KT 10SM SKC 28/17 A2972,MMGM,2024-05-05T00:40:00Z,27.964,-110.928,28,17,220,8,,10+,29.72,,,,,,,,,,,SKC,,,,,,,,VFR,,,,,,,,,,,,METAR,13
MMCZ 050040Z 10006KT 7SM FEW015 28/24 A2988 RMK 8/500 VC TCU,MMCZ,2024-05-05T00:40:00Z,20.516,-86.932,28,24,100,6,,7,29.88,,,,,,,,,,,FEW,1500,,,,,,,VFR,,,,,,,,,,,,METAR,7
MMCU 050040Z 06011KT 10SM SKC 32/M12 A2982,MMCU,2024-05-05T00:40:00Z,28.701,-105.965,32,-12,60,11,,10+,29.82,,,,,,,,,,,SKC,,,,,,,,VFR,,,,,,,,,,,,METAR,1349
MMCS 050040Z 19006KT 10SM SCT030 30/M13 A2983 RMK 8/100 CB E,MMCS,2024-05-05T00:40:00Z,31.636,-106.427,30,-13,190,6,,10+,29.83,,,,,,,,,,,SCT,3000,,,,,,,VFR,,,,,,,,,,,,METAR,1194
MMCL 050040Z 23008KT 10SM SCT230 30/12 A2976 RMK 8/002 HZY,MMCL,2024-05-05T00:40:00Z,24.766,-107.476,30,12,230,8,,10+,29.76,,,,,,,,,,,SCT,23000,,,,,,,VFR,,,,,,,,,,,,METAR,35
MMCB 050040Z 06011G28KT 5SM BKN015CB BKN100 OVC250 32/08 A2992 RMK 8/963 OCNL DROPS,MMCB,2024-05-05T00:40:00Z,18.83,-99.265,32,8,60,11,28,5,29.92,,,,,,,,,,,BKN,1500,BKN,10000,OVC,25000,,,MVFR,,,,,,,,,,,,METAR,1281
MMAS 050040Z 21010KT 10SM SCT270 31/M07 A3005 RMK 8/001,MMAS,2024-05-05T00:40:00Z,21.702,-102.318,31,-7,210,10,,10+,30.05,,,,,,,,,,,SCT,27000,,,,,,,VFR,,,,,,,,,,,,METAR,1866
MMAN 050040Z 14010KT 4SM BKN070 29/22 A2976 RMK 8/030 HZY ISOL SC,MMAN,2024-05-05T00:40:00Z,25.865,-100.239,29,22,140,10,,4,29.76,,,,,,,,,,,BKN,7000,,,,,,,MVFR,,,,,,,,,,,,METAR,447
KP08 050040Z AUTO 23009KT 10SM CLR 32/M04 A2972 RMK AO2,KP08,2024-05-05T00:40:00Z,32.9359,-111.427,32,-4,230,9,,10+,29.72,,,TRUE,TRUE,,,,,,,CLR,,,,,,,,VFR,,,,,,,,,,,,METAR,477
KOCW 050040Z AUTO 14005KT 10SM CLR 23/17 A3012 RMK AO2 T02280174,KOCW,2024-05-05T00:40:00Z,35.5703,-77.05,22.8,17.4,140,5,,10+,30.12,,,TRUE,TRUE,,,,,,,CLR,,,,,,,,VFR,,,,,,,,,,,,METAR,10
KMHV 050040Z AUTO 28015G22KT 10SM BKN040 17/05 A2980 RMK AO2,KMHV,2024-05-05T00:40:00Z,35.0626,-118.157,17,5,280,15,22,10+,29.80,,,TRUE,TRUE,,,,,,,BKN,4000,,,,,,,VFR,,,,,,,,,,,,METAR,841
KHNZ 050040Z AUTO 00000KT 2SM BR OVC002 15/15 A3013 RMK AO2 T01510150,KHNZ,2024-05-05T00:40:00Z,36.3635,-78.5289,15.1,15,0,0,,2,30.13,,,TRUE,TRUE,,,,,,BR,OVC,200,,,,,,,LIFR,,,,,,,,,,,,METAR,158
KGZN 050040Z AUTO 11022G30KT 1 1/2SM TS OVC005 20/20 A2981 RMK AO2 LTG DSNT ALQDS,KGZN,2024-05-05T00:40:00Z,32.3682,-99.026,20,20,110,22,30,1.5,29.81,,,TRUE,TRUE,,,,,,TS,OVC,500,,,,,,,IFR,,,,,,,,,,,,METAR,522
KETC 050040Z AUTO 00000KT 7SM BR SCT039 19/18 A3010 RMK AO2 T01900185,KETC,2024-05-05T00:40:00Z,35.9363,-77.5416,19,18.5,0,0,,7,30.10,,,TRUE,TRUE,,,,,,BR,SCT,3900,,,,,,,VFR,,,,,,,,,,,,METAR,15
KDMW 050040Z AUTO 10003KT 4SM -RA OVC006 11/11 A3022 RMK AO2,KDMW,2024-05-05T00:40:00Z,39.61,-77.007,11,11,100,3,,4,30.22,,,TRUE,TRUE,,,,,,-RA,OVC,600,,,,,,,IFR,,,,,,,,,,,,METAR,239
KVWU 050035Z AUTO 00000KT 10SM SCT027 OVC060 11/08 A2999 RMK AO2,KVWU,2024-05-05T00:35:00Z,48.1502,-94.512,11,8,0,0,,10+,29.99,,,TRUE,TRUE,,,,,,,SCT,2700,OVC,6000,,,,,VFR,,,,,,,,,,,,METAR,359
KOWX 050035Z AUTO 00000KT 7SM BKN043 OVC048 21/17 A2991 RMK AO1,KOWX,2024-05-05T00:35:00Z,41.0341,-83.9862,21,17,0,0,,7,29.91,,,TRUE,TRUE,,,,,,,BKN,4300,OVC,4800,,,,,VFR,,,,,,,,,,,,METAR,232
KJVW 050035Z AUTO 00000KT 10SM SCT050 SCT055 A2996 RMK AO2,KJVW,2024-05-05T00:35:00Z,32.3069,-90.412,,,0,0,,10+,29.96,,,TRUE,TRUE,,,,,,,SCT,5000,SCT,5500,,,,,VFR,,,,,,,,,,,,METAR,73
WIPP 050030Z 18005KT 9999 FEW010 26/24 Q1009 NOSIG,WIPP,2024-05-05T00:30:00Z,-2.898,104.7,26,24,180,5,,6+,29.79,,,,,,TRUE,,,,,FEW,1000,,,,,,,VFR,,,,,,,,,,,,METAR,7
WIOO 050030Z 07004KT 9999 SCT010 26/25 Q1010 NOSIG,WIOO,2024-05-05T00:30:00Z,-0.151,109.404,26,25,70,4,,6+,29.82,,,,,,TRUE,,,,,SCT,1000,,,,,,,VFR,,,,,,,,,,,,METAR,4
WIMM 050030Z 20003KT 3500 HZ FEW018 27/26 Q1008 NOSIG,WIMM,2024-05-05T00:30:00Z,3.636,98.874,27,26,200,3,,2.17,29.76,,,,,,TRUE,,,,HZ,FEW,1800,,,,,,,IFR,,,,,,,,,,,,METAR,7
WILL 050030Z 22003KT 3000 BR FEW020 25/25 Q1009 TEMPO TL0100 3000 BR,WILL,2024-05-05T00:30:00Z,-5.242,105.179,25,25,220,3,,1.86,29.79,,,,,,,,,,BR,FEW,2000,,,,,,,IFR,,,,,,,,,,,,METAR,83
WIHH 050030Z 36003KT 3000 HZ NSC 26/24 Q1009 NOSIG METAR ,WIHH,2024-05-05T00:30:00Z,-6.267,106.891,26,24,360,3,,1.86,29.79,,,,,,TRUE,,,,HZ,CLR,,,,,,,,IFR,,,,,,,,,,,,METAR,26
WIEE 050030Z 06003KT 3900 VCTS RA FEW017CB BKN020 27/26 Q1009 NOSIG RMK CB TO NW,WIEE,2024-05-05T00:30:00Z,-0.783,100.283,27,26,60,3,,2.42,29.79,,,,,,TRUE,,,,VCTS RA,FEW,1700,BKN,2000,,,,,IFR,,,,,,,,,,,,METAR,5
WIDN 050030Z 00000KT 9999 SCT017 26/26 Q1009 NOSIG,WIDN,2024-05-05T00:30:00Z,0.923,104.532,26,26,0,0,,6+,29.79,,,,,,TRUE,,,,,SCT,1700,,,,,,,VFR,,,,,,,,,,,,METAR,18
WIDD 050030Z 24003KT 9999 FEW014 27/25 Q1010 NOSIG,WIDD,2024-05-05T00:30:00Z,1.121,104.119,27,25,240,3,,6+,29.82,,,,,,TRUE,,,,,FEW,1400,,,,,,,VFR,,,,,,,,,,,,METAR,26
WIBB 050030Z 17004KT 4000 BR FEW012 26/26 Q1007,WIBB,2024-05-05T00:30:00Z,0.461,101.445,26,26,170,4,,2.49,29.73,,,,,,,,,,BR,FEW,1200,,,,,,,IFR,,,,,,,,,,,,METAR,41
WAYY 050030Z 09005KT 9999 SCT014 29/28 Q1010 NOSIG,WAYY,2024-05-05T00:30:00Z,-4.528,136.887,29,28,90,5,,6+,29.82,,,,,,TRUE,,,,,SCT,1400,,,,,,,VFR,,,,,,,,,,,,METAR,32
WATT 050030Z 09008KT 9999 FEW018 32/27 Q1011 NOSIG,WATT,2024-05-05T00:30:00Z,-10.172,123.671,32,27,90,8,,6+,29.85,,,,,,TRUE,,,,,FEW,1800,,,,,,,VFR,,,,,,,,,,,,METAR,104
WARR 050030Z 20003KT 5000 HZ FEW020 26/23 Q1010 NOSIG,WARR,2024-05-05T00:30:00Z,-7.38,112.787,26,23,200,3,,3.11,29.82,,,,,,TRUE,,,,HZ,FEW,2000,,,,,,,MVFR,,,,,,,,,,,,METAR,3
WAPP 050030Z 06002KT 9999 SCT017 29/26 Q1008 NOSIG,WAPP,2024-05-05T00:30:00Z,-3.71,128.089,29,26,60,2,,6+,29.76,,,,,,TRUE,,,,,SCT,1700,,,,,,,VFR,,,,,,,,,,,,METAR,20
WALL 050030Z 36003KT 7000 -RA FEW018CB BKN020 26/25 Q1009 RMK CB TO NE,WALL,2024-05-05T00:30:00Z,-1.268,116.894,26,25,360,3,,4.35,29.79,,,,,,,,,,-RA,FEW,1800,BKN,2000,,,,,MVFR,,,,,,,,,,,,METAR,3
WAKK 050030Z 11010KT 9999 OVC014 28/25 Q1008 NOSIG,WAKK,2024-05-05T00:30:00Z,-8.52,140.417,28,25,110,10,,6+,29.76,,,,,,TRUE,,,,,OVC,1400,,,,,,,MVFR,,,,,,,,,,,,METAR,5
WAHS 050030Z 09002KT 4000 HZ FEW014 27/24 Q1010 NOSIG,WAHS,2024-05-05T00:30:00Z,-6.973,110.375,27,24,90,2,,2.49,29.82,,,,,,TRUE,,,,HZ,FEW,1400,,,,,,,IFR,,,,,,,,,,,,METAR,3
WADD 050030Z 27003KT 9999 FEW016 27/25 Q1011 NOSIG,WADD,2024-05-05T00:30:00Z,-8.748,115.167,27,25,270,3,,6+,29.85,,,,,,TRUE,,,,,FEW,1600,,,,,,,VFR,,,,,,,,,,,,METAR,3
WABB 050030Z 24004KT 070V240 9999 SCT015 BKN100 29/26 Q1009 NOSIG,WABB,2024-05-05T00:30:00Z,-1.19,136.108,29,26,240,4,,6+,29.79,,,,,,TRUE,,,,,SCT,1500,BKN,10000,,,,,VFR,,,,,,,,,,,,METAR,12
WAAA 050030Z 10003KT 080V140 9999 SCT018 28/27 Q1009 NOSIG,WAAA,2024-05-05T00:30:00Z,-5.062,119.554,28,27,100,3,,6+,29.79,,,,,,TRUE,,,,,SCT,1800,,,,,,,VFR,,,,,,,,,,,,METAR,13
VOVZ 050030Z 23006KT 3500 BR SCT018 SCT090 30/28 Q1005 NOSIG,VOVZ,2024-05-05T00:30:00Z,17.722,83.228,30,28,230,6,,2.17,29.68,,,,,,TRUE,,,,BR,SCT,1800,SCT,9000,,,,,IFR,,,,,,,,,,,,METAR,4
VOGO 050030Z 07003KT 6000 FEW030 SCT090 27/24 Q1007 NOSIG,VOGO,2024-05-05T00:30:00Z,15.378,73.828,27,24,70,3,,3.73,29.73,,,,,,TRUE,,,,,FEW,3000,SCT,9000,,,,,MVFR,,,,,,,,,,,,METAR,56
VIUT 050030Z 28009KT 6000 SCT100 SCT250 28/16 Q1005 NOSIG,VIUT,2024-05-05T00:30:00Z,25.813,71.482,28,16,280,9,,3.73,29.68,,,,,,TRUE,,,,,SCT,10000,SCT,25000,,,,,MVFR,,,,,,,,,,,,METAR,152
VISR 050030Z VRB01KT 6000 FEW020 BKN090 12/10 Q1019 NOSIG,VISR,2024-05-05T00:30:00Z,33.987,74.774,12,10,VRB,1,,3.73,30.09,,,,,,TRUE,,,,,FEW,2000,BKN,9000,,,,,MVFR,,,,,,,,,,,,METAR,1655
VISP 050030Z 24003KT 6000 FEW100 22/15 Q1002 NOSIG,VISP,2024-05-05T00:30:00Z,29.994,77.425,22,15,240,3,,3.73,29.59,,,,,,TRUE,,,,,FEW,10000,,,,,,,MVFR,,,,,,,,,,,,METAR,272
VILH 050030Z 09004KT 6000 SOCC FEW060 SCT070 BKN120 07/M02 Q1025 NOSIG,VILH,2024-05-05T00:30:00Z,34.136,77.546,7,-2,90,4,,3.73,30.27,,,,,,TRUE,,,,,FEW,6000,SCT,7000,BKN,12000,,,MVFR,,,,,,,,,,,,METAR,3256
VIJU 050030Z 26003KT 6000 FEW200 21/15 Q1004 NOSIG,VIJU,2024-05-05T00:30:00Z,32.689,74.837,21,15,260,3,,3.73,29.65,,,,,,TRUE,,,,,FEW,20000,,,,,,,MVFR,,,,,,,,,,,,METAR,285
VIJR 050030Z 23005KT 6000 SCT250 28/13 Q1006 NOSIG,VIJR,2024-05-05T00:30:00Z,26.889,70.865,28,13,230,5,,3.73,29.70,,,,,,TRUE,,,,,SCT,25000,,,,,,,MVFR,,,,,,,,,,,,METAR,229
VIJO 050030Z 27010KT 6000 FEW100 BKN250 28/10 Q1005 NOSIG,VIJO,2024-05-05T00:30:00Z,26.243,73.039,28,10,270,10,,3.73,29.68,,,,,,TRUE,,,,,FEW,10000,BKN,25000,,,,,MVFR,,,,,,,,,,,,METAR,215
VIGR 050030Z VRB02KT 5000 FEW100 SCT250 27/09 Q1003 NOSIG,VIGR,2024-05-05T00:30:00Z,26.293,78.228,27,9,VRB,2,,3.11,29.62,,,,,,TRUE,,,,,FEW,10000,SCT,25000,,,,,MVFR,,,,,,,,,,,,METAR,187
VICG 050030Z VRB02KT 6000 SKC 25/10 Q1002 NOSIG,VICG,2024-05-05T00:30:00Z,30.677,76.789,25,10,VRB,2,,3.73,29.59,,,,,,TRUE,,,,,SKC,,,,,,,,MVFR,,,,,,,,,,,,METAR,316
VIBY 050030Z VRB02KT 5000 HZ FEW100 23/10 Q1001 NOSIG,VIBY,2024-05-05T00:30:00Z,28.421,79.452,23,10,VRB,2,,3.11,29.56,,,,,,TRUE,,,,HZ,FEW,10000,,,,,,,MVFR,,,,,,,,,,,,METAR,175
VIAG 050030Z VRB01KT 6000 FEW100 24/14 Q1002 NOSIG,VIAG,2024-05-05T00:30:00Z,27.156,77.961,24,14,VRB,1,,3.73,29.59,,,,,,TRUE,,,,,FEW,10000,,,,,,,MVFR,,,,,,,,,,,,METAR,159
VETZ 050030Z 07005KT 6000 FEW025 SCT090 23/21 Q1004 NOSIG,VETZ,2024-05-05T00:30:00Z,26.709,92.785,23,21,70,5,,3.73,29.65,,,,,,TRUE,,,,,FEW,2500,SCT,9000,,,,,MVFR,,,,,,,,,,,,METAR,73
VELP 050030Z 23006KT 5000 BR SCT018 SCT100 20/20 Q1008 NOSIG,VELP,2024-05-05T00:30:00Z,23.841,92.62,20,20,230,6,,3.11,29.76,,,,,,TRUE,,,,BR,SCT,1800,SCT,10000,,,,,MVFR,,,,,,,,,,,,SPECI,429
VEKU 050030Z 10004KT 4000 BR FEW012 SCT020 BKN090 22/21 Q1008 BECMG 5000,VEKU,2024-05-05T00:30:00Z,24.913,92.979,22,21,100,4,,2.49,29.76,,,,,,,,,,BR,FEW,1200,SCT,2000,BKN,9000,,,IFR,,,,,,,,,,,,METAR,107
VEJT 050030Z 02005KT 6000 FEW012 SCT025 BKN090 23/20 Q1005 TEMPO RA,VEJT,2024-05-05T00:30:00Z,26.731,94.175,23,20,20,5,,3.73,29.68,,,,,,,,,,,FEW,1200,SCT,2500,BKN,9000,,,MVFR,,,,,,,,,,,,METAR,95
VEHX 050030Z VRB02KT 6000 FEW025 SCT100 23/19 Q1004 NOSIG,VEHX,2024-05-05T00:30:00Z,26.6979,89.3689,23,19,VRB,2,,3.73,29.65,,,,,,TRUE,,,,,FEW,2500,SCT,10000,,,,,MVFR,,,,,,,,,,,,METAR,104
VEGK 050030Z 00000KT 2000 R29/1700 HZ FEW250 24/14 Q1001 NOSIG,VEGK,2024-05-05T00:30:00Z,26.74,83.451,24,14,0,0,,1.24,29.56,,,,,,TRUE,,,,HZ,FEW,25000,,,,,,,IFR,,,,,,,,,,,,METAR,83
VEBS 050030Z 18009KT 4000 BR BKN016 BKN100 29/27 Q1004 NOSIG,VEBS,2024-05-05T00:30:00Z,20.244,85.818,29,27,180,9,,2.49,29.65,,,,,,TRUE,,,,BR,BKN,1600,BKN,10000,,,,,IFR,,,,,,,,,,,,METAR,42
VEBD 050030Z 05005KT 5000 BR FEW030 SCT100 27/22 Q1005 NOSIG,VEBD,2024-05-05T00:30:00Z,26.681,88.329,27,22,50,5,,3.11,29.68,,,,,,TRUE,,,,BR,FEW,3000,SCT,10000,,,,,MVFR,,,,,,,,,,,,METAR,126
VAUD 050030Z 29004KT 5000 HZ FEW030 SCT100 28/12 Q1007 NOSIG,VAUD,2024-05-05T00:30:00Z,24.618,73.896,28,12,290,4,,3.11,29.73,,,,,,TRUE,,,,HZ,FEW,3000,SCT,10000,,,,,MVFR,,,,,,,,,,,,METAR,506
VAPO 050030Z 26005KT 6000 SKC 25/16 Q1011 NOSIG,VAPO,2024-05-05T00:30:00Z,18.582,73.92,25,16,260,5,,3.73,29.85,,,,,,TRUE,,,,,SKC,,,,,,,,MVFR,,,,,,,,,,,,METAR,593
VAJM 050030Z 26007KT 6000 BKN080 28/26 Q1006 NOSIG,VAJM,2024-05-05T00:30:00Z,22.465,70.009,28,26,260,7,,3.73,29.70,,,,,,TRUE,,,,,BKN,8000,,,,,,,MVFR,,,,,,,,,,,,METAR,20
VABJ 050030Z 25005KT 6000 BKN100 BKN200 28/22 Q1007 NOSIG,VABJ,2024-05-05T00:30:00Z,23.286,69.672,28,22,250,5,,3.73,29.73,,,,,,TRUE,,,,,BKN,10000,BKN,20000,,,,,MVFR,,,,,,,,,,,,METAR,79
LJLJ 050030Z 29003KT 9999 FEW050 08/07 Q1015 NOSIG,LJLJ,2024-05-05T00:30:00Z,46.218,14.477,8,7,290,3,,6+,29.97,,,,,,TRUE,,,,,FEW,5000,,,,,,,VFR,,,,,,,,,,,,METAR,363
HKJK 050030Z 02003KT 9999 BKN015 18/18 Q1021 NOSIG,HKJK,2024-05-05T00:30:00Z,-1.319,36.928,18,18,20,3,,6+,30.15,,,,,,TRUE,,,,,BKN,1500,,,,,,,MVFR,,,,,,,,,,,,METAR,1615
GQNO 050030Z 33007KT CAVOK 21/19 Q1011 NOSIG,GQNO,2024-05-05T00:30:00Z,18.31,-15.97,21,19,330,7,,6+,29.85,,,,,,TRUE,,,,,CAVOK,,,,,,,,VFR,,,,,,,,,,,,METAR,1
GOBD 050030Z 36017KT CAVOK 22/20 Q1010 NOSIG,GOBD,2024-05-05T00:30:00Z,14.671,-17.067,22,20,360,17,,6+,29.82,,,,,,TRUE,,,,,CAVOK,,,,,,,,VFR,,,,,,,,,,,,METAR,90
GABS 050030Z 27002KT CAVOK 28/17 Q1010 NOSIG,GABS,2024-05-05T00:30:00Z,12.534,-7.95,28,17,270,2,,6+,29.82,,,,,,TRUE,,,,,CAVOK,,,,,,,,VFR,,,,,,,,,,,,METAR,375
DAON 050030Z 00000KT CAVOK 14/01 Q1018,DAON,2024-05-05T00:30:00Z,35.013,-1.457,14,1,0,0,,6+,30.06,,,,,,,,,,,CAVOK,,,,,,,,VFR,,,,,,,,,,,,METAR,245
DABC 050030Z VRB02KT CAVOK 10/06 Q1020,DABC,2024-05-05T00:30:00Z,36.278,6.629,10,6,VRB,2,,6+,30.12,,,,,,,,,,,CAVOK,,,,,,,,VFR,,,,,,,,,,,,METAR,686
CYFS 050030Z 12011G22KT 100V170 15SM FEW100 FEW250 20/M04 A2971 RMK AC1CI1 AC TR CI TR LAST STFD OBS/NXT 1300Z SLP069 DENSITY ALT 1500FT,CYFS,2024-05-05T00:30:00Z,61.76,-121.23,20,-4,120,11,22,15,29.71,1006.9,,,,,,,,,,FEW,10000,FEW,25000,,,,,VFR,,,,,,,,,,,,SPECI,174
KFTN 050028Z AUTO 10008G15KT 7SM OVC060 28/22 A2976 RMK A01,KFTN,2024-05-05T00:28:00Z,28.2111,-100.024,28,22,100,8,15,7,29.76,,,TRUE,TRUE,,,,,,,OVC,6000,,,,,,,VFR,,,,,,,,,,,,METAR,236
SARE 050020Z 28001KT 5000 -DZ SCT011 OVC016 19/19 Q1012,SARE,2024-05-05T00:20:00Z,-27.45,-59.056,19,19,280,1,,3.11,29.88,,,,,,,,,,-DZ,SCT,1100,OVC,1600,,,,,MVFR,,,,,,,,,,,,SPECI,52
LTAJ 050020Z 21007KT 9999 SCT030 BKN090 13/10 Q1007 NOSIG RMK RWY10 21008KT 170V260 3CU030 5AC090,LTAJ,2024-05-05T00:20:00Z,36.947,37.479,13,10,210,7,,6+,29.73,,,,,,TRUE,,,,,SCT,3000,BKN,9000,,,,,VFR,,,-0.8,,,,,,,,,METAR,684
LIRA 050020Z VRB01KT CAVOK 13/10 Q1017,LIRA,2024-05-05T00:20:00Z,41.808,12.585,13,10,VRB,1,,6+,30.03,,,,,,,,,,,CAVOK,,,,,,,,VFR,,,,,,,,,,,,METAR,101
ETWM 050020Z AUTO 07009KT //// // ////// 10/10 Q1006 ///,ETWM,2024-05-05T00:20:00Z,52.725,7.33,10,10,70,9,,,29.70,,,TRUE,,,,,,,,,,,,,,,,,,,,,,,,,,,,METAR,18
ETSN 050020Z 36001KT 9999 BKN090 BKN200 10/08 Q1012 BLU,ETSN,2024-05-05T00:20:00Z,48.71,11.21,10,8,360,1,,6+,29.88,,,,,,,,,,,BKN,9000,BKN,20000,,,,,VFR,,,,,,,,,,,,METAR,378
ETSL 050020Z AUTO 26002KT 9999 // ////// 11/08 Q1012 ///,ETSL,2024-05-05T00:20:00Z,48.185,10.861,11,8,260,2,,6+,29.88,,,TRUE,,,,,,,,,,,,,,,,VFR,,,,,,,,,,,,METAR,548
ETSI 050020Z AUTO VRB01KT //// // ////// 10/08 Q1012 ///,ETSI,2024-05-05T00:20:00Z,48.716,11.534,10,8,VRB,1,,,29.88,,,TRUE,,,,,,,,,,,,,,,,,,,,,,,,,,,,METAR,366
ETSH 050020Z 00000KT 9999 BKN045 BKN280 11/10 Q1010 BLU,ETSH,2024-05-05T00:20:00Z,51.768,13.168,11,10,0,0,,6+,29.82,,,,,,,,,,,BKN,4500,BKN,28000,,,,,VFR,,,,,,,,,,,,METAR,79
ETSB 050020Z AUTO 25006KT //// // ////// 09/09 Q1008 ///,ETSB,2024-05-05T00:20:00Z,50.175,7.06,9,9,250,6,,,29.76,,,TRUE,,,,,,,,,,,,,,,,,,,,,,,,,,,,METAR,477
ETNW 050020Z 12003KT 9999 BKN004 12/11 Q1008 YLO,ETNW,2024-05-05T00:20:00Z,52.457,9.427,12,11,120,3,,6+,29.76,,,,,,,,,,,BKN,400,,,,,,,LIFR,,,,,,,,,,,,METAR,57
ETNT 050020Z AUTO 06005KT //// // ////// 12/10 Q1008 ///,ETNT,2024-05-05T00:20:00Z,53.548,7.667,12,10,60,5,,,29.76,,,TRUE,,,,,,,,,,,,,,,,,,,,,,,,,,,,METAR,5
ETNS 050020Z AUTO 09004KT //// // ////// 13/10 Q1010 ///,ETNS,2024-05-05T00:20:00Z,54.457,9.52,13,10,90,4,,,29.82,,,TRUE,,,,,,,,,,,,,,,,,,,,,,,,,,,,METAR,22
ETNN 050020Z 20005KT 8000 BKN060 10/09 Q1008 BLU,ETNN,2024-05-05T00:20:00Z,50.829,6.66,10,9,200,5,,4.97,29.76,,,,,,,,,,,BKN,6000,,,,,,,MVFR,,,,,,,,,,,,METAR,108
ETNL 050020Z AUTO 08007KT 5000 // ////// 12/11 Q1011 ///,ETNL,2024-05-05T00:20:00Z,53.916,12.279,12,11,80,7,,3.11,29.85,,,TRUE,,,,,,,,,,,,,,,,MVFR,,,,,,,,,,,,METAR,40
ETNH 050020Z AUTO 06003KT //// // ////// 11/11 Q1010 ///,ETNH,2024-05-05T00:20:00Z,54.312,9.538,11,11,60,3,,,29.82,,,TRUE,,,,,,,,,,,,,,,,,,,,,,,,,,,,METAR,6
ETMN 050020Z AUTO 09005KT 6000 // ////// 13/09 Q1008 ///,ETMN,2024-05-05T00:20:00Z,53.765,8.658,13,9,90,5,,3.73,29.76,,,TRUE,,,,,,,,,,,,,,,,MVFR,,,,,,,,,,,,METAR,23
ETHS 050020Z 10005KT 9999 FEW080 BKN140 BKN190 12/09 Q1008 BLU,ETHS,2024-05-05T00:20:00Z,52.918,10.184,12,9,100,5,,6+,29.76,,,,,,,,,,,FEW,8000,BKN,14000,BKN,19000,,,VFR,,,,,,,,,,,,METAR,71
ETHN 050020Z 19007KT 9999 BKN050 OVC095 14/07 Q1011 BLU,ETHN,2024-05-05T00:20:00Z,49.398,9.958,14,7,190,7,,6+,29.85,,,,,,,,,,,BKN,5000,OVC,9500,,,,,VFR,,,,,,,,,,,,METAR,466
ETHL 050020Z AUTO 18004KT 9999 // ////// 12/05 Q1012 ///,ETHL,2024-05-05T00:20:00Z,48.218,9.91,12,5,180,4,,6+,29.88,,,TRUE,,,,,,,,,,,,,,,,VFR,,,,,,,,,,,,METAR,536
ETHF 050020Z 16005KT 9999 -RA BKN039 13/10 Q1008 BLU,ETHF,2024-05-05T00:20:00Z,51.114,9.286,13,10,160,5,,6+,29.76,,,,,,,,,,-RA,BKN,3900,,,,,,,VFR,,,,,,,,,,,,METAR,171
ETHC 050020Z AUTO 09005KT 8000 // ////// 13/09 Q1008 ///,ETHC,2024-05-05T00:20:00Z,52.591,10.022,13,9,90,5,,4.97,29.76,,,TRUE,,,,,,,,,,,,,,,,MVFR,,,,,,,,,,,,METAR,35
ETHB 050020Z 08002KT 9000 -RA OVC060 12/11 Q1007 RERA BLU,ETHB,2024-05-05T00:20:00Z,52.279,9.082,12,11,80,2,,5.59,29.73,,,,,,,,,,-RA,OVC,6000,,,,,,,VFR,,,,,,,,,,,,METAR,69
ETHA 050020Z AUTO 24005KT 9999 // ////// 08/06 Q1013 ///,ETHA,2024-05-05T00:20:00Z,47.834,10.867,8,6,240,5,,6+,29.91,,,TRUE,,,,,,,,,,,,,,,,VFR,,,,,,,,,,,,METAR,738
ETGG 050020Z AUTO 11004KT 9999 // ////// 10/10 Q1010 ///,ETGG,2024-05-05T00:20:00Z,54.827,9.506,10,10,110,4,,6+,29.82,,,TRUE,,,,,,,,,,,,,,,,VFR,,,,,,,,,,,,METAR,33
ENLE 050020Z 16017KT 9999 FEW030 SCT180 08/08 Q1009 W08/S3,ENLE,2024-05-05T00:20:00Z,56.535,3.205,8,8,160,17,,6+,29.79,,,,,,,,,,,FEW,3000,SCT,18000,,,,,VFR,,,,,,,,,,,,METAR,10
EDFH 050020Z 26005KT 230V290 6000 BKN005 09/09 Q1009,EDFH,2024-05-05T00:20:00Z,49.946,7.265,9,9,260,5,,3.73,29.79,,,,,,,,,,,BKN,500,,,,,,,IFR,,,,,,,,,,,,METAR,494
K40B 050016Z AUTO 00000KT 13/08 A3031 RMK AO1 SLP265 T01320076 10165 20133 55002,K40B,2024-05-05T00:16:00Z,46.616,-69.533,13.2,7.6,0,0,,,30.31,1026.5,,TRUE,TRUE,,,,,,,,,,,,,,,,-0.02,16.5,13.3,,,,,,,,,METAR,344
LIRP 050015Z 15002KT 7000 MIFG FEW003 12/12 Q1018 NOSIG,LIRP,2024-05-05T00:15:00Z,43.684,10.393,12,12,150,2,,4.35,30.06,,,,,,TRUE,,,,MIFG,FEW,300,,,,,,,MVFR,,,,,,,,,,,,METAR,1
RKTB 050013Z 11012KT 0800 -RA FG OVC030 16/15 A2985 RMK CIG030,RKTB,2024-05-05T00:13:00Z,37.066,126.014,16,15,110,12,,0.5,29.85,,,,,,,,,,-RA FG,OVC,3000,,,,,,,LIFR,,,,,,,,,,,,SPECI,12
KTHM 050011Z AUTO 07004KT 10SM 18/01 A2965 RMK Thompson Falls ,KTHM,2024-05-05T00:11:00Z,47.574,-115.282,18,1,70,4,,10+,29.65,,,TRUE,,,,,,,,,,,,,,,,VFR,,,,,,,,,,,,METAR,751
VCRI 050010Z 00000KT 9999 FEW018 25/25 Q1007 NOSIG,VCRI,2024-05-05T00:10:00Z,6.287,81.125,25,25,0,0,,6+,29.73,,,,,,TRUE,,,,,FEW,1800,,,,,,,VFR,,,,,,,,,,,,METAR,50
VCBI 050010Z VRB01KT 9999 SCT016 28/27 Q1007 NOSIG,VCBI,2024-05-05T00:10:00Z,7.181,79.884,28,27,VRB,1,,6+,29.73,,,,,,TRUE,,,,,SCT,1600,,,,,,,VFR,,,,,,,,,,,,METAR,10
WMKN 050000Z 19003KT 140V260 9999 FEW020 27/25 Q1007,WMKN,2024-05-05T00:00:00Z,5.383,103.103,27,25,190,3,,6+,29.73,,,,,,,,,,,FEW,2000,,,,,,,VFR,,,,,,,,,,,,METAR,12
WMKI 050000Z VRB02KT 8000 FEW005 27/26 Q1008,WMKI,2024-05-05T00:00:00Z,4.568,101.092,27,26,VRB,2,,4.97,29.76,,,,,,,,,,,FEW,500,,,,,,,MVFR,,,,,,,,,,,,METAR,37
WMKE 050000Z VRB02KT 9999 FEW010 26/24 Q1007,WMKE,2024-05-05T00:00:00Z,4.537,103.427,26,24,VRB,2,,6+,29.73,,,,,,,,,,,FEW,1000,,,,,,,VFR,,,,,,,,,,,,METAR,5
WMKC 050000Z 20003KT 150V250 8000 FEW020 27/25 Q1007,WMKC,2024-05-05T00:00:00Z,6.167,102.293,27,25,200,3,,4.97,29.73,,,,,,,,,,,FEW,2000,,,,,,,MVFR,,,,,,,,,,,,METAR,7
WMKB 050000Z VRB03KT 9999 FEW020 28/25 Q1007 NOSIG,WMKB,2024-05-05T00:00:00Z,5.466,100.391,28,25,VRB,3,,6+,29.73,,,,,,TRUE,,,,,FEW,2000,,,,,,,VFR,,,,,,,,,,,,METAR,4
WMKA 050000Z 11003KT 070V160 9000 FEW020 28/25 Q1007,WMKA,2024-05-05T00:00:00Z,6.19,100.398,28,25,110,3,,5.59,29.73,,,,,,,,,,,FEW,2000,,,,,,,VFR,,,,,,,,,,,,METAR,5
WMBA 050000Z VRB02KT 9999 FEW021 27/25 Q1008,WMBA,2024-05-05T00:00:00Z,4.221,100.701,27,25,VRB,2,,6+,29.76,,,,,,,,,,,FEW,2100,,,,,,,VFR,,,,,,,,,,,,METAR,9
WMAU 050000Z 00000KT 7000 FEW002 25/24 Q1008,WMAU,2024-05-05T00:00:00Z,2.387,103.876,25,24,0,0,,4.35,29.76,,,,,,,,,,,FEW,200,,,,,,,MVFR,,,,,,,,,,,,METAR,5
WAOO 050000Z 35003KT 9999 FEW020 27/25 Q1009 NOSIG,WAOO,2024-05-05T00:00:00Z,-3.44,114.759,27,25,350,3,,6+,29.79,,,,,,TRUE,,,,,FEW,2000,,,,,,,VFR,,,,,,,,,,,,METAR,23
VEAB 050000Z 00000KT 6000 FEW100 SCT250 24/14 Q1002 NOSIG,VEAB,2024-05-05T00:00:00Z,25.441,81.735,24,14,0,0,,3.73,29.59,,,,,,TRUE,,,,,FEW,10000,SCT,25000,,,,,MVFR,,,,,,,,,,,,METAR,98
UBBQ 050000Z 06002KT 9999 BKN080 12/11 Q1006 NOSIG RMK MT OBSC,UBBQ,2024-05-05T00:00:00Z,40.809,47.729,12,11,60,2,,6+,29.70,,,,,,TRUE,,,,,BKN,8000,,,,,,,VFR,,,,,,,,,,,,METAR,339
SPJL 050000Z 30016KT 9999 -RA SCT010 BKN100 09/02 Q1037 RMK PPTRZ,SPJL,2024-05-05T00:00:00Z,-15.467,-70.158,9,2,300,16,,6+,30.62,,,,,,,,,,-RA,SCT,1000,BKN,10000,,,,,VFR,,,,,,,,,,,,METAR,3837
SMZO 050000Z 10010KT 9999 SCT008 FEW012CB SCT020 28/26 Q1010 NOSIG,SMZO,2024-05-05T00:00:00Z,5.811,-55.191,28,26,100,10,,6+,29.82,,,,,,TRUE,,,,,SCT,800,FEW,1200,SCT,2000,,,VFR,,,,,,,,,,,,METAR,7
SLTJ 050000Z 12004KT 9999 NSC 18/03 Q1017,SLTJ,2024-05-05T00:00:00Z,-21.556,-64.701,18,3,120,4,,6+,30.03,,,,,,,,,,,CLR,,,,,,,,VFR,,,,,,,,,,,,METAR,1850
SKVP 050000Z 25004KT 9999 VCSH SCT015 SCT080 26/25 Q1011 RMK VCSH/NW,SKVP,2024-05-05T00:00:00Z,10.436,-73.248,26,25,250,4,,6+,29.85,,,,,,,,,,VCSH,SCT,1500,SCT,8000,,,,,VFR,,,,,,,,,,,,METAR,137
SKUI 050000Z 00000KT 9999 FEW030 SCT120 26/25 Q1008,SKUI,2024-05-05T00:00:00Z,5.691,-76.644,26,25,0,0,,6+,29.76,,,,,,,,,,,FEW,3000,SCT,12000,,,,,VFR,,,,,,,,,,,,METAR,55
SKUC 050000Z 15004KT 110V170 9999 BKN017CB 28/24 Q1009 RMK CB/S/SW,SKUC,2024-05-05T00:00:00Z,7.066,-70.735,28,24,150,4,,6+,29.79,,,,,,,,,,,BKN,1700,,,,,,,MVFR,,,,,,,,,,,,METAR,127
SKRH 050000Z 04007KT 010V100 9999 FEW018 29/25 Q1008,SKRH,2024-05-05T00:00:00Z,11.528,-72.918,29,25,40,7,,6+,29.76,,,,,,,,,,,FEW,1800,,,,,,,VFR,,,,,,,,,,,,METAR,11
SKPV 050000Z 07004KT 9999 FEW017 28/24 Q1010,SKPV,2024-05-05T00:00:00Z,13.358,-81.358,28,24,70,4,,6+,29.82,,,,,,,,,,,FEW,1700,,,,,,,VFR,,,,,,,,,,,,METAR,7
SKNV 050000Z 02009KT 9999 VCSH FEW030 BKN100 28/23 Q1010 RMK VCSH/S,SKNV,2024-05-05T00:00:00Z,2.949,-75.294,28,23,20,9,,6+,29.82,,,,,,,,,,VCSH,FEW,3000,BKN,10000,,,,,VFR,,,,,,,,,,,,METAR,449
SKMR 050000Z VRB03KT 9999 BKN016 27/24 Q1009,SKMR,2024-05-05T00:00:00Z,8.826,-75.825,27,24,VRB,3,,6+,29.79,,,,,,,,,,,BKN,1600,,,,,,,MVFR,,,,,,,,,,,,METAR,12
SKIB 050000Z 00000KT 9999 BKN005 BKN100 22/21 Q1017,SKIB,2024-05-05T00:00:00Z,4.418,-75.13,22,21,0,0,,6+,30.03,,,,,,,,,,,BKN,500,BKN,10000,,,,,IFR,,,,,,,,,,,,METAR,899
SKAR 050000Z 00000KT 9999 BKN020 SCT090 21/20 Q1017,SKAR,2024-05-05T00:00:00Z,4.455,-75.766,21,20,0,0,,6+,30.03,,,,,,,,,,,BKN,2000,SCT,9000,,,,,MVFR,,,,,,,,,,,,METAR,1214
SGVR 050000Z 00000KT CAVOK 22/20 Q1012,SGVR,2024-05-05T00:00:00Z,-25.758,-56.433,22,20,0,0,,6+,29.88,,,,,,,,,,,CAVOK,,,,,,,,VFR,,,,,,,,,,,,METAR,161
SGSP 050000Z 00000KT 9999 SCT020 23/18 Q1007,SGSP,2024-05-05T00:00:00Z,-24.028,-57.023,23,18,0,0,,6+,29.73,,,,,,,,,,,SCT,2000,,,,,,,VFR,,,,,,,,,,,,METAR,81
SGSJ 050000Z 18004KT 9999 OVC013 20/18 Q1012,SGSJ,2024-05-05T00:00:00Z,-26.667,-57.133,20,18,180,4,,6+,29.88,,,,,,,,,,,OVC,1300,,,,,,,MVFR,,,,,,,,,,,,METAR,131
SGPJ 050000Z 36005KT CAVOK 25/19 Q1015,SGPJ,2024-05-05T00:00:00Z,-22.641,-55.83,25,19,360,5,,6+,29.97,,,,,,,,,,,CAVOK,,,,,,,,VFR,,,,,,,,,,,,METAR,571
SGPI 050000Z 27002KT 9999 OVC007 20/19 Q1011,SGPI,2024-05-05T00:00:00Z,-26.881,-58.318,20,19,270,2,,6+,29.85,,,,,,,,,,,OVC,700,,,,,,,IFR,,,,,,,,,,,,METAR,59
SGPC 050000Z 00000KT CAVOK 19/17 Q1011,SGPC,2024-05-05T00:00:00Z,-23.499,-58.786,19,17,0,0,,6+,29.85,,,,,,,,,,,CAVOK,,,,,,,,VFR,,,,,,,,,,,,METAR,98
SGME 050000Z 00000KT 9999 OVC010 19/17 Q1010,SGME,2024-05-05T00:00:00Z,-22.034,-60.622,19,17,0,0,,6+,29.82,,,,,,,,,,,OVC,1000,,,,,,,MVFR,,,,,,,,,,,,METAR,166
SGLV 050000Z 18002KT CAVOK 25/19 Q1009,SGLV,2024-05-05T00:00:00Z,-22.283,-57.933,25,19,180,2,,6+,29.79,,,,,,,,,,,CAVOK,,,,,,,,VFR,,,,,,,,,,,,METAR,78
SGGR 050000Z 05002KT CAVOK 29/18 Q1009,SGGR,2024-05-05T00:00:00Z,-24.032,-54.351,29,18,50,2,,6+,29.79,,,,,,,,,,,CAVOK,,,,,,,,VFR,,,,,,,,,,,,METAR,297
SGCO 050000Z 18003KT CAVOK 24/21 Q1011,SGCO,2024-05-05T00:00:00Z,-23.438,-57.43,24,21,180,3,,6+,29.85,,,,,,,,,,,CAVOK,,,,,,,,VFR,,,,,,,,,,,,METAR,74
SCRM 050000Z 11044KT 8000 DRSN OVC010 M07/M10 Q1006 NOSIG,SCRM,2024-05-05T00:00:00Z,-62.191,-58.987,-7,-10,110,44,,4.97,29.70,,,,,,TRUE,,,,DRSN,OVC,1000,,,,,,,MVFR,,,,,,,,,,,,METAR,45
SBYS 050000Z 00000KT CAVOK 20/16 Q1020,SBYS,2024-05-05T00:00:00Z,-21.982,-47.34,20,16,0,0,,6+,30.12,,,,,,,,,,,CAVOK,,,,,,,,VFR,,,,,,,,,,,,METAR,600
SBUR 050000Z 05004KT CAVOK 26/10 Q1020,SBUR,2024-05-05T00:00:00Z,-19.765,-47.965,26,10,50,4,,6+,30.12,,,,,,,,,,,CAVOK,,,,,,,,VFR,,,,,,,,,,,,METAR,807
SBUL 050000Z 06004KT CAVOK 23/12 Q1021,SBUL,2024-05-05T00:00:00Z,-18.883,-48.226,23,12,60,4,,6+,30.15,,,,,,,,,,,CAVOK,,,,,,,,VFR,,,,,,,,,,,,METAR,945
SBSR 050000Z 10002KT CAVOK 28/11 Q1018,SBSR,2024-05-05T00:00:00Z,-20.817,-49.407,28,11,100,2,,6+,30.06,,,,,,,,,,,CAVOK,,,,,,,,VFR,,,,,,,,,,,,METAR,537
SBSM 050000Z 12004KT 3500 -RA BR BKN002 BKN020 OVC055 19/19 Q1013 RETS,SBSM,2024-05-05T00:00:00Z,-29.711,-53.688,19,19,120,4,,2.17,29.91,,,,,,,,,,-RA BR,BKN,200,BKN,2000,OVC,5500,,,LIFR,,,,,,,,,,,,METAR,86
SBSC 050000Z 15002KT CAVOK 23/22 Q1017,SBSC,2024-05-05T00:00:00Z,-22.932,-43.719,23,22,150,2,,6+,30.03,,,,,,,,,,,CAVOK,,,,,,,,VFR,,,,,,,,,,,,METAR,6
SBPK 050000Z 06004KT 9999 OVC012 20/20 Q1014,SBPK,2024-05-05T00:00:00Z,-31.717,-52.328,20,20,60,4,,6+,29.94,,,,,,,,,,,OVC,1200,,,,,,,MVFR,,,,,,,,,,,,METAR,17
SBMT 050000Z 09002KT CAVOK 22/15 Q1021,SBMT,2024-05-05T00:00:00Z,-23.509,-46.638,22,15,90,2,,6+,30.15,,,,,,,,,,,CAVOK,,,,,,,,VFR,,,,,,,,,,,,METAR,722
SBMK 050000Z 13007KT CAVOK 24/16 Q1020,SBMK,2024-05-05T00:00:00Z,-16.705,-43.819,24,16,130,7,,6+,30.12,,,,,,,,,,,CAVOK,,,,,,,,VFR,,,,,,,,,,,,METAR,665
SBMG 050000Z 05008KT CAVOK 26/16 Q1015,SBMG,2024-05-05T00:00:00Z,-23.476,-52.017,26,16,50,8,,6+,29.97,,,,,,,,,,,CAVOK,,,,,,,,VFR,,,,,,,,,,,,METAR,543
SBME 050000Z 05006KT CAVOK 25/22 Q1018,SBME,2024-05-05T00:00:00Z,-22.343,-41.766,25,22,50,6,,6+,30.06,,,,,,,,,,,CAVOK,,,,,,,,VFR,,,,,,,,,,,,METAR,2
SBLS 050000Z 16007KT CAVOK 22/15 Q1022,SBLS,2024-05-05T00:00:00Z,-19.662,-43.896,22,15,160,7,,6+,30.18,,,,,,,,,,,CAVOK,,,,,,,,VFR,,,,,,,,,,,,METAR,850
SBLE 050000Z AUTO 17005KT 130V210 6000 -RA SCT004 BKN007 OVC010 21/21 Q1019,SBLE,2024-05-05T00:00:00Z,-12.482,-41.277,21,21,170,5,,3.73,30.09,,,TRUE,,,,,,,-RA,SCT,400,BKN,700,OVC,1000,,,IFR,,,,,,,,,,,,METAR,495
SBLB 050000Z AUTO 06012KT 9999 NCD 24/18 Q1019 W28/S4,SBLB,2024-05-05T00:00:00Z,-22.109,-39.917,24,18,60,12,,6+,30.09,,,TRUE,,,,,,,,CLR,,,,,,,,VFR,,,,,,,,,,,,METAR,10
SBKG 050000Z 10006KT CAVOK 24/21 Q1016,SBKG,2024-05-05T00:00:00Z,-7.27,-35.895,24,21,100,6,,6+,30.00,,,,,,,,,,,CAVOK,,,,,,,,VFR,,,,,,,,,,,,METAR,499
SBJV 050000Z 33002KT 9000 SCT020 24/23 Q1016,SBJV,2024-05-05T00:00:00Z,-26.224,-48.797,24,23,330,2,,5.59,30.00,,,,,,,,,,,SCT,2000,,,,,,,VFR,,,,,,,,,,,,METAR,3
SBJU 050000Z 00000KT 9999 FEW020 26/22 Q1015,SBJU,2024-05-05T00:00:00Z,-7.219,-39.27,26,22,0,0,,6+,29.97,,,,,,,,,,,FEW,2000,,,,,,,VFR,,,,,,,,,,,,METAR,407
SBJR 050000Z 00000KT CAVOK 22/22 Q1016,SBJR,2024-05-05T00:00:00Z,-22.988,-43.37,22,22,0,0,,6+,30.00,,,,,,,,,,,CAVOK,,,,,,,,VFR,,,,,,,,,,,,METAR,5
SBIP 050000Z AUTO VRB02KT CAVOK 21/17 Q1019,SBIP,2024-05-05T00:00:00Z,-19.471,-42.488,21,17,VRB,2,,6+,30.09,,,TRUE,,,,,,,,CAVOK,,,,,,,,VFR,,,,,,,,,,,,METAR,240
SBIL 050000Z 24005KT 9999 SCT020 25/24 Q1017,SBIL,2024-05-05T00:00:00Z,-14.816,-39.033,25,24,240,5,,6+,30.03,,,,,,,,,,,SCT,2000,,,,,,,VFR,,,,,,,,,,,,METAR,9
SBHT 050000Z 18006KT 9999 SCT015 26/25 Q1011 RETS,SBHT,2024-05-05T00:00:00Z,-3.251,-52.252,26,25,180,6,,6+,29.85,,,,,,,,,,,SCT,1500,,,,,,,VFR,,,,,,,,,,,,METAR,105
SBDN 050000Z 07005KT CAVOK 28/16 Q1016,SBDN,2024-05-05T00:00:00Z,-22.175,-51.427,28,16,70,5,,6+,30.00,,,,,,,,,,,CAVOK,,,,,,,,VFR,,,,,,,,,,,,METAR,438
SBCP 050000Z 07002KT CAVOK 22/22 Q1018,SBCP,2024-05-05T00:00:00Z,-21.701,-41.305,22,22,70,2,,6+,30.06,,,,,,,,,,,CAVOK,,,,,,,,VFR,,,,,,,,,,,,METAR,15
SBCO 050000Z 08003KT 4500 -RA SCT015 OVC040 21/20 Q1015,SBCO,2024-05-05T00:00:00Z,-29.945,-51.144,21,20,80,3,,2.8,29.97,,,,,,,,,,-RA,SCT,1500,OVC,4000,,,,,IFR,,,,,,,,,,,,METAR,8
SBCC 050000Z 06005KT 9999 FEW040 26/22 Q1012,SBCC,2024-05-05T00:00:00Z,-9.334,-54.965,26,22,60,5,,6+,29.88,,,,,,,,,,,FEW,4000,,,,,,,VFR,,,,,,,,,,,,METAR,540
SBBU 050000Z 07001KT CAVOK 30/16 Q1018,SBBU,2024-05-05T00:00:00Z,-22.345,-49.054,30,16,70,1,,6+,30.06,,,,,,,,,,,CAVOK,,,,,,,,VFR,,,,,,,,,,,,METAR,616
SBBH 050000Z 10007KT CAVOK 22/15 Q1022,SBBH,2024-05-05T00:00:00Z,-19.851,-43.951,22,15,100,7,,6+,30.18,,,,,,,,,,,CAVOK,,,,,,,,VFR,,,,,,,,,,,,METAR,799
SBAX 050000Z AUTO 14009KT CAVOK 21/12 Q1022,SBAX,2024-05-05T00:00:00Z,-19.563,-46.96,21,12,140,9,,6+,30.18,,,TRUE,,,,,,,,CAVOK,,,,,,,,VFR,,,,,,,,,,,,METAR,989
SBAN 050000Z 12006KT CAVOK 21/12 Q1021,SBAN,2024-05-05T00:00:00Z,-16.229,-48.964,21,12,120,6,,6+,30.15,,,,,,,,,,,CAVOK,,,,,,,,VFR,,,,,,,,,,,,METAR,1131
SASJ 050000Z 28003KT CAVOK 12/12 Q1014,SASJ,2024-05-05T00:00:00Z,-24.387,-65.098,12,12,280,3,,6+,29.94,,,,,,,,,,,CAVOK,,,,,,,,VFR,,,,,,,,,,,,METAR,913
OSLK 050000Z 26013G28KT 9999 SCT026 BKN030 19/12 Q1007,OSLK,2024-05-05T00:00:00Z,35.402,35.949,19,12,260,13,28,6+,29.73,,,,,,,,,,,SCT,2600,BKN,3000,,,,,MVFR,,,,,,,,,,,,METAR,47
OSKL 050000Z 06002KT CAVOK 14/10 Q1007,OSKL,2024-05-05T00:00:00Z,37.029,41.199,14,10,60,2,,6+,29.73,,,,,,,,,,,CAVOK,,,,,,,,VFR,,,,,,,,,,,,METAR,443
OSDI 050000Z 21010KT CAVOK 13/08 Q1010,OSDI,2024-05-05T00:00:00Z,33.411,36.516,13,8,210,10,,6+,29.82,,,,,,,,,,,CAVOK,,,,,,,,VFR,,,,,,,,,,,,METAR,614
OSAP 050000Z 27006KT 9999 SCT030 16/10 Q1008,OSAP,2024-05-05T00:00:00Z,36.183,37.218,16,10,270,6,,6+,29.76,,,,,,,,,,,SCT,3000,,,,,,,VFR,,,,,,,,,,,,METAR,390
OIZJ 050000Z 34004KT 6000 NSC 27/24 Q1006,OIZJ,2024-05-05T00:00:00Z,25.653,57.798,27,24,340,4,,3.73,29.70,,,,,,,,,,,CLR,,,,,,,,MVFR,,,,,,,,,,,,METAR,6
OIZI 050000Z 00000KT CAVOK 25/14 Q1011,OIZI,2024-05-05T00:00:00Z,27.236,60.72,25,14,0,0,,6+,29.85,,,,,,,,,,,CAVOK,,,,,,,,VFR,,,,,,,,,,,,METAR,622
OIZB 050000Z 01012KT CAVOK 20/16 Q1007,OIZB,2024-05-05T00:00:00Z,31.094,61.546,20,16,10,12,,6+,29.73,,,,,,,,,,,CAVOK,,,,,,,,VFR,,,,,,,,,,,,METAR,483
OITM 050000Z 36008KT 9999 FEW035CB SCT090 10/07 Q1010,OITM,2024-05-05T00:00:00Z,37.348,46.146,10,7,360,8,,6+,29.82,,,,,,,,,,,FEW,3500,SCT,9000,,,,,VFR,,,,,,,,,,,,METAR,1340
OINE 050000Z 00000KT 9999 SCT090 13/12 Q1006,OINE,2024-05-05T00:00:00Z,37.383,55.452,13,12,0,0,,6+,29.70,,,,,,,,,,,SCT,9000,,,,,,,VFR,,,,,,,,,,,,METAR,125
OIBL 050000Z 00000KT 6000 NSC 25/20 Q1006,OIBL,2024-05-05T00:00:00Z,26.532,54.825,25,20,0,0,,3.73,29.70,,,,,,,,,,,CLR,,,,,,,,MVFR,,,,,,,,,,,,METAR,25
NVVW 050000Z 18005KT 9999 SCT020 BKN300 27/21 Q1011,NVVW,2024-05-05T00:00:00Z,-19.455,169.224,27,21,180,5,,6+,29.85,,,,,,,,,,,SCT,2000,BKN,30000,,,,,VFR,,,,,,,,,,,,METAR,5
NVVA 050000Z 13005KT 9999 BKN020 26/21 Q1012,NVVA,2024-05-05T00:00:00Z,-20.249,169.771,26,21,130,5,,6+,29.88,,,,,,,,,,,BKN,2000,,,,,,,MVFR,,,,,,,,,,,,METAR,7
NVSC 050000Z 15008KT 9999 -SHRA BKN018 OVC040 28/25 Q1008,NVSC,2024-05-05T00:00:00Z,-13.852,167.537,28,25,150,8,,6+,29.76,,,,,,,,,,-SHRA,BKN,1800,OVC,4000,,,,,MVFR,,,,,,,,,,,,METAR,11
NLWW 050000Z 33004KT 260V030 9999 FEW024 SCT260 31/25 Q1005 NOSIG,NLWW,2024-05-05T00:00:00Z,-13.238,-176.199,31,25,330,4,,6+,29.68,,,,,,TRUE,,,,,FEW,2400,SCT,26000,,,,,VFR,,,,,,,,,,,,METAR,24
NFTL 050000Z 12009KT 9999 FEW009 SCT015TCU BKN110 28/26 Q1008,NFTL,2024-05-05T00:00:00Z,-19.777,-174.34,28,26,120,9,,6+,29.76,,,,,,,,,,,FEW,900,SCT,1500,BKN,11000,,,VFR,,,,,,,,,,,,METAR,10
MZBZ 050000Z 10007KT 9999 SCT020 29/25 A2982 Q1009 NOSIG,MZBZ,2024-05-05T00:00:00Z,17.538,-88.309,29,25,100,7,,6+,29.79,,,,,,TRUE,,,,,SCT,2000,,,,,,,VFR,,,,,,,,,,,,METAR,6
MRPV 050000Z 10006KT 8000 FEW020 BKN150 24/18 A2998 NOSIG,MRPV,2024-05-05T00:00:00Z,9.957,-84.141,24,18,100,6,,4.97,29.98,,,,,,TRUE,,,,,FEW,2000,BKN,15000,,,,,MVFR,,,,,,,,,,,,METAR,998
MRLM 050000Z 06003KT 9999 FEW030 OVC140 29/24 A2984,MRLM,2024-05-05T00:00:00Z,9.961,-83.026,29,24,60,3,,6+,29.84,,,,,,,,,,,FEW,3000,OVC,14000,,,,,VFR,,,,,,,,,,,,METAR,2
MHYR 050000Z 04006KT 9999 SCT025TCU 30/27,MHYR,2024-05-05T00:00:00Z,15.127,-87.135,30,27,40,6,,6+,0.00,,,,,,,,,,,SCT,2500,,,,,,,VFR,,,,,,,,,,,,METAR,682
MHTR 050000Z 09004KT 9999 SCT024TCU 29/25,MHTR,2024-05-05T00:00:00Z,15.926,-85.939,29,25,90,4,,6+,0.00,,,,,,,,,,,SCT,2400,,,,,,,VFR,,,,,,,,,,,,METAR,3
MHLE 050000Z 02004KT 9999 FEW024 23/15,MHLE,2024-05-05T00:00:00Z,14.291,-88.175,23,15,20,4,,6+,0.00,,,,,,,,,,,FEW,2400,,,,,,,VFR,,,,,,,,,,,,METAR,1688
MHCH 050000Z 20015KT 9999 FEW030TCU 31/24,MHCH,2024-05-05T00:00:00Z,13.318,-87.154,31,24,200,15,,6+,0.00,,,,,,,,,,,FEW,3000,,,,,,,VFR,,,,,,,,,,,,METAR,58
MGZA 050000Z 06010KT 9000 SKC 34/17 QFE 981/3 HZ,MGZA,2024-05-05T00:00:00Z,14.959,-89.538,34,17,60,10,,5.59,0.00,,,,,,,,,,HZ,SKC,,,,,,,,VFR,,,,,,,,,,,,METAR,195
MGTU 050000Z 27006KT 8000 SKC 33/26 HZ,MGTU,2024-05-05T00:00:00Z,-99.99,-99.99,33,26,270,6,,4.97,0.00,,,,,,,,,,HZ,SKC,,,,,,,,MVFR,,,,,,,,,,,,METAR,9999
MGSJ 050000Z 27008KT 8000 SCT022 31/11 Q1007 A2974 HZ,MGSJ,2024-05-05T00:00:00Z,13.934,-90.832,31,11,270,8,,4.97,29.73,,,,,,,,,,HZ,SCT,2200,,,,,,,MVFR,,,,,,,,,,,,METAR,7
MGRT 050000Z 27008KT 8000 SCT018 31/26 Q1008 A2977 HZ VOL. STA MARIA Y SANTIAGUITO EN ACTIVIDAD,MGRT,2024-05-05T00:00:00Z,14.523,-91.697,31,26,270,8,,4.97,29.76,,,,,,,,,,HZ SA,SCT,1800,,,,,,,MVFR,,,,,,,,,,,,METAR,209
MGQZ 050000Z 36010KT CAVOK 24/14 QFE771/2 FEW200,MGQZ,2024-05-05T00:00:00Z,14.862,-91.506,24,14,360,10,,6+,0.00,,,,,,,,,,,FEW,20000,,,,,,,VFR,,,,,,,,,,,,METAR,2378
MGMT 050000Z 00000KT 9999 FEW015 31/27,MGMT,2024-05-05T00:00:00Z,-99.99,-99.99,31,27,0,0,,6+,0.00,,,,,,,,,,,FEW,1500,,,,,,,VFR,,,,,,,,,,,,METAR,9999
MGHT 050000Z 09010KT CAVOK 28/02,MGHT,2024-05-05T00:00:00Z,15.317,-91.503,28,2,90,10,,6+,0.00,,,,,,,,,,,CAVOK,,,,,,,,VFR,,,,,,,,,,,,METAR,1875
MGES 050000Z 03006KT 9000 SKC 30/15 QFE 906.3 HZ,MGES,2024-05-05T00:00:00Z,14.568,-89.326,30,15,30,6,,5.59,0.00,,,,,,,,,,HZ,SKC,,,,,,,,VFR,,,,,,,,,,,,METAR,948
MGCB 050000Z 02006KT CAVOK 27/17 QFE867.3,MGCB,2024-05-05T00:00:00Z,15.47,-90.406,27,17,20,6,,6+,0.00,,,,,,,,,,,CAVOK,,,,,,,,VFR,,,,,,,,,,,,METAR,1323
MDCY 050000Z 09008KT 7000 -TSRA FEW016CB BKN017 26/23 Q1013 CB/S/SW,MDCY,2024-05-05T00:00:00Z,19.271,-69.733,26,23,90,8,,4.35,29.91,,,,,,,,,,-TSRA,FEW,1600,BKN,1700,,,,,MVFR,,,,,,,,,,,,METAR,4
MDBH 050000Z 13010KT 9999 SCT020 29/25 Q1011,MDBH,2024-05-05T00:00:00Z,18.25,-71.126,29,25,130,10,,6+,29.85,,,,,,,,,,,SCT,2000,,,,,,,VFR,,,,,,,,,,,,METAR,7
LPMT 050000Z 23005KT 200V270 9999 FEW009 SCT015 BKN025 17/16 Q1018,LPMT,2024-05-05T00:00:00Z,38.704,-9.036,17,16,230,5,,6+,30.06,,,,,,,,,,,FEW,900,SCT,1500,BKN,2500,,,MVFR,,,,,,,,,,,,METAR,4
LPMR 050000Z 15003KT 9999 OVC021 15/15 Q1017,LPMR,2024-05-05T00:00:00Z,39.831,-8.887,15,15,150,3,,6+,30.03,,,,,,,,,,,OVC,2100,,,,,,,MVFR,,,,,,,,,,,,METAR,50
LBPL 042400Z 18002KT 9999 FEW100 11/10 Q1014,LBPL,2024-05-05T00:00:00Z,43.453,24.504,11,10,180,2,,6+,29.94,,,,,,,,,,,FEW,10000,,,,,,,VFR,,,,,,,,,,,,METAR,93
LBIA 050000Z 07006KT 9999 FEW100 12/07 Q1014,LBIA,2024-05-05T00:00:00Z,42.456,26.352,12,7,70,6,,6+,29.94,,,,,,,,,,,FEW,10000,,,,,,,VFR,,,,,,,,,,,,METAR,155
HKNK 050000Z 00000KT 9999 SCT017 BKN080 16/14,HKNK,2024-05-05T00:00:00Z,-0.298,36.159,16,14,0,0,,6+,0.00,,,,,,,,,,,SCT,1700,BKN,8000,,,,,VFR,,,,,,,,,,,,METAR,1900
HKMO 050000Z 20008KT 9999 FEW022 26/22 Q1010 NOSIG,HKMO,2024-05-05T00:00:00Z,-4.015,39.606,26,22,200,8,,6+,29.82,,,,,,TRUE,,,,,FEW,2200,,,,,,,VFR,,,,,,,,,,,,METAR,55
HKLO 050000Z 00000KT 9999 FEW023 BKN080 24/21 Q1012,HKLO,2024-05-05T00:00:00Z,3.122,35.609,24,21,0,0,,6+,29.88,,,,,,,,,,,FEW,2300,BKN,8000,,,,,VFR,,,,,,,,,,,,METAR,503
HKKI 050000Z 02003KT 9999 FEW016CB BKN080 19/18 Q1018,HKKI,2024-05-05T00:00:00Z,-0.086,34.734,19,18,20,3,,6+,30.06,,,,,,,,,,,FEW,1600,BKN,8000,,,,,VFR,,,,,,,,,,,,METAR,1152
HKGO 050000Z AUTO 12007KT 15/15 Q1023 A30.22,HKGO,2024-05-05T00:00:00Z,-99.999,-99.999,15,15,120,7,,,30.21,,,TRUE,,,,,,,,,,,,,,,,,,,,,,,,,,,,METAR,9999
HKEL 050000Z 15002KT 9999 FEW014 BKN080 15/14 Q1025,HKEL,2024-05-05T00:00:00Z,0.404,35.239,15,14,150,2,,6+,30.27,,,,,,,,,,,FEW,1400,BKN,8000,,,,,VFR,,,,,,,,,,,,METAR,2116
HESX 050000Z 34003KT CAVOK 18/12 Q1011 NOSIG,HESX,2024-05-05T00:00:00Z,30.108,30.896,18,12,340,3,,6+,29.85,,,,,,TRUE,,,,,CAVOK,,,,,,,,VFR,,,,,,,,,,,,METAR,168
HESN 050000Z 35005KT CAVOK 26/M04 Q1009 NOSIG,HESN,2024-05-05T00:00:00Z,23.964,32.82,26,-4,350,5,,6+,29.79,,,,,,TRUE,,,,,CAVOK,,,,,,,,VFR,,,,,,,,,,,,METAR,197
HESH 050000Z 35004KT CAVOK 27/03 Q1007 NOSIG,HESH,2024-05-05T00:00:00Z,27.977,34.395,27,3,350,4,,6+,29.73,,,,,,TRUE,,,,,CAVOK,,,,,,,,VFR,,,,,,,,,,,,METAR,50
HESG 050000Z 27008KT CAVOK 26/M00 Q1009 NOSIG,HESG,2024-05-05T00:00:00Z,26.343,31.743,26,0,270,8,,6+,29.79,,,,,,TRUE,,,,,CAVOK,,,,,,,,VFR,,,,,,,,,,,,METAR,70
HEPS 050000Z 29003KT CAVOK 20/14 Q1011 NOSIG,HEPS,2024-05-05T00:00:00Z,31.279,32.238,20,14,290,3,,6+,29.85,,,,,,TRUE,,,,,CAVOK,,,,,,,,VFR,,,,,,,,,,,,METAR,2
HEMM 050000Z 28012KT CAVOK 19/12 Q1012 NOSIG,HEMM,2024-05-05T00:00:00Z,31.325,27.222,19,12,280,12,,6+,29.88,,,,,,TRUE,,,,,CAVOK,,,,,,,,VFR,,,,,,,,,,,,METAR,26
HEMA 050000Z 30008KT CAVOK 26/M02 Q1008 NOSIG,HEMA,2024-05-05T00:00:00Z,25.557,34.584,26,-2,300,8,,6+,29.76,,,,,,TRUE,,,,,CAVOK,,,,,,,,VFR,,,,,,,,,,,,METAR,77
HELX 050000Z 00000KT CAVOK 25/01 Q1009 NOSIG,HELX,2024-05-05T00:00:00Z,25.671,32.706,25,1,0,0,,6+,29.79,,,,,,TRUE,,,,,CAVOK,,,,,,,,VFR,,,,,,,,,,,,METAR,86
HEGN 050000Z 35007KT CAVOK 28/03 Q1008 NOSIG,HEGN,2024-05-05T00:00:00Z,27.179,33.801,28,3,350,7,,6+,29.76,,,,,,TRUE,,,,,CAVOK,,,,,,,,VFR,,,,,,,,,,,,METAR,14
HEBL 050000Z 36003KT CAVOK 26/05 Q1009 NOSIG,HEBL,2024-05-05T00:00:00Z,22.376,31.612,26,5,360,3,,6+,29.79,,,,,,TRUE,,,,,CAVOK,,,,,,,,VFR,,,,,,,,,,,,METAR,184
HEBA 050000Z 21004KT CAVOK 16/11 Q1011 NOSIG,HEBA,2024-05-05T00:00:00Z,30.918,29.696,16,11,210,4,,6+,29.85,,,,,,TRUE,,,,,CAVOK,,,,,,,,VFR,,,,,,,,,,,,METAR,41
HEAT 050000Z 33006KT CAVOK 26/03 Q1013 NOSIG,HEAT,2024-05-05T00:00:00Z,27.049,31.014,26,3,330,6,,6+,29.91,,,,,,TRUE,,,,,CAVOK,,,,,,,,VFR,,,,,,,,,,,,METAR,229
HDAM 050000Z 14006KT 9999 FEW023 29/24 Q1007,HDAM,2024-05-05T00:00:00Z,11.547,43.16,29,24,140,6,,6+,29.73,,,,,,,,,,,FEW,2300,,,,,,,VFR,,,,,,,,,,,,METAR,6
GUCY 050000Z 25006KT 9999 SCT015 BKN110 30/27 Q1011 NOSIG,GUCY,2024-05-05T00:00:00Z,9.577,-13.612,30,27,250,6,,6+,29.85,,,,,,TRUE,,,,,SCT,1500,BKN,11000,,,,,VFR,,,,,,,,,,,,METAR,10
GOSS 050000Z 36008KT 300V040 CAVOK 22/19 Q1011,GOSS,2024-05-05T00:00:00Z,16.051,-16.461,22,19,360,8,,6+,29.85,,,,,,,,,,,CAVOK,,,,,,,,VFR,,,,,,,,,,,,METAR,3
GOSP 050000Z 28004KT CAVOK 31/13 Q1010,GOSP,2024-05-05T00:00:00Z,16.677,-14.964,31,13,280,4,,6+,29.82,,,,,,,,,,,CAVOK,,,,,,,,VFR,,,,,,,,,,,,METAR,10
GOSM 050000Z 02004KT CAVOK 36/15 Q1008,GOSM,2024-05-05T00:00:00Z,15.597,-13.326,36,15,20,4,,6+,29.76,,,,,,,,,,,CAVOK,,,,,,,,VFR,,,,,,,,,,,,METAR,28
GOOY 050000Z 32010KT CAVOK 23/21 Q1010,GOOY,2024-05-05T00:00:00Z,14.741,-17.49,23,21,320,10,,6+,29.82,,,,,,,,,,,CAVOK,,,,,,,,VFR,,,,,,,,,,,,METAR,21
GOOK 050000Z 04006KT CAVOK 30/15 Q1011,GOOK,2024-05-05T00:00:00Z,14.147,-16.052,30,15,40,6,,6+,29.85,,,,,,,,,,,CAVOK,,,,,,,,VFR,,,,,,,,,,,,METAR,8
GOOG 050000Z 32006KT CAVOK 33/11 Q1007,GOOG,2024-05-05T00:00:00Z,15.4,-15.084,33,11,320,6,,6+,29.73,,,,,,,,,,,CAVOK,,,,,,,,VFR,,,,,,,,,,,,METAR,38
GOOD 050000Z 36006KT CAVOK 27/17 Q1010,GOOD,2024-05-05T00:00:00Z,14.65,-16.23,27,17,360,6,,6+,29.82,,,,,,,,,,,CAVOK,,,,,,,,VFR,,,,,,,,,,,,METAR,9
GOGS 050000Z VRB02KT CAVOK 25/20 Q1011,GOGS,2024-05-05T00:00:00Z,12.389,-16.742,25,20,VRB,2,,6+,29.85,,,,,,,,,,,CAVOK,,,,,,,,VFR,,,,,,,,,,,,METAR,13
GOGK 050000Z 28004KT CAVOK 31/19 Q1007,GOGK,2024-05-05T00:00:00Z,12.898,-14.967,31,19,280,4,,6+,29.73,,,,,,,,,,,CAVOK,,,,,,,,VFR,,,,,,,,,,,,METAR,37
GOGG 050000Z 04004KT CAVOK 27/23 Q1011,GOGG,2024-05-05T00:00:00Z,12.556,-16.282,27,23,40,4,,6+,29.85,,,,,,,,,,,CAVOK,,,,,,,,VFR,,,,,,,,,,,,METAR,24
GMML 050000Z 02012KT 8000 NSC 17/17 Q1018 NOSIG,GMML,2024-05-05T00:00:00Z,27.141,-13.23,17,17,20,12,,4.97,30.06,,,,,,TRUE,,,,,CLR,,,,,,,,MVFR,,,,,,,,,,,,METAR,63
GBYD 050000Z 22007KT CAVOK 24/18 Q1010,GBYD,2024-05-05T00:00:00Z,13.341,-16.653,24,18,220,7,,6+,29.82,,,,,,,,,,,CAVOK,,,,,,,,VFR,,,,,,,,,,,,METAR,29
GANR 050000Z 08004KT CAVOK 32/09 Q1010,GANR,2024-05-05T00:00:00Z,15.237,-9.577,32,9,80,4,,6+,29.82,,,,,,,,,,,CAVOK,,,,,,,,VFR,,,,,,,,,,,,METAR,237
GAKD 050000Z 18002KT CAVOK 34/09 Q1008,GAKD,2024-05-05T00:00:00Z,14.482,-11.404,34,9,180,2,,6+,29.76,,,,,,,,,,,CAVOK,,,,,,,,VFR,,,,,,,,,,,,METAR,53
FWKI 050000Z 22005KT CAVOK 15/13 Q1021 TEMPO 2000 BCFG,FWKI,2024-05-05T00:00:00Z,-13.789,33.781,15,13,220,5,,6+,30.15,,,,,,,,,,,CAVOK,,,,,,,,VFR,,,,,,,,,,,,METAR,1225
FQTT 050000Z 13007KT 9999 FEW020 24/19 Q1018,FQTT,2024-05-05T00:00:00Z,-16.108,33.64,24,19,130,7,,6+,30.06,,,,,,,,,,,FEW,2000,,,,,,,VFR,,,,,,,,,,,,METAR,146
FQQL 050000Z /////KT CAVOK 23/21 Q1017,FQQL,2024-05-05T00:00:00Z,-17.858,36.869,23,21,,,,6+,30.03,,,,,,,,,,,CAVOK,,,,,,,,VFR,,,,,,,,,,,,METAR,5
FQPB 050000Z 21010KT 9999 FEW020 BKN100 25/21 Q1013,FQPB,2024-05-05T00:00:00Z,-12.989,40.525,25,21,210,10,,6+,29.91,,,,,,,,,,,FEW,2000,BKN,10000,,,,,VFR,,,,,,,,,,,,METAR,101
FOOL 050000Z 22005KT 190V260 9999 SCT010 29/26 Q1010 NOSIG,FOOL,2024-05-05T00:00:00Z,0.459,9.412,29,26,220,5,,6+,29.82,,,,,,TRUE,,,,,SCT,1000,,,,,,,VFR,,,,,,,,,,,,METAR,9
FNUB 050000Z AUTO VRB02KT //// // ////// 14/08 Q1024,FNUB,2024-05-05T00:00:00Z,-14.925,13.575,14,8,VRB,2,,,30.24,,,TRUE,,,,,,,,,,,,,,,,,,,,,,,,,,,,METAR,1749
FNHU 050000Z AUTO 10003KT 320V130 CAVOK 16/10 Q1022,FNHU,2024-05-05T00:00:00Z,-12.809,15.761,16,10,100,3,,6+,30.18,,,TRUE,,,,,,,,CAVOK,,,,,,,,VFR,,,,,,,,,,,,METAR,1697
FNGI 050000Z AUTO 08004KT 9999 // NCD 20/04 Q1018,FNGI,2024-05-05T00:00:00Z,-17.044,15.684,20,4,80,4,,6+,30.06,,,TRUE,,,,,,,,CLR,,,,,,,,VFR,,,,,,,,,,,,METAR,1116
FNCT 050000Z AUTO 00000KT 9999 NCD 25/24 Q1009,FNCT,2024-05-05T00:00:00Z,-12.479,13.487,25,24,0,0,,6+,29.79,,,TRUE,,,,,,,,CLR,,,,,,,,VFR,,,,,,,,,,,,METAR,6
FNCA 050000Z AUTO 16004KT 9999 SCT038 27/26 Q1009,FNCA,2024-05-05T00:00:00Z,-5.59,12.188,27,26,160,4,,6+,29.79,,,TRUE,,,,,,,,SCT,3800,,,,,,,VFR,,,,,,,,,,,,METAR,14
FMSD 050000Z 08006KT 9999 FEW016 22/15 Q1020,FMSD,2024-05-05T00:00:00Z,-25.038,46.956,22,15,80,6,,6+,30.12,,,,,,,,,,,FEW,1600,,,,,,,VFR,,,,,,,,,,,,METAR,7
FMNM 050000Z 15004KT 9999 FEW020 23/20 Q1013,FMNM,2024-05-05T00:00:00Z,-15.667,46.352,23,20,150,4,,6+,29.91,,,,,,,,,,,FEW,2000,,,,,,,VFR,,,,,,,,,,,,METAR,18
FMMT 050000Z 25008KT 8000 VCSH FEW007 SCT017TCU BKN033 22/22 Q1017,FMMT,2024-05-05T00:00:00Z,-18.11,49.392,22,22,250,8,,4.97,30.03,,,,,,,,,,VCSH,FEW,700,SCT,1700,BKN,3300,,,MVFR,,,,,,,,,,,,METAR,13
FKYS 050000Z VRB03KT 9999 BKN011 24/23 Q1016 NOSIG,FKYS,2024-05-05T00:00:00Z,3.833,11.521,24,23,VRB,3,,6+,30.00,,,,,,TRUE,,,,,BKN,1100,,,,,,,MVFR,,,,,,,,,,,,METAR,694
FKKD 050000Z VRB02KT 9999 BKN013 FEW016CB 28/27 Q1010 NOSIG,FKKD,2024-05-05T00:00:00Z,4.006,9.72,28,27,VRB,2,,6+,29.82,,,,,,TRUE,,,,,BKN,1300,FEW,1600,,,,,MVFR,,,,,,,,,,,,METAR,10
FEFF 050000Z 14004KT 7000 NSC 27/25 Q1011 NOSIG,FEFF,2024-05-05T00:00:00Z,4.399,18.519,27,25,140,4,,4.35,29.85,,,,,,TRUE,,,,,CLR,,,,,,,,MVFR,,,,,,,,,,,,METAR,364
FDOT 050000Z AUTO 00000KT //// // ////// 15/14 Q1020,FDOT,2024-05-05T00:00:00Z,-26.704,31.425,15,14,0,0,,,30.12,,,TRUE,,,,,,,,,,,,,,,,,,,,,,,,,,,,METAR,342
FCPP 050000Z 14002KT 8000 FEW010 BKN023 26/26 Q1010 NOSIG,FCPP,2024-05-05T00:00:00Z,-4.816,11.887,26,26,140,2,,4.97,29.82,,,,,,TRUE,,,,,FEW,1000,BKN,2300,,,,,MVFR,,,,,,,,,,,,METAR,18
FCBB 050000Z VRB01KT 7000 NSC 26/24 Q1011 NOSIG,FCBB,2024-05-05T00:00:00Z,-4.252,15.253,26,24,VRB,1,,4.35,29.85,,,,,,TRUE,,,,,CLR,,,,,,,,MVFR,,,,,,,,,,,,METAR,316
FAPN 050000Z AUTO 22003KT //// // ////// 09/05 Q1023,FAPN,2024-05-05T00:00:00Z,-25.334,27.173,9,5,220,3,,,30.21,,,TRUE,,,,,,,,,,,,,,,,,,,,,,,,,,,,METAR,1045
DXSK 050000Z 22004KT CAVOK 29/22 Q////,DXSK,2024-05-05T00:00:00Z,8.995,1.153,29,22,220,4,,6+,0.00,,,,,,,,,,,CAVOK,,,,,,,,VFR,,,,,,,,,,,,METAR,381
DXNG 050000Z 18006KT 9999 TS FEW007 FEW016CB 27/22 Q1012,DXNG,2024-05-05T00:00:00Z,9.767,1.091,27,22,180,6,,6+,29.88,,,,,,,,,,TS,FEW,700,FEW,1600,,,,,VFR,,,,,,,,,,,,METAR,343
DRRN 050000Z 21010KT 9000 NSC 36/16 Q1007 NOSIG,DRRN,2024-05-05T00:00:00Z,13.483,2.17,36,16,210,10,,5.59,29.73,,,,,,TRUE,,,,,CLR,,,,,,,,VFR,,,,,,,,,,,,METAR,223
DNMM 050000Z VRB02KT 9999 FEW013 29/27 Q1011 NOSIG,DNMM,2024-05-05T00:00:00Z,6.577,3.321,29,27,VRB,2,,6+,29.85,,,,,,TRUE,,,,,FEW,1300,,,,,,,VFR,,,,,,,,,,,,METAR,27
DNKN 050000Z 21012KT CAVOK 34/22 Q1012 NOSIG,DNKN,2024-05-05T00:00:00Z,12.048,8.525,34,22,210,12,,6+,29.88,,,,,,TRUE,,,,,CAVOK,,,,,,,,VFR,,,,,,,,,,,,METAR,471
DIYO 050000Z 22004KT CAVOK 28/24 Q1011 NOSIG,DIYO,2024-05-05T00:00:00Z,6.903,-5.366,28,24,220,4,,6+,29.85,,,,,,TRUE,,,,,CAVOK,,,,,,,,VFR,,,,,,,,,,,,METAR,202
DIBK 050000Z 18004KT 8000 FEW013 28/24 Q1012 NOSIG,DIBK,2024-05-05T00:00:00Z,7.739,-5.074,28,24,180,4,,4.97,29.88,,,,,,TRUE,,,,,FEW,1300,,,,,,,MVFR,,,,,,,,,,,,METAR,363
DGAA 050000Z 20008KT 9999 SCT018 29/26 Q1011 NOSIG,DGAA,2024-05-05T00:00:00Z,5.6,-0.17,29,26,200,8,,6+,29.85,,,,,,TRUE,,,,,SCT,1800,,,,,,,VFR,,,,,,,,,,,,METAR,68
DFOO 050000Z 22007KT 9999 FEW026 33/22 Q1011,DFOO,2024-05-05T00:00:00Z,11.163,-4.322,33,22,220,7,,6+,29.85,,,,,,,,,,,FEW,2600,,,,,,,VFR,,,,,,,,,,,,METAR,461
DFFD 050000Z 17008KT CAVOK 36/20 Q1009 NOSIG,DFFD,2024-05-05T00:00:00Z,12.356,-1.512,36,20,170,8,,6+,29.79,,,,,,TRUE,,,,,CAVOK,,,,,,,,VFR,,,,,,,,,,,,METAR,309
DBBB 050000Z 23005KT 9999 FEW012 28/25 Q1010 NOSIG,DBBB,2024-05-05T00:00:00Z,6.357,2.384,28,25,230,5,,6+,29.82,,,,,,TRUE,,,,,FEW,1200,,,,,,,VFR,,,,,,,,,,,,METAR,4
DAUL 050000Z 07010KT CAVOK 19/04 Q1019,DAUL,2024-05-05T00:00:00Z,33.764,2.928,19,4,70,10,,6+,30.09,,,,,,,,,,,CAVOK,,,,,,,,VFR,,,,,,,,,,,,METAR,755
DAUK 050000Z 10005KT CAVOK 23/05 Q1016,DAUK,2024-05-05T00:00:00Z,33.068,6.089,23,5,100,5,,6+,30.00,,,,,,,,,,,CAVOK,,,,,,,,VFR,,,,,,,,,,,,METAR,83
DAOL 050000Z 00000KT CAVOK 14/03 Q1018,DAOL,2024-05-05T00:00:00Z,35.542,-0.532,14,3,0,0,,6+,30.06,,,,,,,,,,,CAVOK,,,,,,,,VFR,,,,,,,,,,,,METAR,103
DAAY 050000Z 01008KT 7000 NSC 18/M01 Q1023,DAAY,2024-05-05T00:00:00Z,33.532,-0.248,18,-1,10,8,,4.35,30.21,,,,,,,,,,,CLR,,,,,,,,MVFR,,,,,,,,,,,,METAR,1116
CZRP 050000Z AUTO 04005KT M14/M16 RMK AO1 SOG 78 8016 SLP217 T11361157,CZRP,2024-05-05T00:00:00Z,75.377,-105.715,-13.6,-15.7,40,5,,,0.00,1021.7,,TRUE,TRUE,,,,,,,,,,,,,,,,,,,,,,,,,,,METAR,6
CZPS 050000Z AUTO 11009KT 13/M04 RMK AO1 T01251040,CZPS,2024-05-05T00:00:00Z,52.438,-113.593,12.5,-4,110,9,,,0.00,,,TRUE,TRUE,,,,,,,,,,,,,,,,,,,,,,,,,,,METAR,953
CYZW 050000Z 22006KT 30SM FEW086 BKN220 BKN250 14/M06 A2956 RMK AC1CS4CI1 HALO SLP037 DENSITY ALT 3200FT,CYZW,2024-05-05T00:00:00Z,60.175,-132.734,14,-6,220,6,,30,29.56,1003.7,,,,,,,,,,FEW,8600,BKN,22000,BKN,25000,,,VFR,,,,,,,,,,,,METAR,700
CYZU 050000Z 11015G21KT 15SM FEW050 BKN240 14/M05 A2978 RMK SC1CI6 SLP108 DENSITY ALT 3200FT,CYZU,2024-05-05T00:00:00Z,54.142,-115.785,14,-5,110,15,21,15,29.78,1010.8,,,,,,,,,,FEW,5000,BKN,24000,,,,,VFR,,,,,,,,,,,,METAR,785
CYXZ 050000Z VRB04KT 15SM FEW060 BKN100 OVC150 15/08 A2984 RMK SC2AC3AC3 LAST OBS/NEXT 051100 UTC VIRGA SW SLP115 DENSITY ALT 1300FT,CYXZ,2024-05-05T00:00:00Z,47.974,-84.781,15,8,VRB,4,,15,29.84,1011.5,,,,,,,,,,FEW,6000,BKN,10000,OVC,15000,,,VFR,,,,,,,,,,,,METAR,287
CYXY 050000Z 16015G21KT 40SM BKN075 OVC098 12/M05 A2954 RMK AC6AC2 VIRGA SLP029 DENSITY ALT 3000FT,CYXY,2024-05-05T00:00:00Z,60.71,-135.059,12,-5,160,15,21,40,29.54,1002.9,,,,,,,,,,BKN,7500,OVC,9800,,,,,VFR,,,,,,,,,,,,METAR,677
CYWL 050000Z 01007KT 320V030 15SM OVC100 16/M03 A2961 RMK AC8 SLP037 DENSITY ALT 4300FT,CYWL,2024-05-05T00:00:00Z,52.186,-122.066,16,-3,10,7,,15,29.61,1003.7,,,,,,,,,,OVC,10000,,,,,,,VFR,,,,,,,,,,,,METAR,942
CYPX 050000Z AUTO 11015KT 9SM OVC005 01/01 A2985 RMK SLP111,CYPX,2024-05-05T00:00:00Z,60.045,-77.281,1,1,110,15,,9,29.85,1011.1,,TRUE,,,,,,,,OVC,500,,,,,,,IFR,,,,,,,,,,,,METAR,10
CYLJ 050000Z 16004KT 15SM SCT050 10/01 A2991 RMK SC2 LAST STFD OBS/NXT 051200Z SLP147,CYLJ,2024-05-05T00:00:00Z,54.126,-108.519,10,1,160,4,,15,29.91,1014.7,,,,,,,,,,SCT,5000,,,,,,,VFR,,,,,,,,,,,,METAR,481
CYGE 050000Z 15011G16KT 20SM FEW100 BKN160 BKN220 19/M06 A2961 RMK CU2AC3CI2 LAST STFD OBS/NEXT 051200Z SLP039 DENSITY ALT 4000FT,CYGE,2024-05-05T00:00:00Z,51.3,-116.984,19,-6,150,11,16,20,29.61,1003.9,,,,,,,,,,FEW,10000,BKN,16000,BKN,22000,,,VFR,,,,,,,,,,,,METAR,786
CXYH 050000Z AUTO 17007KT 22/M04 RMK AO1 PK WND 18019/2324 SLP035 T02181036 56027,CXYH,2024-05-05T00:00:00Z,61.242,-123.742,21.8,-3.6,170,7,,,0.00,1003.5,,TRUE,TRUE,,,,,,,,,,,,,,,,-0.27,,,,,,,,,,,METAR,197
CXWB 050000Z AUTO 05021KT M04/M07 RMK AO1 PK WND 05025/2312 SLP246 T10371072 56013,CXWB,2024-05-05T00:00:00Z,65.879,-89.446,-3.7,-7.2,50,21,,,0.00,1024.6,,TRUE,TRUE,,,,,,,,,,,,,,,,-0.13,,,,,,,,,,,METAR,14
CXTV 050000Z AUTO 36014KT M07/M09 RMK AO1 SOG 88 3006 PK WND 01019/2304 SLP087 T10711087,CXTV,2024-05-05T00:00:00Z,68.746,-133.502,-7.1,-8.7,360,14,,,0.00,1008.7,,TRUE,TRUE,,,,,,,,,,,,,,,,,,,,,,,,,,,METAR,91
CXTN 050000Z AUTO 16028KT 02/M02 RMK AO1 SOG 65 7006 PK WND 16033/2347 SLP052 T00211017,CXTN,2024-05-05T00:00:00Z,69.199,-122.359,2.1,-1.7,160,28,,,0.00,1005.2,,TRUE,TRUE,,,,,,,,,,,,,,,,,,,,,,,,,,,METAR,564
CXLL 050000Z AUTO 18005KT 23/M03 RMK AO1 SLP067 T02281033 57029,CXLL,2024-05-05T00:00:00Z,61.125,-122.851,22.8,-3.3,180,5,,,0.00,1006.7,,TRUE,TRUE,,,,,,,,,,,,,,,,-0.29,,,,,,,,,,,METAR,180
CXDK 050000Z AUTO 22/M05 RMK AO1 SLP044 T02191051 56025,CXDK,2024-05-05T00:00:00Z,61.257,-124.468,21.9,-5.1,,,,,0.00,1004.4,,TRUE,TRUE,,,,,,,,,,,,,,,,-0.25,,,,,,,,,,,METAR,269
CWZV 050000Z AUTO 31027KT 11/07 RMK AO1 PK WND 31030/0000 SLP034 T01060072 58015,CWZV,2024-05-05T00:00:00Z,51.936,-131.016,10.6,7.2,310,27,,,0.00,1003.4,,TRUE,TRUE,,,,,,,,,,,,,,,,-0.15,,,,,,,,,,,METAR,83
CWZL 050000Z AUTO 16002KT 13/06 RMK AO1 SLP037 T01250061 58015,CWZL,2024-05-05T00:00:00Z,53.03,-131.602,12.5,6.1,160,2,,,0.00,1003.7,,TRUE,TRUE,,,,,,,,,,,,,,,,-0.15,,,,,,,,,,,METAR,17
CWXC 050000Z AUTO 18003KT 13/04 RMK AO1 SLP249 T01260035 50002,CWXC,2024-05-05T00:00:00Z,48.894,-71.032,12.6,3.5,180,3,,,0.00,1024.9,,TRUE,TRUE,,,,,,,,,,,,,,,,0.02,,,,,,,,,,,METAR,306
CWWS 050000Z AUTO 21007KT 02/M00 RMK AO1 SLP149 T00191001 58006,CWWS,2024-05-05T00:00:00Z,52.819,-97.616,1.9,-0.1,210,7,,,0.00,1014.9,,TRUE,TRUE,,,,,,,,,,,,,,,,-0.06,,,,,,,,,,,METAR,220
CWWL 050000Z AUTO 02008KT 14/08 RMK AO1 SLP020 T01360084 58017,CWWL,2024-05-05T00:00:00Z,53.493,-130.638,13.6,8.4,20,8,,,0.00,1002,,TRUE,TRUE,,,,,,,,,,,,,,,,-0.17,,,,,,,,,,,METAR,8
CWUX 050000Z AUTO 06006KT 09/05 RMK AO1 SLP259 T00850046 50004,CWUX,2024-05-05T00:00:00Z,48.298,-70.92,8.5,4.6,60,6,,,0.00,1025.9,,TRUE,TRUE,,,,,,,,,,,,,,,,0.04,,,,,,,,,,,METAR,150
CWRU 050000Z AUTO 33012KT 11/09 RMK AO1 SLP030 T01110086 56003,CWRU,2024-05-05T00:00:00Z,50.112,-127.941,11.1,8.6,330,12,,,0.00,1003,,TRUE,TRUE,,,,,,,,,,,,,,,,-0.03,,,,,,,,,,,METAR,76
CWQS 050000Z AUTO 00000KT RMK AO1 58013,CWQS,2024-05-05T00:00:00Z,53.316,-132.772,,,0,0,,,0.00,,,TRUE,TRUE,,,,,,,,,,,,,,,,-0.13,,,,,,,,,,,METAR,10
CWND 050000Z AUTO 32014KT M09/M11 RMK AO1 PK WND 34017/2304 SLP086 T10851114 50000,CWND,2024-05-05T00:00:00Z,69.632,-135.445,-8.5,-11.4,320,14,,,0.00,1008.6,,TRUE,TRUE,,,,,,,,,,,,,,,,,,,,,,,,,,,METAR,14
CWMZ 050000Z AUTO 13017KT 12/09 RMK AO1 PK WND 13021/2340 SLP152 T01190088 55007,CWMZ,2024-05-05T00:00:00Z,45.033,-80.367,11.9,8.8,130,17,,,0.00,1015.2,,TRUE,TRUE,,,,,,,,,,,,,,,,-0.07,,,,,,,,,,,METAR,175
CWME 050000Z AUTO 22006KT RMK AO1 58015,CWME,2024-05-05T00:00:00Z,52.187,-127.471,,,220,6,,,0.00,,,TRUE,TRUE,,,,,,,,,,,,,,,,-0.15,,,,,,,,,,,METAR,23
CWKH 050000Z AUTO 15/08 RMK AO1 SLP999 T01450078 52004,CWKH,2024-05-05T00:00:00Z,48.568,-123.542,14.5,7.8,,,,,0.00,999.9,,TRUE,TRUE,,,,,,,,,,,,,,,,0.04,,,,,,,,,,,METAR,327
CWKD 050000Z AUTO 06/04 RMK AO1 SLP261 T00640039 56007,CWKD,2024-05-05T00:00:00Z,50.729,-71.013,6.4,3.9,,,,,0.00,1026.1,,TRUE,TRUE,,,,,,,,,,,,,,,,-0.07,,,,,,,,,,,METAR,496
CWJO 050000Z AUTO 10007G15KT 11/04 RMK AO1 SLP246 T01110042 58005,CWJO,2024-05-05T00:00:00Z,48.425,-71.143,11.1,4.2,100,7,15,,0.00,1024.6,,TRUE,TRUE,,,,,,,,,,,,,,,,-0.05,,,,,,,,,,,METAR,113
CWGH 050000Z AUTO 19008KT 18/09 RMK AO1 SLP200 T01780087 56006,CWGH,2024-05-05T00:00:00Z,44.417,-75.847,17.8,8.7,190,8,,,0.00,1020,,TRUE,TRUE,,,,,,,,,,,,,,,,-0.06,,,,,,,,,,,METAR,76
CWEE 050000Z AUTO 12/07 RMK AO1 SLP222 T01180073 56009,CWEE,2024-05-05T00:00:00Z,49.279,-73.356,11.8,7.3,,,,,0.00,1022.2,,TRUE,TRUE,,,,,,,,,,,,,,,,-0.09,,,,,,,,,,,METAR,302
CWCI 050000Z AUTO 21005KT 06/06 RMK AO1 SLP112 T00550055 56008,CWCI,2024-05-05T00:00:00Z,47.341,-85.807,5.5,5.5,210,5,,,0.00,1011.2,,TRUE,TRUE,,,,,,,,,,,,,,,,-0.08,,,,,,,,,,,METAR,167
CTRA 050000Z AUTO 30002KT 09/02 RMK AO1 SLP153 T00900019 58001,CTRA,2024-05-05T00:00:00Z,49.664,-93.733,9,1.9,300,2,,,0.00,1015.3,,TRUE,TRUE,,,,,,,,,,,,,,,,-0.01,,,,,,,,,,,METAR,432
CPST 050000Z AUTO 13007KT 14/M05 RMK AO1 T01431049,CPST,2024-05-05T00:00:00Z,51.02,-113.27,14.3,-4.9,130,7,,,0.00,,,TRUE,TRUE,,,,,,,,,,,,,,,,,,,,,,,,,,,METAR,1005
AYPY 050000Z VRB03KT 9999 SCT015 SCT025 BKN050 29/25 Q1008,AYPY,2024-05-05T00:00:00Z,-9.443,147.216,29,25,VRB,3,,6+,29.76,,,,,,,,,,,SCT,1500,SCT,2500,BKN,5000,,,VFR,,,,,,,,,,,,METAR,44
AYNZ 050000Z 11005G15KT 5000 RA SCT005 SCT010 OVC030 25/24 Q1010 RMK: SHRA FM E TO S,AYNZ,2024-05-05T00:00:00Z,-6.568,146.727,25,24,110,5,15,3.11,29.82,,,,,,,,,,RA,SCT,500,SCT,1000,OVC,3000,,,MVFR,,,,,,,,,,,,METAR,74
MUCF 042359Z AUTO 04004KT 010V090 24/23 Q1013,MUCF,2024-05-04T23:59:00Z,22.159,-80.41,24,23,40,4,,,29.91,,,TRUE,,,,,,,,,,,,,,,,,,,,,,,,,,,,METAR,35
KMZJ 042358Z AUTO 22008KT 10SM CLR 32/M12 A2975 RMK AO2,KMZJ,2024-05-04T23:58:00Z,32.5147,-111.335,32,-12,220,8,,10+,29.75,,,TRUE,TRUE,,,,,,,CLR,,,,,,,,VFR,,,,,,,,,,,,METAR,574
PAGN 042356Z AUTO 00000KT 10SM CLR 14/05 A2961 RMK AO2 SLP016 T01390050 10156 20106 58026,PAGN,2024-05-04T23:56:00Z,57.502,-134.589,13.9,5,0,0,,10+,29.61,1001.6,,TRUE,TRUE,,,,,,,CLR,,,,,,,,VFR,-0.26,15.6,10.6,,,,,,,,,METAR,2
PADG 042356Z 01023G27KT 10SM SKC M05/M12 A2962,PADG,2024-05-04T23:56:00Z,68.028,-162.911,-5,-12,10,23,27,10+,29.62,,,,,,,,,,,SKC,,,,,,,,VFR,,,,,,,,,,,,SPECI,296
KNPA 042356Z AUTO 22006KT 10SM CLR 27/21 A2997 RMK AO2 SLP151 T02720211 10300 20272 58001 $,KNPA,2024-05-04T23:56:00Z,30.356,-87.323,27.2,21.1,220,6,,10+,29.97,1015.1,,TRUE,TRUE,TRUE,,,,,,CLR,,,,,,,,VFR,-0.01,30,27.2,,,,,,,,,METAR,6
LIVF 042355Z 23006KT CAVOK 13/07 Q1016,LIVF,2024-05-04T23:55:00Z,43.517,12.728,13,7,230,6,,6+,30.00,,,,,,,,,,,CAVOK,,,,,,,,VFR,,,,,,,,,,,,METAR,549
LIED 042355Z 36004KT 1000 NSC 12/10 Q1017 RMK SKC VIS MIN 9999 WIND THR35 /////KT WIND THR17 02002KT BLU,LIED,2024-05-04T23:55:00Z,39.354,8.973,12,10,360,4,,0.62,30.03,,,,,,,,,,,CLR,,,,,,,,LIFR,,,,,,,,,,,,METAR,26
LICT 042355Z 12004KT CAVOK 11/09 Q1018 RMK SKC VIS MIN 9999 WIND THR13 13004KT BLU,LICT,2024-05-04T23:55:00Z,37.911,12.488,11,9,120,4,,6+,30.06,,,,,,,,,,,CAVOK,,,,,,,,VFR,,,,,,,,,,,,METAR,4
KWRI 042355Z 07004KT 6SM -RA BR BKN004 BKN015 10/09 A3029 RMK AO2A DZE32RAB32 P0002 60008 T01020090 10134 20102 50002,KWRI,2024-05-04T23:55:00Z,40.016,-74.591,10.2,9,70,4,,6,30.29,,,,TRUE,,,,,,-RA BR,BKN,400,BKN,1500,,,,,LIFR,0.02,13.4,10.2,,,0.02,,0.08,,,,METAR,35
KQAZ 042355Z 00000KT 9999 CLR 33/M05 A2985 RMK AO2A SLP054 WND DATA ESTMD T03291051 10435 20348 403300329 58005,KQAZ,2024-05-04T23:55:00Z,-99.99,-99.99,32.9,-5.1,0,0,,6+,29.85,1005.4,,,TRUE,,,,,,,CLR,,,,,,,,VFR,-0.05,43.5,34.8,,,,,,,,,METAR,9999
KJKA 042355Z 19006KT 10SM FEW016 26/24 A2998,KJKA,2024-05-04T23:55:00Z,30.291,-87.661,26,24,190,6,,10+,29.98,,,,,,,,,,,FEW,1600,,,,,,,VFR,,,,,,,,,,,,METAR,5
KADW 042355Z 07009KT 2SM -DZ BR OVC004 11/10 A3020 RMK DZB53 SLPNO WND DATA ESTMD ALTSG/SLP ESTMD 60000,KADW,2024-05-04T23:55:00Z,38.8215,-76.8654,11,10,70,9,,2,30.20,,,,,,,,,,-DZ BR,OVC,400,,,,,,,LIFR,,,,,,,,0.005,,,,METAR,87
ETEB 042355Z AUTO 18004KT 9999 FEW100 12/08 A2985 RMK AO2 DZB18E19 SLP121 P0000 60000 T01220075 10162 20117 58007 $,ETEB,2024-05-04T23:55:00Z,49.308,10.639,12.2,7.5,180,4,,6+,29.85,1012.1,,TRUE,TRUE,TRUE,,,,,,FEW,10000,,,,,,,VFR,-0.07,16.2,11.7,,,0.005,,0.005,,,,METAR,466
